{"type":"FeatureCollection","attribution":"(c) OpenStreetMap contributors - opendatacommons.org/licenses/odbl","license":"ODbL-1.0","source":"OpenStreetMap via Overpass, way[\"highway\"=\"motorway\"][\"ref\"~\"^A ?33$\"]","features":[{"type":"Feature","properties":{"id":"a33","name":"A33 Asti-Cuneo","ambiguous":true,"ambiguousRunM":1397,"lengthM":4190},"geometry":{"type":"LineString","coordinates":[[7.777385,44.662183],[7.778755,44.662368],[7.778815,44.662377],[7.778871,44.662385],[7.779266,44.662446],[7.779525,44.662495],[7.779838,44.662563],[7.780203,44.66264],[7.78045,44.662678],[7.781391,44.662803],[7.783037,44.663005],[7.784093,44.663127],[7.786015,44.663331],[7.787395,44.663447],[7.787991,44.663499],[7.790278,44.663695],[7.793675,44.663979],[7.795614,44.664141],[7.797997,44.664346],[7.799957,44.664511],[7.80063,44.664572],[7.800887,44.664592],[7.801824,44.664666],[7.802685,44.664723],[7.803264,44.66476],[7.803736,44.664779],[7.804232,44.664795],[7.804777,44.6648],[7.80535,44.664791],[7.805874,44.664775],[7.806407,44.664747],[7.806931,44.664699],[7.80748,44.664637],[7.807965,44.664574],[7.808431,44.664498],[7.808983,44.664397],[7.809438,44.664297],[7.809836,44.664201],[7.810224,44.664105],[7.810614,44.663992],[7.811377,44.663752],[7.811918,44.663563],[7.812405,44.663371],[7.812795,44.663207],[7.813297,44.662986],[7.814098,44.662606],[7.814823,44.662261],[7.816313,44.661487],[7.816533,44.661369],[7.817277,44.660971],[7.818335,44.660359],[7.819031,44.659958],[7.820024,44.659437],[7.820806,44.659071],[7.821517,44.658742],[7.822214,44.658457],[7.822755,44.658264],[7.823178,44.658118],[7.823286,44.658086],[7.823837,44.657921],[7.82444,44.657756],[7.824953,44.657628],[7.825551,44.657497],[7.826178,44.657379],[7.826847,44.657268],[7.827726,44.657152],[7.828107,44.657114]]}},{"type":"Feature","properties":{"id":"a33","name":"A33 Asti-Cuneo","ambiguous":true,"ambiguousRunM":1282,"lengthM":18657},"geometry":{"type":"LineString","coordinates":[[7.999943,44.690708],[7.999612,44.690435],[7.998316,44.689416],[7.997984,44.689177],[7.997571,44.688888],[7.997127,44.688601],[7.99672,44.688341],[7.99627,44.688078],[7.996033,44.687956],[7.995795,44.687834],[7.995466,44.687669],[7.995187,44.687539],[7.994959,44.687435],[7.994665,44.687307],[7.994384,44.687191],[7.994107,44.687085],[7.992545,44.686565],[7.992187,44.686465],[7.991687,44.686342],[7.991143,44.686226],[7.990745,44.686147],[7.990319,44.686072],[7.989801,44.685997],[7.98937,44.685944],[7.988962,44.685904],[7.988563,44.68587],[7.988112,44.685839],[7.98764,44.68582],[7.987185,44.685812],[7.986727,44.685811],[7.986148,44.685823],[7.985755,44.685838],[7.985123,44.685882],[7.984418,44.685937],[7.983771,44.686003],[7.983047,44.686087],[7.98243,44.686168],[7.981991,44.686226],[7.981266,44.686326],[7.980423,44.686446],[7.979927,44.686516],[7.979121,44.68663],[7.978199,44.686762],[7.975619,44.687122],[7.974812,44.687235],[7.974539,44.687272],[7.97409,44.687334],[7.972318,44.687567],[7.97211,44.687595],[7.971173,44.687695],[7.970415,44.687768],[7.969669,44.68783],[7.969126,44.687866],[7.968585,44.687897],[7.96812,44.687917],[7.967487,44.687939],[7.96688,44.687952],[7.966187,44.687955],[7.965686,44.687954],[7.965299,44.687947],[7.96423,44.68791],[7.963505,44.687862],[7.96274,44.687805],[7.962353,44.687767],[7.961861,44.687718],[7.961185,44.687645],[7.960111,44.687511],[7.958054,44.687186],[7.954129,44.686419],[7.952302,44.686063],[7.950141,44.68567],[7.946962,44.68518],[7.9447,44.684877],[7.939516,44.684216],[7.938297,44.683993],[7.93727,44.683784],[7.936144,44.68348],[7.934985,44.683115],[7.934128,44.682803],[7.932971,44.682371],[7.931929,44.681974],[7.930477,44.681466],[7.929555,44.681185],[7.928483,44.680943],[7.927515,44.680787],[7.926998,44.680738],[7.925568,44.68067],[7.924352,44.680612],[7.922758,44.680503],[7.921063,44.680281],[7.919787,44.680023],[7.918922,44.679819],[7.91823,44.67962],[7.917248,44.679275],[7.916179,44.678834],[7.915233,44.678374],[7.914455,44.677947],[7.913766,44.6775],[7.913071,44.676983],[7.912275,44.676349],[7.909555,44.674165],[7.906811,44.671878],[7.902552,44.668475],[7.900229,44.666751],[7.898521,44.665837],[7.897396,44.665378],[7.89619,44.664989],[7.894973,44.664681],[7.892307,44.664221],[7.888006,44.663579],[7.885732,44.663236],[7.88363,44.662991],[7.882222,44.662925],[7.88141,44.662926],[7.880684,44.662953],[7.88042,44.662978],[7.879305,44.663083],[7.878047,44.663242],[7.877138,44.66335],[7.874675,44.663669],[7.87277,44.663916],[7.872429,44.663951],[7.872019,44.663989],[7.871369,44.664035],[7.870765,44.664062],[7.870251,44.664075],[7.86976,44.664082],[7.868648,44.664051],[7.867999,44.664007],[7.8673,44.663947],[7.86627,44.663827],[7.863421,44.663494],[7.861689,44.663284],[7.860858,44.663176],[7.86034,44.663108],[7.860027,44.663067],[7.856825,44.662686],[7.855005,44.662468],[7.853896,44.662327],[7.852434,44.662156],[7.851322,44.662009],[7.850826,44.661943],[7.8503,44.661858],[7.849349,44.661683],[7.84868,44.661549],[7.847972,44.661388],[7.847309,44.661215],[7.846832,44.661088],[7.846003,44.660849],[7.844746,44.660451],[7.844062,44.660225],[7.843103,44.659908],[7.84165,44.659431],[7.840183,44.658951],[7.839484,44.658728],[7.838385,44.658394],[7.837707,44.658202],[7.837171,44.658057],[7.836411,44.657868],[7.835745,44.657719],[7.835115,44.65759],[7.83436,44.657458],[7.833783,44.657379],[7.833185,44.657308],[7.832587,44.65725],[7.831837,44.657203],[7.831345,44.657181],[7.83102,44.657173],[7.830493,44.657165],[7.830006,44.657169],[7.829578,44.657185],[7.82907,44.65721],[7.828549,44.657246],[7.828324,44.657266],[7.827968,44.657301],[7.827539,44.65735],[7.826988,44.657425],[7.826461,44.657509],[7.825965,44.657597],[7.825496,44.657694],[7.824821,44.657849],[7.824318,44.657976],[7.823872,44.658102],[7.823258,44.658292],[7.823064,44.658355],[7.822953,44.658392],[7.822413,44.658584],[7.822053,44.658729],[7.821623,44.658913],[7.821164,44.659126],[7.820577,44.659414],[7.820027,44.6597],[7.819125,44.660195],[7.818025,44.66081],[7.816581,44.661554],[7.815273,44.662222],[7.814214,44.662742],[7.813579,44.663054],[7.813103,44.663274],[7.81274,44.663435],[7.812406,44.663573],[7.811858,44.663773],[7.811319,44.66396],[7.810775,44.664132],[7.810205,44.664285],[7.809715,44.664408],[7.809188,44.664519],[7.808629,44.664626],[7.808072,44.664715],[7.807483,44.664788],[7.806921,44.664846],[7.806386,44.664883],[7.805642,44.664919],[7.805089,44.664927],[7.804607,44.664921],[7.803985,44.664907],[7.803331,44.664879],[7.802651,44.664838],[7.802038,44.664794],[7.801423,44.664743],[7.800828,44.664694],[7.799913,44.664614],[7.797976,44.664452],[7.795549,44.664245],[7.794247,44.664137],[7.793657,44.664088],[7.792873,44.664017],[7.790228,44.663793],[7.789117,44.663698],[7.787368,44.663551],[7.785441,44.663373],[7.784147,44.663235],[7.783027,44.663108],[7.781602,44.662938],[7.781403,44.66291],[7.780277,44.662754],[7.77883,44.662533],[7.778771,44.662526],[7.778714,44.662517],[7.777884,44.662392]]}},{"type":"Feature","properties":{"id":"a33","name":"A33 Asti-Cuneo","ambiguous":false,"ambiguousRunM":923,"lengthM":19865},"geometry":{"type":"LineString","coordinates":[[8.202433,44.859976],[8.198932,44.855625],[8.194107,44.849748],[8.193272,44.848731],[8.192095,44.847294],[8.189764,44.844806],[8.189062,44.844091],[8.188308,44.843387],[8.187498,44.842689],[8.186573,44.842042],[8.186342,44.841882],[8.18601,44.841652],[8.185417,44.841262],[8.184759,44.840881],[8.183915,44.840418],[8.183002,44.840029],[8.182272,44.839766],[8.181146,44.839443],[8.179788,44.839098],[8.17822,44.838692],[8.177087,44.838348],[8.176397,44.838112],[8.175615,44.83776],[8.174962,44.837436],[8.174247,44.837051],[8.173422,44.836604],[8.172068,44.835839],[8.170715,44.835074],[8.169129,44.834218],[8.16731,44.833203],[8.164398,44.831567],[8.161926,44.83021],[8.160286,44.829236],[8.156973,44.827221],[8.154723,44.825843],[8.153574,44.825139],[8.153028,44.82481],[8.151283,44.823757],[8.148811,44.822229],[8.147753,44.821575],[8.146393,44.82067],[8.145301,44.819869],[8.14332,44.818346],[8.141613,44.81697],[8.140575,44.816105],[8.140089,44.815701],[8.139529,44.81521],[8.138696,44.814437],[8.137833,44.813569],[8.136905,44.812503],[8.136065,44.811404],[8.135464,44.810541],[8.134818,44.80947],[8.134184,44.808282],[8.133706,44.807204],[8.133247,44.805944],[8.132709,44.804254],[8.13239,44.803211],[8.13223,44.802653],[8.131855,44.801448],[8.131316,44.799748],[8.131097,44.799152],[8.13046,44.79702],[8.12992,44.795196],[8.129311,44.793316],[8.128959,44.792433],[8.128496,44.791361],[8.127852,44.790313],[8.127225,44.789491],[8.12629,44.788443],[8.12538,44.787578],[8.123829,44.786349],[8.123136,44.785853],[8.122408,44.785403],[8.121564,44.784937],[8.119778,44.783996],[8.116801,44.78253],[8.116224,44.782224],[8.115676,44.781932],[8.115048,44.781567],[8.114522,44.781238],[8.114073,44.780947],[8.113981,44.780888],[8.113484,44.780552],[8.112653,44.779931],[8.111708,44.77913],[8.111224,44.778688],[8.110763,44.778246],[8.110036,44.777535],[8.109445,44.776939],[8.10854,44.776033],[8.1077,44.775202],[8.107468,44.774978],[8.107185,44.774705],[8.106649,44.774167],[8.106301,44.773818],[8.105417,44.772932],[8.103995,44.771484],[8.103329,44.77081],[8.101843,44.76932],[8.101373,44.768926],[8.101047,44.768681],[8.10072,44.768437],[8.100444,44.768208],[8.100243,44.76802],[8.099998,44.767783],[8.099863,44.767657],[8.099775,44.76757],[8.099679,44.767437],[8.099587,44.767297],[8.099525,44.767182],[8.0994,44.76695],[8.099256,44.766742],[8.099097,44.766551],[8.098453,44.76591],[8.097031,44.764476],[8.096044,44.763511],[8.094714,44.762243],[8.093629,44.761363],[8.093392,44.761171],[8.092921,44.760826],[8.091529,44.759806],[8.090001,44.758794],[8.087349,44.756971],[8.085615,44.755722],[8.084268,44.754722],[8.083133,44.753776],[8.081739,44.752532],[8.080419,44.751233],[8.079935,44.750738],[8.079726,44.750531],[8.077367,44.748145],[8.075342,44.746103],[8.074543,44.745299],[8.073496,44.744287],[8.072347,44.743219],[8.070434,44.741425],[8.06769,44.738876],[8.065419,44.736741],[8.064184,44.735599],[8.061918,44.733471],[8.060887,44.732508],[8.060424,44.732075],[8.058914,44.730679],[8.057497,44.729337],[8.055884,44.727825],[8.05389,44.726003],[8.053695,44.725825],[8.052274,44.724542],[8.052044,44.724335],[8.048433,44.721315]]}},{"type":"Feature","properties":{"id":"a33","name":"A33 Asti-Cuneo","ambiguous":false,"ambiguousRunM":924,"lengthM":19871},"geometry":{"type":"LineString","coordinates":[[8.048535,44.721252],[8.05215,44.724273],[8.053815,44.725782],[8.056004,44.727758],[8.057626,44.729282],[8.059051,44.73063],[8.060519,44.73202],[8.060989,44.732461],[8.062021,44.733429],[8.064329,44.735581],[8.06627,44.737366],[8.06784,44.73883],[8.069471,44.740367],[8.071629,44.742367],[8.072495,44.743175],[8.073582,44.744238],[8.073833,44.744474],[8.074342,44.744946],[8.075088,44.745663],[8.075891,44.746463],[8.077337,44.747928],[8.078755,44.749358],[8.079893,44.750522],[8.080107,44.750734],[8.080906,44.751526],[8.081719,44.752318],[8.082283,44.752852],[8.083042,44.753517],[8.08372,44.754103],[8.084656,44.754827],[8.085572,44.755515],[8.086142,44.755927],[8.087007,44.756535],[8.088152,44.757316],[8.089105,44.75796],[8.090125,44.758664],[8.091328,44.75949],[8.09226,44.760154],[8.093058,44.760739],[8.093301,44.760917],[8.093766,44.761281],[8.094285,44.761704],[8.095023,44.762349],[8.095754,44.763023],[8.096512,44.76375],[8.096896,44.764144],[8.09728,44.764537],[8.098132,44.765364],[8.098707,44.765901],[8.099094,44.766209],[8.099817,44.766762],[8.100022,44.766942],[8.100198,44.767112],[8.100328,44.76724],[8.100468,44.767379],[8.100558,44.767477],[8.100663,44.767595],[8.100776,44.767769],[8.10091,44.767978],[8.101091,44.768272],[8.101197,44.76842],[8.101342,44.76859],[8.102008,44.769289],[8.102751,44.770028],[8.103537,44.770821],[8.104138,44.771423],[8.105011,44.772305],[8.105835,44.773137],[8.106677,44.773972],[8.107379,44.774694],[8.108162,44.775465],[8.108897,44.776216],[8.109257,44.776572],[8.109584,44.776898],[8.109898,44.777208],[8.110459,44.777778],[8.110986,44.778298],[8.111433,44.778719],[8.112194,44.779389],[8.112879,44.779955],[8.113717,44.78057],[8.114162,44.780867],[8.11456,44.781134],[8.115431,44.781657],[8.116505,44.782252],[8.11749,44.782752],[8.11856,44.783277],[8.119809,44.783891],[8.121103,44.784554],[8.122322,44.785227],[8.122933,44.785589],[8.123337,44.785845],[8.123958,44.786275],[8.125628,44.787518],[8.12652,44.788413],[8.127439,44.789449],[8.128057,44.790326],[8.128668,44.79134],[8.129155,44.792409],[8.129466,44.793262],[8.130089,44.795186],[8.130621,44.797005],[8.131274,44.79904],[8.131403,44.799546],[8.131993,44.801417],[8.132362,44.802621],[8.132523,44.803193],[8.13284,44.804231],[8.133396,44.805921],[8.133865,44.807166],[8.13432,44.808254],[8.134951,44.809419],[8.135592,44.810491],[8.13618,44.811343],[8.137018,44.812451],[8.137945,44.813508],[8.138791,44.81436],[8.139624,44.81514],[8.140193,44.815634],[8.140716,44.816071],[8.141731,44.816919],[8.143427,44.818287],[8.145413,44.819803],[8.146507,44.820618],[8.147837,44.8215],[8.148922,44.822175],[8.151394,44.82366],[8.153117,44.824709],[8.153763,44.825103],[8.154794,44.825747],[8.157089,44.827148],[8.160452,44.82917],[8.162066,44.830116],[8.164569,44.831537],[8.167431,44.833134],[8.169218,44.834134],[8.170818,44.835],[8.172175,44.83576],[8.173533,44.83652],[8.174244,44.836877],[8.17462,44.837076],[8.175708,44.837687],[8.176487,44.838024],[8.177134,44.838242],[8.178297,44.838596],[8.179849,44.839008],[8.18121,44.839339],[8.182327,44.839681],[8.183071,44.839936],[8.184019,44.840326],[8.184882,44.84079],[8.185533,44.841186],[8.186115,44.841585],[8.186443,44.841799],[8.18669,44.84196],[8.187618,44.842632],[8.18847,44.84331],[8.189244,44.844023],[8.189981,44.844722],[8.190678,44.845464],[8.191015,44.845828],[8.191576,44.84642],[8.192191,44.847236],[8.193212,44.848477],[8.199035,44.855594],[8.201437,44.858559],[8.202549,44.859932]]}},{"type":"Feature","properties":{"id":"a33","name":"A33 Asti-Cuneo","ambiguous":false,"ambiguousRunM":19,"lengthM":12242},"geometry":{"type":"LineString","coordinates":[[7.853929,44.662235],[7.855023,44.662362],[7.856705,44.662568],[7.857028,44.662608],[7.859623,44.662923],[7.860378,44.663015],[7.860901,44.663079],[7.863353,44.663377],[7.866285,44.663729],[7.866881,44.663801],[7.867631,44.663874],[7.868528,44.663944],[7.869203,44.663971],[7.869685,44.663977],[7.870247,44.663972],[7.870741,44.663958],[7.871223,44.663936],[7.871669,44.663903],[7.872095,44.663868],[7.87276,44.663803],[7.87359,44.663711],[7.875618,44.663453],[7.879621,44.66292],[7.880414,44.662857],[7.881371,44.6628],[7.882241,44.662806],[7.883541,44.662868],[7.884937,44.663009],[7.888742,44.663563],[7.892327,44.664103],[7.895075,44.664564],[7.896252,44.664867],[7.897551,44.665287],[7.898646,44.66573],[7.900337,44.666618],[7.902728,44.668389],[7.906911,44.671805],[7.909655,44.674057],[7.912395,44.676271],[7.913188,44.676906],[7.913885,44.677419],[7.914562,44.677853],[7.915354,44.678261],[7.916445,44.678793],[7.917352,44.679164],[7.918287,44.679495],[7.918979,44.679685],[7.919864,44.679907],[7.921138,44.680155],[7.922814,44.680378],[7.924383,44.680479],[7.925731,44.680541],[7.926924,44.680602],[7.927453,44.68065],[7.928523,44.680823],[7.929615,44.681077],[7.930504,44.681341],[7.931812,44.681793],[7.933067,44.682268],[7.934209,44.682695],[7.935083,44.683004],[7.936234,44.683359],[7.937315,44.68365],[7.938309,44.683863],[7.939528,44.68408],[7.944729,44.684758],[7.947008,44.685065],[7.948313,44.685265],[7.950175,44.685566],[7.952793,44.686045],[7.955669,44.686598],[7.95719,44.686899],[7.958122,44.687059],[7.959746,44.687331],[7.96092,44.687498],[7.961683,44.68759],[7.962345,44.687657],[7.962499,44.687672],[7.963259,44.687737],[7.964108,44.687789],[7.964569,44.687813],[7.964994,44.687827],[7.965425,44.68784],[7.966052,44.687848],[7.96666,44.687845],[7.967149,44.687837],[7.967704,44.687825],[7.96818,44.68781],[7.968849,44.687779],[7.969647,44.687727],[7.970446,44.687668],[7.972085,44.687485],[7.972295,44.687457],[7.974073,44.687238],[7.974814,44.687138],[7.976044,44.68696],[7.978217,44.686646],[7.979143,44.686514],[7.980378,44.68634],[7.981241,44.686218],[7.981975,44.686119],[7.982162,44.686096],[7.982769,44.686016],[7.983272,44.685947],[7.983784,44.685889],[7.984322,44.685837],[7.984904,44.685787],[7.985331,44.685759],[7.985998,44.685726],[7.986626,44.685703],[7.987188,44.685695],[7.987745,44.685709],[7.988488,44.685749],[7.989101,44.685798],[7.989694,44.685864],[7.990381,44.685963],[7.990812,44.68604],[7.991521,44.686186],[7.992041,44.686309],[7.992553,44.686441],[7.992969,44.686566],[7.99376,44.686827],[7.994133,44.686961],[7.994528,44.687115],[7.994931,44.687283],[7.995202,44.687402],[7.995438,44.68751],[7.99584,44.687711],[7.996226,44.687905],[7.996764,44.688216],[7.997162,44.688469],[7.997626,44.688773],[7.998179,44.689154],[7.998459,44.689359],[7.99863,44.689486]]}}]}
