{"type":"FeatureCollection","attribution":"(c) OpenStreetMap contributors - opendatacommons.org/licenses/odbl","license":"ODbL-1.0","source":"OpenStreetMap via Overpass, way[highway=motorway][ref~^A ?36$]","features":[{"type":"Feature","properties":{"id":"a36","name":"A36 Pedemontana","ambiguous":false,"ambiguousRunM":471,"lengthM":20753},"geometry":{"type":"LineString","coordinates":[[8.839882,45.64598],[8.840057,45.646283],[8.840249,45.646572],[8.840425,45.646812],[8.840819,45.647266],[8.840981,45.647432],[8.841144,45.647598],[8.841187,45.647639],[8.841306,45.647751],[8.841446,45.647876],[8.841643,45.648048],[8.841917,45.648267],[8.842187,45.648458],[8.842535,45.648695],[8.84279,45.64885],[8.843042,45.648998],[8.843441,45.64921],[8.843827,45.6494],[8.844044,45.649489],[8.844425,45.649633],[8.845011,45.649851],[8.8456,45.650035],[8.846685,45.650316],[8.847292,45.650447],[8.850266,45.650954],[8.85496,45.651762],[8.857192,45.652138],[8.85886,45.652475],[8.862304,45.653086],[8.863986,45.653408],[8.865078,45.653585],[8.866092,45.653832],[8.868076,45.654393],[8.870467,45.655195],[8.871484,45.655589],[8.872524,45.656031],[8.874474,45.656931],[8.875096,45.65715],[8.875965,45.657409],[8.877113,45.657692],[8.877754,45.657851],[8.878712,45.658033],[8.87954,45.658161],[8.880492,45.658283],[8.881478,45.658335],[8.883036,45.658248],[8.88416,45.658172],[8.885149,45.658086],[8.886014,45.657983],[8.88695,45.657909],[8.88774,45.657764],[8.890135,45.657273],[8.89108,45.657011],[8.893095,45.656659],[8.894846,45.656398],[8.896498,45.656276],[8.898405,45.656201],[8.901073,45.656311],[8.902117,45.656455],[8.903379,45.656643],[8.906281,45.657251],[8.909333,45.657955],[8.910132,45.658133],[8.910747,45.65827],[8.914244,45.659049],[8.918277,45.659976],[8.919546,45.66021],[8.920722,45.660379],[8.921632,45.66048],[8.922491,45.660545],[8.924065,45.660631],[8.92446,45.660655],[8.926805,45.66073],[8.928873,45.660975],[8.93009,45.661186],[8.931411,45.661506],[8.932657,45.661823],[8.934183,45.662307],[8.934708,45.662456],[8.935326,45.662605],[8.935952,45.662739],[8.937138,45.662904],[8.937913,45.662972],[8.938776,45.662993],[8.939716,45.662979],[8.940494,45.662931],[8.940682,45.662917],[8.941224,45.662858],[8.941858,45.66278],[8.942484,45.662681],[8.942947,45.662591],[8.943478,45.66248],[8.944209,45.662304],[8.945229,45.661988],[8.945652,45.661859],[8.946851,45.661445],[8.947479,45.661265],[8.947805,45.661174],[8.948306,45.661048],[8.949019,45.660901],[8.949577,45.660801],[8.950231,45.66071],[8.950957,45.660624],[8.951412,45.660582],[8.952039,45.660543],[8.952594,45.660523],[8.953338,45.660525],[8.954329,45.660563],[8.955382,45.660655],[8.956415,45.660803],[8.956867,45.660887],[8.957789,45.661075],[8.958585,45.661283],[8.959181,45.661465],[8.960081,45.661803],[8.960925,45.662148],[8.96147,45.662411],[8.961676,45.662516],[8.961985,45.662672],[8.962823,45.663148],[8.963493,45.663564],[8.964099,45.66399],[8.969327,45.667482],[8.97018,45.668304],[8.970944,45.669234],[8.971552,45.6703],[8.972134,45.671203],[8.972809,45.672027],[8.973557,45.672904],[8.974387,45.673616],[8.975267,45.674327],[8.976545,45.675072],[8.97683,45.675194],[8.977121,45.675319],[8.977793,45.675608],[8.979058,45.676021],[8.979705,45.676206],[8.980379,45.676376],[8.981207,45.676524],[8.9822,45.676672],[8.983117,45.676757],[8.98397,45.676776],[8.986188,45.676805],[8.987514,45.676766],[8.988926,45.676759],[8.990804,45.676761],[8.992904,45.676831],[8.994691,45.676869],[8.996778,45.676929],[9.000908,45.67709],[9.001643,45.677133],[9.005032,45.677269],[9.00589,45.677303],[9.008149,45.677409],[9.00926,45.677456],[9.010374,45.677482],[9.012679,45.677584],[9.013824,45.677644],[9.014968,45.677709],[9.015548,45.67774],[9.017967,45.677816],[9.022237,45.677951],[9.023744,45.678011],[9.025699,45.678051],[9.026674,45.678073],[9.027884,45.678101],[9.028993,45.678153],[9.030117,45.678186],[9.033129,45.678288],[9.034393,45.678317],[9.036114,45.678337],[9.037776,45.67837],[9.039435,45.678393],[9.040954,45.67842],[9.042236,45.678445],[9.042596,45.678455],[9.042936,45.678478],[9.043645,45.678504],[9.043922,45.678505],[9.04584,45.678518],[9.046449,45.678529],[9.047849,45.678548],[9.048534,45.678555],[9.049275,45.678559],[9.050116,45.678577],[9.05114,45.67859],[9.051937,45.6786],[9.054192,45.678615],[9.058517,45.678655],[9.059504,45.678663],[9.060006,45.678671],[9.060498,45.67868],[9.060873,45.678692],[9.061247,45.678707],[9.061521,45.67872],[9.061805,45.678736],[9.062376,45.67877],[9.062715,45.6788],[9.063056,45.678828],[9.063534,45.678879],[9.064009,45.678938],[9.064622,45.679033],[9.065228,45.679136],[9.065658,45.679214],[9.066148,45.679322],[9.066565,45.679416],[9.066837,45.679485],[9.067108,45.679556],[9.067557,45.679678],[9.067899,45.679779],[9.068175,45.679872],[9.068429,45.679954],[9.068732,45.680059],[9.069122,45.680202],[9.069473,45.680329],[9.069783,45.680449],[9.070112,45.680576],[9.070417,45.680704],[9.070753,45.68086],[9.071554,45.681263],[9.071945,45.681463],[9.072407,45.681706],[9.072648,45.681843],[9.072926,45.681999],[9.07317,45.682146],[9.073407,45.682297],[9.073699,45.682496],[9.074229,45.682861],[9.074515,45.683046],[9.074774,45.683205],[9.075136,45.683438],[9.075501,45.683658],[9.075838,45.683844],[9.076227,45.684053],[9.076624,45.684239],[9.077399,45.684579],[9.077764,45.684725],[9.078068,45.684841],[9.078373,45.684947],[9.078731,45.68506],[9.079118,45.685176],[9.079557,45.685294],[9.08003,45.685406],[9.080492,45.68551],[9.081026,45.685617],[9.081679,45.685717],[9.082259,45.685786],[9.082796,45.685834],[9.083357,45.685867],[9.08402,45.685889],[9.084528,45.68589],[9.085098,45.685858],[9.085698,45.685815],[9.086345,45.685749],[9.08691,45.685684],[9.087256,45.685632]]}},{"type":"Feature","properties":{"id":"a36","name":"A36 Pedemontana","ambiguous":false,"ambiguousRunM":574,"lengthM":20358},"geometry":{"type":"LineString","coordinates":[[9.083139,45.685994],[9.082467,45.685947],[9.081898,45.685892],[9.081291,45.685806],[9.080734,45.685711],[9.079959,45.685546],[9.079346,45.685392],[9.078835,45.685251],[9.078361,45.685105],[9.077982,45.684973],[9.077631,45.684841],[9.077275,45.684694],[9.076941,45.684557],[9.076634,45.684419],[9.076238,45.684234],[9.075774,45.683996],[9.075432,45.683806],[9.075085,45.683603],[9.074609,45.683304],[9.074322,45.683123],[9.073388,45.682501],[9.072892,45.68219],[9.072406,45.681918],[9.071957,45.681675],[9.071573,45.681492],[9.070854,45.681115],[9.07038,45.680889],[9.069868,45.680673],[9.069371,45.680482],[9.068822,45.680279],[9.068316,45.68011],[9.06789,45.679978],[9.067319,45.679805],[9.066735,45.679647],[9.066285,45.679519],[9.065693,45.679382],[9.065198,45.679291],[9.064677,45.679198],[9.064186,45.679119],[9.063726,45.679054],[9.063226,45.678994],[9.062534,45.67893],[9.061954,45.678881],[9.061189,45.678839],[9.060387,45.678805],[9.059709,45.678786],[9.057952,45.678774],[9.05422,45.678717],[9.053097,45.678706],[9.052035,45.678708],[9.051155,45.678694],[9.049846,45.678672],[9.048277,45.678656],[9.047696,45.678647],[9.046451,45.678632],[9.045839,45.678623],[9.043905,45.678608],[9.043572,45.678603],[9.042937,45.678583],[9.040948,45.678544],[9.039428,45.678485],[9.036139,45.678442],[9.035023,45.678427],[9.033123,45.678384],[9.031615,45.678343],[9.030111,45.678288],[9.027169,45.678187],[9.025763,45.678156],[9.021951,45.678048],[9.01799,45.67792],[9.017391,45.677903],[9.016801,45.677884],[9.015574,45.677847],[9.014965,45.677814],[9.008837,45.677513],[9.00754,45.677462],[9.005127,45.677378],[9.003097,45.677329],[9.00159,45.67725],[9.000856,45.67721],[8.99673,45.677051],[8.994669,45.676991],[8.992849,45.676943],[8.990763,45.676935],[8.98896,45.676928],[8.987551,45.676915],[8.986178,45.676952],[8.983962,45.676952],[8.983088,45.676893],[8.982095,45.676797],[8.981113,45.676678],[8.980323,45.676507],[8.979617,45.676329],[8.978958,45.676139],[8.97767,45.675712],[8.977031,45.675439],[8.976741,45.675315],[8.976381,45.675162],[8.975175,45.674477],[8.974181,45.673731],[8.973303,45.672927],[8.972595,45.672072],[8.971961,45.671256],[8.97136,45.67033],[8.970764,45.669323],[8.969975,45.668386],[8.969183,45.66758],[8.963953,45.664081],[8.963329,45.663668],[8.962669,45.663242],[8.961859,45.662771],[8.960855,45.662281],[8.959108,45.661609],[8.958535,45.661441],[8.957768,45.661228],[8.957102,45.66108],[8.956896,45.661035],[8.955671,45.660835],[8.95504,45.660761],[8.954409,45.660713],[8.953566,45.660669],[8.95313,45.660661],[8.952623,45.660665],[8.952107,45.660674],[8.951491,45.660711],[8.950922,45.660764],[8.950382,45.660823],[8.949907,45.660889],[8.949318,45.660986],[8.948523,45.661148],[8.947532,45.661394],[8.945729,45.661978],[8.945403,45.662073],[8.944342,45.66241],[8.943822,45.662551],[8.94319,45.662694],[8.942569,45.662811],[8.942106,45.662889],[8.941871,45.662928],[8.941413,45.662986],[8.940892,45.663039],[8.94028,45.663091],[8.938763,45.663125],[8.93794,45.663111],[8.936998,45.663051],[8.935859,45.662881],[8.935235,45.662759],[8.934622,45.662614],[8.93411,45.662484],[8.932581,45.662013],[8.93135,45.661632],[8.930043,45.66134],[8.929505,45.661221],[8.92892,45.661122],[8.928582,45.661074],[8.92814,45.661017],[8.92745,45.660939],[8.926839,45.660897],[8.926248,45.660865],[8.925686,45.660843],[8.925023,45.660829],[8.92409,45.660766],[8.923229,45.660715],[8.922341,45.660655],[8.921628,45.660604],[8.920582,45.660494],[8.919668,45.660363],[8.918998,45.660248],[8.918181,45.660079],[8.91418,45.659178],[8.910155,45.658265],[8.909285,45.658068],[8.906226,45.657368],[8.90333,45.656771],[8.902079,45.65658],[8.901049,45.656457],[8.898389,45.656341],[8.896463,45.656431],[8.894863,45.656559],[8.893245,45.656823],[8.891139,45.657205],[8.890171,45.657479],[8.887927,45.658041],[8.887506,45.65814],[8.8869,45.658245],[8.885936,45.658334],[8.885072,45.658435],[8.884095,45.658509],[8.882867,45.658587],[8.881414,45.658637],[8.880391,45.658575],[8.879429,45.658469],[8.8786,45.658333],[8.877608,45.658091],[8.876989,45.657926],[8.87591,45.657617],[8.874996,45.657302],[8.874364,45.657084],[8.872451,45.656131],[8.871572,45.655755],[8.870391,45.655281],[8.86807,45.654487],[8.866018,45.653935],[8.865019,45.653717],[8.863948,45.653513],[8.862221,45.653214],[8.859559,45.652731],[8.855068,45.651942],[8.850223,45.651078],[8.848028,45.650688],[8.847893,45.650664],[8.847232,45.650568],[8.84662,45.650447],[8.845952,45.650281],[8.845407,45.650132],[8.844865,45.649958],[8.844369,45.649771],[8.843997,45.64962],[8.843692,45.649479],[8.843078,45.649168],[8.842688,45.64895],[8.842254,45.648683],[8.841767,45.648368],[8.841454,45.64813],[8.841168,45.64789],[8.840984,45.647711],[8.840773,45.647499],[8.840626,45.647346],[8.840224,45.646896]]}}]}
