{"type":"FeatureCollection","attribution":"(c) OpenStreetMap contributors - opendatacommons.org/licenses/odbl","license":"ODbL-1.0","source":"OpenStreetMap via Overpass, way[highway=motorway][ref~^A ?59$]","features":[{"type":"Feature","properties":{"id":"a59","name":"A59 Tangenziale di Como","ambiguous":false,"ambiguousRunM":322,"lengthM":2682},"geometry":{"type":"LineString","coordinates":[[9.073744,45.772426],[9.07327,45.772273],[9.072799,45.772128],[9.072336,45.771997],[9.071955,45.771895],[9.071523,45.77181],[9.070927,45.77171],[9.070155,45.771608],[9.069525,45.771553],[9.068953,45.771528],[9.068478,45.771546],[9.064338,45.771713],[9.063241,45.771768],[9.06252,45.771804],[9.061919,45.771834],[9.061119,45.771826],[9.060583,45.771792],[9.059923,45.771726],[9.058893,45.77158],[9.057339,45.771349],[9.057027,45.771303],[9.056248,45.771188],[9.056101,45.771167],[9.053577,45.770819],[9.052648,45.770691],[9.05242,45.770657],[9.05217,45.770622],[9.051845,45.770558],[9.051486,45.770488],[9.051098,45.770432],[9.050381,45.770338],[9.049734,45.770257],[9.04949,45.770226],[9.049013,45.770176],[9.047855,45.770074],[9.047157,45.770031],[9.04599,45.769992],[9.045369,45.769981],[9.045322,45.769981],[9.044284,45.769994],[9.043388,45.770005],[9.041665,45.770031],[9.041166,45.770039],[9.040613,45.770036],[9.040216,45.77003],[9.040008,45.770021],[9.039684,45.770012]]}},{"type":"Feature","properties":{"id":"a59","name":"A59 Tangenziale di Como","ambiguous":false,"ambiguousRunM":460,"lengthM":2747},"geometry":{"type":"LineString","coordinates":[[9.039687,45.769923],[9.040009,45.769933],[9.04092,45.769934],[9.04146,45.769925],[9.041532,45.769924],[9.043069,45.769894],[9.044672,45.769859],[9.045092,45.769855],[9.045483,45.769854],[9.046942,45.769898],[9.047122,45.769907],[9.047825,45.769949],[9.048443,45.769998],[9.048981,45.770049],[9.049825,45.770148],[9.050473,45.770236],[9.051046,45.770318],[9.051099,45.770322],[9.051489,45.770379],[9.051629,45.770398],[9.052439,45.770509],[9.052676,45.770547],[9.05342,45.770657],[9.055029,45.770895],[9.056101,45.771054],[9.056853,45.771166],[9.057368,45.771241],[9.058003,45.771335],[9.058932,45.771455],[9.060343,45.771644],[9.060857,45.771681],[9.061598,45.771694],[9.062227,45.771664],[9.062995,45.771605],[9.064551,45.771521],[9.06834,45.771394],[9.068889,45.77138],[9.069629,45.771409],[9.070453,45.771475],[9.07122,45.771555],[9.072187,45.771736],[9.072714,45.771859],[9.073342,45.772017],[9.074577,45.772388]]}}]}
