{"type":"FeatureCollection","attribution":"(c) OpenStreetMap contributors - opendatacommons.org/licenses/odbl","license":"ODbL-1.0","source":"OpenStreetMap via Overpass, way[highway=motorway][ref~^A ?60$]","features":[{"type":"Feature","properties":{"id":"a60","name":"A60 Tangenziale di Varese","ambiguous":false,"ambiguousRunM":313,"lengthM":4492},"geometry":{"type":"LineString","coordinates":[[8.81963,45.770917],[8.821507,45.770518],[8.822482,45.770347],[8.823532,45.770206],[8.824167,45.770149],[8.82527,45.770041],[8.826329,45.76998],[8.827493,45.769987],[8.828599,45.770034],[8.829963,45.770149],[8.831546,45.770355],[8.833291,45.770674],[8.835174,45.771156],[8.836996,45.771676],[8.83771,45.771854],[8.838371,45.772004],[8.839317,45.772176],[8.8404,45.772324],[8.841549,45.772412],[8.842405,45.772452],[8.851804,45.772005],[8.856458,45.771993],[8.85714,45.771991],[8.858249,45.771988],[8.858724,45.771989],[8.859268,45.772005],[8.85976,45.772033],[8.8602,45.772073],[8.860817,45.772148],[8.861596,45.772304],[8.862021,45.772412],[8.862311,45.772501],[8.862861,45.772714],[8.863349,45.7729],[8.863828,45.773112],[8.864391,45.773454],[8.865332,45.774124],[8.86569,45.77449],[8.865966,45.774831],[8.866868,45.776122],[8.867148,45.776436],[8.867443,45.776746],[8.868449,45.777678],[8.868683,45.777951],[8.868889,45.778234],[8.869046,45.778534],[8.869132,45.778729],[8.869231,45.779016],[8.869282,45.779209],[8.869344,45.779616],[8.869355,45.780001],[8.869316,45.780244],[8.869158,45.780764]]}},{"type":"Feature","properties":{"id":"a60","name":"A60 Tangenziale di Varese","ambiguous":false,"ambiguousRunM":254,"lengthM":4439},"geometry":{"type":"LineString","coordinates":[[8.868707,45.781469],[8.869061,45.780591],[8.869153,45.780277],[8.869198,45.780015],[8.869197,45.779642],[8.869148,45.779293],[8.869085,45.779013],[8.868969,45.778691],[8.868856,45.778454],[8.868695,45.778187],[8.868501,45.77793],[8.86827,45.777667],[8.86731,45.776816],[8.866986,45.776518],[8.866701,45.776202],[8.866198,45.775502],[8.865648,45.7748],[8.865228,45.774333],[8.864823,45.773972],[8.86429,45.773555],[8.863724,45.773228],[8.863233,45.772993],[8.862768,45.772799],[8.862242,45.772609],[8.861931,45.772523],[8.861529,45.772415],[8.860763,45.772261],[8.860177,45.77217],[8.859758,45.772141],[8.859264,45.772106],[8.858736,45.772095],[8.858235,45.772101],[8.856266,45.772147],[8.851774,45.772251],[8.842348,45.772727],[8.840955,45.772661],[8.839968,45.772585],[8.83899,45.772487],[8.838036,45.772299],[8.837082,45.772072],[8.83596,45.771746],[8.834284,45.7713],[8.832833,45.770939],[8.831304,45.770662],[8.829944,45.770488],[8.828542,45.770356],[8.827469,45.770302],[8.826373,45.770251],[8.825343,45.770246],[8.824196,45.770306],[8.823927,45.770335],[8.823452,45.770403],[8.823281,45.770427],[8.822896,45.770482],[8.822404,45.770562],[8.821951,45.770637],[8.821023,45.770821]]}}]}
