{"type":"FeatureCollection","attribution":"Contiene dati del Comune di Milano - dati.comune.milano.it, licenza CC BY 4.0","source":"https://dati.comune.milano.it/dataset/ds82_infogeo_varchi_elettronici_localizzazione_","note":"Usati solo per dare un nome alla notifica, mai per rilevare un transito.","features":[{"type":"Feature","geometry":{"type":"Point","coordinates":[9.181736,45.477615]},"properties":{"id":57,"label":"Porta Tenaglia"}},{"type":"Feature","geometry":{"type":"Point","coordinates":[9.181095,45.476948]},"properties":{"id":58,"label":"Legnano"}},{"type":"Feature","geometry":{"type":"Point","coordinates":[9.181903,45.478283]},"properties":{"id":59,"label":"Moscova"}},{"type":"Feature","geometry":{"type":"Point","coordinates":[9.182925,45.480523]},"properties":{"id":60,"label":"Volta"}},{"type":"Feature","geometry":{"type":"Point","coordinates":[9.18653,45.480148]},"properties":{"id":61,"label":"Garibaldi"}},{"type":"Feature","geometry":{"type":"Point","coordinates":[9.187839,45.479921]},"properties":{"id":62,"label":"Milazzo"}},{"type":"Feature","geometry":{"type":"Point","coordinates":[9.191497,45.479456]},"properties":{"id":63,"label":"Castelfidardo"}},{"type":"Feature","geometry":{"type":"Point","coordinates":[9.195749,45.47722]},"properties":{"id":64,"label":"Turati"}},{"type":"Feature","geometry":{"type":"Point","coordinates":[9.204511,45.474]},"properties":{"id":65,"label":"Venezia"}},{"type":"Feature","geometry":{"type":"Point","coordinates":[9.205038,45.471545]},"properties":{"id":66,"label":"Baretti"}},{"type":"Feature","geometry":{"type":"Point","coordinates":[9.205063,45.470842]},"properties":{"id":67,"label":"Vitali"}},{"type":"Feature","geometry":{"type":"Point","coordinates":[9.205282,45.469437]},"properties":{"id":68,"label":"Rossini"}},{"type":"Feature","geometry":{"type":"Point","coordinates":[9.205464,45.467746]},"properties":{"id":69,"label":"Monforte"}},{"type":"Feature","geometry":{"type":"Point","coordinates":[9.205585,45.466514]},"properties":{"id":70,"label":"Mascagni"}},{"type":"Feature","geometry":{"type":"Point","coordinates":[9.206366,45.462396]},"properties":{"id":71,"label":"Porta Vittoria"}},{"type":"Feature","geometry":{"type":"Point","coordinates":[9.206074,45.460103]},"properties":{"id":72,"label":"Besana"}},{"type":"Feature","geometry":{"type":"Point","coordinates":[9.204114,45.457392]},"properties":{"id":73,"label":"Lamarmora"}},{"type":"Feature","geometry":{"type":"Point","coordinates":[9.202753,45.455151]},"properties":{"id":74,"label":"Curtatone"}},{"type":"Feature","geometry":{"type":"Point","coordinates":[9.201568,45.452565]},"properties":{"id":75,"label":"Porta Romana"}},{"type":"Feature","geometry":{"type":"Point","coordinates":[9.198915,45.452297]},"properties":{"id":76,"label":"Cabrini"}},{"type":"Feature","geometry":{"type":"Point","coordinates":[9.196445,45.452307]},"properties":{"id":77,"label":"Porta Vigentina"}},{"type":"Feature","geometry":{"type":"Point","coordinates":[9.191054,45.452288]},"properties":{"id":78,"label":"Bianca Di Savoia"}},{"type":"Feature","geometry":{"type":"Point","coordinates":[9.188655,45.452368]},"properties":{"id":79,"label":"Melegnano"}},{"type":"Feature","geometry":{"type":"Point","coordinates":[9.186817,45.45259]},"properties":{"id":80,"label":"Italia"}},{"type":"Feature","geometry":{"type":"Point","coordinates":[9.184412,45.452808]},"properties":{"id":81,"label":"Aurispa"}},{"type":"Feature","geometry":{"type":"Point","coordinates":[9.180274,45.453255]},"properties":{"id":82,"label":"Porta Ticinese"}},{"type":"Feature","geometry":{"type":"Point","coordinates":[9.178377,45.453211]},"properties":{"id":83,"label":"Panzeri"}},{"type":"Feature","geometry":{"type":"Point","coordinates":[9.176284,45.454332]},"properties":{"id":84,"label":"Ronzoni"}},{"type":"Feature","geometry":{"type":"Point","coordinates":[9.173769,45.455983]},"properties":{"id":85,"label":"Genova"}},{"type":"Feature","geometry":{"type":"Point","coordinates":[9.171372,45.457607]},"properties":{"id":86,"label":"Ausonio"}},{"type":"Feature","geometry":{"type":"Point","coordinates":[9.169753,45.458653]},"properties":{"id":87,"label":"Sant'Agostino"}},{"type":"Feature","geometry":{"type":"Point","coordinates":[9.168622,45.459318]},"properties":{"id":88,"label":"Servio Tullio"}},{"type":"Feature","geometry":{"type":"Point","coordinates":[9.166913,45.460319]},"properties":{"id":89,"label":"Olivetani"}},{"type":"Feature","geometry":{"type":"Point","coordinates":[9.165292,45.462839]},"properties":{"id":90,"label":"Bandello"}},{"type":"Feature","geometry":{"type":"Point","coordinates":[9.165995,45.46464]},"properties":{"id":91,"label":"San Vittore"}},{"type":"Feature","geometry":{"type":"Point","coordinates":[9.166377,45.46595]},"properties":{"id":92,"label":"Magenta"}},{"type":"Feature","geometry":{"type":"Point","coordinates":[9.166924,45.46747]},"properties":{"id":93,"label":"Boccaccio"}},{"type":"Feature","geometry":{"type":"Point","coordinates":[9.166858,45.467772]},"properties":{"id":94,"label":"Xx Settembre"}},{"type":"Feature","geometry":{"type":"Point","coordinates":[9.166435,45.467898]},"properties":{"id":95,"label":"Bazzoni"}},{"type":"Feature","geometry":{"type":"Point","coordinates":[9.166059,45.469424]},"properties":{"id":96,"label":"Mascheroni"}},{"type":"Feature","geometry":{"type":"Point","coordinates":[9.169088,45.470916]},"properties":{"id":97,"label":"Monti"}},{"type":"Feature","geometry":{"type":"Point","coordinates":[9.170103,45.473807]},"properties":{"id":98,"label":"Milton"}}]}
