{"type":"FeatureCollection","attribution":"Contiene dati del Comune di Milano - dati.comune.milano.it, licenza CC BY 4.0","source":"https://dati.comune.milano.it/dataset/ds51_trafficotrasporti_aree_pedonali_ztl","features":[{"type":"Feature","properties":{"id":"area-c","name":"Area C - Cerchia dei Bastioni"},"geometry":{"type":"Polygon","coordinates":[[[9.164691,45.462303],[9.164906,45.462465],[9.165055,45.462878],[9.165124,45.462985],[9.165145,45.463029],[9.165147,45.463034],[9.165243,45.463231],[9.165258,45.463262],[9.165336,45.463422],[9.165326,45.463606],[9.165358,45.463706],[9.165445,45.463972],[9.165448,45.463981],[9.165451,45.463989],[9.165461,45.464024],[9.165463,45.464032],[9.165466,45.464041],[9.165494,45.464036],[9.165505,45.464077],[9.165588,45.4644],[9.165621,45.464516],[9.165643,45.464583],[9.165665,45.464652],[9.165728,45.464852],[9.165818,45.465132],[9.165892,45.465362],[9.165978,45.465626],[9.166011,45.465729],[9.166079,45.465942],[9.166129,45.46608],[9.166128,45.466083],[9.166127,45.466085],[9.166126,45.466087],[9.166127,45.466091],[9.16614,45.466132],[9.166244,45.466448],[9.166245,45.466451],[9.166319,45.46667],[9.16632,45.466672],[9.16634,45.466735],[9.166389,45.466885],[9.166461,45.467107],[9.166461,45.467109],[9.166466,45.467122],[9.166479,45.46716],[9.166493,45.467206],[9.166494,45.467207],[9.166495,45.467209],[9.166496,45.467211],[9.166498,45.467212],[9.166501,45.467217],[9.166502,45.467219],[9.166504,45.467221],[9.166505,45.467222],[9.166508,45.467225],[9.166511,45.467227],[9.166514,45.467229],[9.166517,45.467231],[9.16652,45.467233],[9.166628,45.467304],[9.166724,45.467367],[9.166727,45.467369],[9.16673,45.467371],[9.166733,45.467373],[9.166736,45.467375],[9.16674,45.467377],[9.166743,45.467379],[9.166746,45.46738],[9.166749,45.467381],[9.166752,45.467382],[9.166755,45.467383],[9.166759,45.467384],[9.166762,45.467385],[9.166766,45.467385],[9.166769,45.467386],[9.166773,45.467386],[9.166779,45.467387],[9.167047,45.46758],[9.166978,45.467632],[9.166756,45.467846],[9.166689,45.467851],[9.166668,45.467866],[9.16663,45.467895],[9.166604,45.467915],[9.166507,45.46799],[9.166304,45.467877],[9.166225,45.467882],[9.165871,45.467669],[9.16545,45.467719],[9.165447,45.467721],[9.165443,45.467724],[9.165441,45.467728],[9.165438,45.467733],[9.165436,45.467739],[9.165436,45.467744],[9.165502,45.46796],[9.165504,45.467967],[9.165578,45.468211],[9.165622,45.468358],[9.165622,45.46836],[9.165654,45.468465],[9.16568,45.468548],[9.165701,45.468619],[9.165726,45.468701],[9.165738,45.468739],[9.165744,45.468759],[9.165748,45.468774],[9.165752,45.468786],[9.165807,45.468964],[9.165846,45.469086],[9.165857,45.469123],[9.165868,45.469158],[9.165877,45.469186],[9.165882,45.469203],[9.165878,45.469204],[9.165881,45.469209],[9.165884,45.469208],[9.165892,45.469234],[9.165888,45.469235],[9.165889,45.469241],[9.165891,45.469246],[9.16592,45.469266],[9.165921,45.469267],[9.165913,45.469276],[9.165912,45.469278],[9.16591,45.46928],[9.16591,45.469283],[9.165909,45.469285],[9.165909,45.469287],[9.165908,45.469289],[9.165908,45.469291],[9.165909,45.469293],[9.165909,45.469295],[9.16591,45.469298],[9.165911,45.469302],[9.165912,45.469305],[9.165914,45.469308],[9.165916,45.469311],[9.165917,45.469313],[9.16592,45.469316],[9.165922,45.469318],[9.165924,45.46932],[9.165949,45.469413],[9.166008,45.469632],[9.166037,45.46973],[9.166064,45.469819],[9.166111,45.469973],[9.166157,45.470126],[9.166205,45.470288],[9.166256,45.470455],[9.166264,45.470483],[9.166299,45.470597],[9.166334,45.470713],[9.166341,45.470738],[9.166422,45.471006],[9.166483,45.471207],[9.166537,45.471387],[9.16663,45.471449],[9.166849,45.471282],[9.167053,45.471127],[9.167055,45.471125],[9.167235,45.470988],[9.167444,45.470829],[9.167445,45.470829],[9.167894,45.470489],[9.167718,45.470375],[9.167539,45.470259],[9.167514,45.470243],[9.167355,45.470139],[9.167354,45.470138],[9.167176,45.470022],[9.166996,45.469904],[9.166884,45.469832],[9.167058,45.469698],[9.167471,45.469968],[9.16748,45.469974],[9.167501,45.469988],[9.167823,45.470198],[9.168066,45.470357],[9.168209,45.470451],[9.168397,45.470573],[9.16857,45.470686],[9.168876,45.470885],[9.169003,45.470882],[9.169226,45.471027],[9.169231,45.471116],[9.169337,45.471185],[9.169396,45.471223],[9.169572,45.471337],[9.16967,45.4714],[9.169806,45.471488],[9.169913,45.471557],[9.170135,45.471705],[9.170165,45.471724],[9.170328,45.471832],[9.170352,45.471847],[9.170183,45.471981],[9.170038,45.471887],[9.169867,45.471776],[9.169862,45.47178],[9.169808,45.471821],[9.169714,45.471892],[9.169693,45.471909],[9.169603,45.471978],[9.169587,45.47199],[9.169467,45.472081],[9.169402,45.472131],[9.169379,45.472148],[9.169282,45.472222],[9.169199,45.472286],[9.169174,45.472304],[9.169095,45.472365],[9.168948,45.472477],[9.168785,45.472602],[9.168716,45.472654],[9.168715,45.472655],[9.168705,45.472662],[9.168614,45.472732],[9.168721,45.472802],[9.168722,45.472802],[9.168715,45.472808],[9.168497,45.472978],[9.168497,45.472978],[9.168652,45.473078],[9.168672,45.47309],[9.168741,45.473135],[9.168847,45.473202],[9.168843,45.473204],[9.168849,45.473208],[9.168852,45.473206],[9.168901,45.473238],[9.168939,45.473263],[9.168994,45.473299],[9.168991,45.473301],[9.168994,45.473303],[9.168997,45.473305],[9.169,45.473303],[9.169001,45.473303],[9.169109,45.473378],[9.16911,45.473379],[9.169168,45.473418],[9.169177,45.473425],[9.169268,45.473487],[9.169274,45.473491],[9.169279,45.473494],[9.169479,45.473622],[9.169455,45.473655],[9.16987,45.473926],[9.169884,45.473935],[9.170126,45.474048],[9.170132,45.474052],[9.170139,45.474056],[9.170146,45.47406],[9.170154,45.474063],[9.170377,45.474209],[9.170463,45.474265],[9.17058,45.474342],[9.170602,45.474357],[9.170651,45.474389],[9.170677,45.474405],[9.170821,45.474498],[9.17086,45.474524],[9.171081,45.474667],[9.171105,45.474682],[9.171114,45.474688],[9.173509,45.476265],[9.173834,45.476475],[9.173853,45.476487],[9.173966,45.47656],[9.174079,45.476633],[9.174186,45.476701],[9.174294,45.47677],[9.174404,45.476841],[9.174515,45.476913],[9.174625,45.476985],[9.174877,45.477147],[9.176416,45.476029],[9.176478,45.476059],[9.17649,45.476057],[9.176505,45.476055],[9.176521,45.476053],[9.176536,45.476052],[9.176552,45.476051],[9.176564,45.476051],[9.176577,45.476051],[9.176589,45.476051],[9.176602,45.476051],[9.176604,45.476051],[9.176612,45.476051],[9.176626,45.476052],[9.176637,45.476053],[9.176648,45.476053],[9.176659,45.476055],[9.17667,45.476057],[9.176686,45.47606],[9.176689,45.476061],[9.176702,45.476065],[9.176718,45.476069],[9.176734,45.476074],[9.176749,45.47608],[9.17675,45.47608],[9.176759,45.476083],[9.176769,45.476087],[9.176779,45.476092],[9.176788,45.476096],[9.176797,45.4761],[9.176805,45.476104],[9.176812,45.476108],[9.176819,45.476112],[9.176826,45.476115],[9.176833,45.476119],[9.176839,45.476123],[9.176846,45.476128],[9.176853,45.476132],[9.176859,45.476136],[9.176865,45.47614],[9.177478,45.476539],[9.177501,45.47655],[9.177853,45.476793],[9.178212,45.476941],[9.179031,45.477052],[9.179052,45.477057],[9.180746,45.477297],[9.180751,45.477297],[9.180776,45.477283],[9.180791,45.477273],[9.181358,45.477343],[9.181324,45.477536],[9.181701,45.478605],[9.181792,45.478863],[9.18186,45.478852],[9.18189,45.478936],[9.181914,45.479003],[9.18193,45.479048],[9.181931,45.479051],[9.181942,45.47908],[9.182019,45.479295],[9.18208,45.479464],[9.182147,45.479653],[9.18216,45.479688],[9.182188,45.479767],[9.182194,45.479785],[9.1822,45.479802],[9.18221,45.479829],[9.18224,45.479908],[9.182242,45.479915],[9.18232,45.480147],[9.182368,45.480295],[9.182423,45.480463],[9.182472,45.480614],[9.182706,45.480701],[9.182866,45.480759],[9.182866,45.480759],[9.183114,45.480848],[9.183164,45.480865],[9.183327,45.48084],[9.18338,45.480832],[9.183597,45.480799],[9.183702,45.480783],[9.183805,45.480767],[9.184005,45.480736],[9.184188,45.480708],[9.184429,45.480665],[9.184543,45.480645],[9.184605,45.480634],[9.184857,45.48059],[9.184894,45.480583],[9.184931,45.480576],[9.184968,45.48057],[9.185076,45.480551],[9.185199,45.480529],[9.185292,45.480512],[9.185366,45.480499],[9.18537,45.480526],[9.185931,45.480421],[9.186001,45.480408],[9.185997,45.480401],[9.185994,45.480392],[9.186009,45.480389],[9.186031,45.480385],[9.186097,45.480373],[9.186134,45.480366],[9.186202,45.480355],[9.18624,45.480348],[9.186329,45.480332],[9.186366,45.480325],[9.186432,45.480312],[9.186787,45.48022],[9.186945,45.480197],[9.186952,45.48022],[9.187337,45.480152],[9.187374,45.480145],[9.187461,45.480131],[9.187459,45.480142],[9.187458,45.480145],[9.187473,45.480147],[9.187481,45.480146],[9.187497,45.480145],[9.187512,45.480141],[9.187521,45.480136],[9.187518,45.480135],[9.187504,45.480124],[9.187606,45.480108],[9.1876,45.480117],[9.187598,45.480121],[9.187612,45.480122],[9.187623,45.480122],[9.187637,45.48012],[9.187638,45.48012],[9.187646,45.480117],[9.187655,45.480112],[9.187639,45.480102],[9.187761,45.480083],[9.187767,45.480101],[9.187769,45.480104],[9.187774,45.480104],[9.187797,45.480098],[9.187813,45.480092],[9.187822,45.480087],[9.187834,45.480081],[9.187843,45.480073],[9.187845,45.480071],[9.188009,45.480047],[9.18825,45.480007],[9.188295,45.479999],[9.188311,45.479997],[9.188338,45.479992],[9.188426,45.479978],[9.188469,45.479971],[9.188593,45.479951],[9.188637,45.479944],[9.18868,45.479937],[9.188684,45.479936],[9.188724,45.47993],[9.188772,45.479922],[9.188909,45.479867],[9.189036,45.479851],[9.189753,45.479742],[9.189918,45.479809],[9.189977,45.479868],[9.189999,45.479862],[9.190027,45.479857],[9.190957,45.479736],[9.191068,45.479719],[9.191083,45.479716],[9.19115,45.479705],[9.191256,45.479691],[9.191721,45.479627],[9.191948,45.479481],[9.191984,45.479467],[9.191991,45.479464],[9.192024,45.479442],[9.192069,45.479412],[9.192082,45.479405],[9.192208,45.479315],[9.192251,45.479285],[9.19226,45.479273],[9.192266,45.479259],[9.192267,45.479248],[9.192216,45.479008],[9.192212,45.478987],[9.192207,45.47896],[9.192225,45.478958],[9.192216,45.478914],[9.192222,45.478913],[9.192225,45.478913],[9.192217,45.478877],[9.192215,45.478877],[9.192209,45.478878],[9.192201,45.478839],[9.192187,45.478842],[9.192156,45.478685],[9.192173,45.478686],[9.192126,45.478477],[9.192115,45.478478],[9.192082,45.478331],[9.192096,45.478329],[9.192086,45.478285],[9.192091,45.478285],[9.192084,45.478249],[9.192078,45.47825],[9.192069,45.478206],[9.192048,45.478208],[9.191969,45.477866],[9.191967,45.477853],[9.190054,45.478042],[9.189594,45.478079],[9.189565,45.478003],[9.19192,45.477766],[9.19195,45.477763],[9.191949,45.477758],[9.191948,45.477754],[9.192193,45.477735],[9.192435,45.477717],[9.192483,45.477714],[9.192614,45.477704],[9.19267,45.4777],[9.192911,45.477682],[9.193061,45.47767],[9.193261,45.477655],[9.193406,45.477644],[9.193664,45.477625],[9.193922,45.477606],[9.194066,45.477589],[9.194138,45.477584],[9.194462,45.47756],[9.194505,45.477557],[9.19459,45.477551],[9.194767,45.477539],[9.194783,45.477538],[9.194783,45.477537],[9.19478,45.477517],[9.194799,45.477515],[9.194799,45.477515],[9.194804,45.477515],[9.194892,45.477508],[9.194892,45.477508],[9.194982,45.477501],[9.194982,45.477501],[9.19507,45.477494],[9.195071,45.477494],[9.19516,45.477487],[9.19516,45.477487],[9.195206,45.477483],[9.195217,45.477496],[9.195252,45.47748],[9.19527,45.477502],[9.195305,45.477486],[9.195319,45.477504],[9.195473,45.477434],[9.195484,45.477443],[9.195524,45.477423],[9.19553,45.47743],[9.195608,45.477397],[9.19564,45.477373],[9.195633,45.477362],[9.195733,45.477316],[9.196054,45.477175],[9.196162,45.477126],[9.196308,45.477059],[9.196421,45.477008],[9.196409,45.476995],[9.196453,45.476975],[9.196497,45.476956],[9.196505,45.476953],[9.196515,45.476963],[9.196536,45.476954],[9.196948,45.476766],[9.196941,45.476759],[9.19697,45.476745],[9.197046,45.476709],[9.19718,45.476645],[9.197189,45.47664],[9.197192,45.476644],[9.197348,45.476573],[9.197345,45.47657],[9.197353,45.476567],[9.197483,45.476508],[9.19777,45.476376],[9.197792,45.476412],[9.197895,45.476576],[9.197915,45.476608],[9.19805,45.476816],[9.198053,45.476819],[9.198065,45.47681],[9.19808,45.476801],[9.1981,45.476794],[9.198119,45.476788],[9.198139,45.476783],[9.19816,45.47678],[9.198181,45.476778],[9.198187,45.476777],[9.198188,45.476784],[9.198188,45.476791],[9.198189,45.476799],[9.198232,45.476799],[9.198261,45.476802],[9.198289,45.476807],[9.19832,45.476816],[9.198324,45.476809],[9.198329,45.476803],[9.198334,45.476797],[9.198351,45.476801],[9.198392,45.476817],[9.198424,45.476831],[9.19845,45.476846],[9.198464,45.476861],[9.198778,45.476704],[9.20027,45.476021],[9.200619,45.475864],[9.200652,45.475819],[9.200716,45.475783],[9.200765,45.475789],[9.200789,45.475785],[9.201501,45.475461],[9.201936,45.475259],[9.20244,45.475012],[9.202725,45.47487],[9.202768,45.474853],[9.202954,45.474828],[9.203045,45.474795],[9.203084,45.474787],[9.203172,45.474772],[9.203278,45.474732],[9.203827,45.474514],[9.204059,45.474439],[9.204032,45.474421],[9.204026,45.474412],[9.204022,45.474403],[9.20407,45.474378],[9.204111,45.474358],[9.204118,45.474355],[9.204235,45.474299],[9.204243,45.474295],[9.204209,45.474258],[9.204243,45.474238],[9.204265,45.474254],[9.204517,45.474127],[9.204807,45.473978],[9.20488,45.473941],[9.205067,45.473846],[9.205063,45.473842],[9.205206,45.47377],[9.205198,45.473568],[9.205201,45.473517],[9.2052,45.473498],[9.205198,45.473489],[9.205184,45.472919],[9.205181,45.472614],[9.205174,45.472604],[9.205082,45.472455],[9.205162,45.472037],[9.205167,45.471964],[9.205167,45.47196],[9.205179,45.471769],[9.205185,45.47177],[9.205186,45.471763],[9.205188,45.471734],[9.205188,45.47173],[9.205197,45.471598],[9.205199,45.471591],[9.205208,45.471453],[9.205229,45.471156],[9.20524,45.47098],[9.205243,45.470946],[9.205246,45.470893],[9.205265,45.470591],[9.205277,45.470476],[9.205278,45.470472],[9.205292,45.470345],[9.205292,45.470343],[9.205316,45.470151],[9.205317,45.47015],[9.205332,45.47],[9.205356,45.469795],[9.205356,45.469793],[9.205351,45.469793],[9.205374,45.469573],[9.205372,45.469553],[9.205381,45.469405],[9.205414,45.469233],[9.205446,45.469066],[9.205446,45.469064],[9.205458,45.468968],[9.205473,45.468826],[9.205473,45.468822],[9.205487,45.468683],[9.205487,45.468682],[9.205505,45.46853],[9.205506,45.468523],[9.205515,45.46844],[9.205521,45.468349],[9.205554,45.468081],[9.205575,45.467909],[9.205614,45.467609],[9.205618,45.467606],[9.205619,45.467602],[9.205646,45.467432],[9.205681,45.467204],[9.205682,45.467181],[9.20562,45.467065],[9.205645,45.466899],[9.205645,45.466898],[9.205665,45.46675],[9.205685,45.466607],[9.205706,45.466424],[9.205729,45.466261],[9.20576,45.466052],[9.205783,45.465875],[9.205798,45.465766],[9.205823,45.465594],[9.205832,45.465524],[9.205853,45.465368],[9.205866,45.465271],[9.205868,45.465259],[9.205881,45.465165],[9.205889,45.465105],[9.205891,45.465091],[9.205897,45.46505],[9.205897,45.465048],[9.205909,45.464962],[9.205919,45.464889],[9.205938,45.464758],[9.205938,45.464756],[9.205965,45.464556],[9.205969,45.464533],[9.20598,45.464451],[9.205995,45.464346],[9.205996,45.464343],[9.205998,45.464328],[9.206019,45.46418],[9.206021,45.464166],[9.206025,45.464141],[9.206025,45.46414],[9.206055,45.463922],[9.206069,45.463758],[9.206071,45.463749],[9.206072,45.463744],[9.206092,45.463611],[9.206106,45.463513],[9.206123,45.463401],[9.206126,45.463381],[9.206138,45.463305],[9.206138,45.463302],[9.206148,45.463238],[9.206151,45.463218],[9.206162,45.463142],[9.206344,45.46306],[9.206382,45.462836],[9.206383,45.462833],[9.206398,45.462745],[9.206414,45.46265],[9.206415,45.46264],[9.206418,45.462623],[9.206426,45.462576],[9.206445,45.462458],[9.206452,45.462413],[9.206508,45.462136],[9.206506,45.462078],[9.206507,45.462048],[9.206511,45.462013],[9.20652,45.461953],[9.206534,45.461864],[9.206555,45.461719],[9.206557,45.461702],[9.206573,45.46159],[9.206601,45.461394],[9.206604,45.461373],[9.206617,45.461283],[9.206529,45.460774],[9.206512,45.460695],[9.206498,45.460644],[9.206486,45.460605],[9.206464,45.460542],[9.206443,45.460485],[9.206403,45.460394],[9.206393,45.460373],[9.206373,45.460336],[9.206307,45.460215],[9.206238,45.459981],[9.206235,45.459973],[9.206234,45.459963],[9.20623,45.459955],[9.206221,45.459941],[9.205999,45.459668],[9.205977,45.45964],[9.20572,45.45933],[9.205457,45.459007],[9.205448,45.458995],[9.205376,45.458907],[9.205368,45.458897],[9.205273,45.45878],[9.205269,45.458775],[9.205263,45.458772],[9.205229,45.458727],[9.205228,45.458723],[9.205222,45.458718],[9.204995,45.45843],[9.20499,45.458431],[9.20491,45.458456],[9.204894,45.458429],[9.204872,45.45839],[9.20477,45.458221],[9.204755,45.458195],[9.204649,45.458019],[9.204632,45.457989],[9.204597,45.457929],[9.204549,45.457845],[9.204435,45.457647],[9.204362,45.457521],[9.204259,45.457363],[9.204219,45.457302],[9.204199,45.457263],[9.204167,45.457204],[9.204108,45.457106],[9.204006,45.456933],[9.203927,45.456801],[9.203915,45.45678],[9.203809,45.456603],[9.203538,45.456144],[9.203449,45.455998],[9.20339,45.455897],[9.203308,45.455759],[9.203147,45.45548],[9.202997,45.455233],[9.202962,45.455174],[9.202955,45.455163],[9.202766,45.454858],[9.20269,45.454728],[9.202666,45.454687],[9.202661,45.454679],[9.202588,45.454556],[9.20257,45.454525],[9.202511,45.454423],[9.202435,45.454293],[9.202355,45.45416],[9.202305,45.454078],[9.202296,45.454081],[9.202267,45.454089],[9.202242,45.454097],[9.201924,45.455249],[9.201838,45.455237],[9.202085,45.454327],[9.202079,45.454335],[9.202084,45.454316],[9.202105,45.454238],[9.202138,45.454113],[9.202182,45.453947],[9.202207,45.453852],[9.202163,45.4537],[9.202112,45.453524],[9.202009,45.453167],[9.201941,45.452936],[9.201936,45.452919],[9.201982,45.452911],[9.201951,45.452826],[9.201943,45.452813],[9.201882,45.452705],[9.201856,45.452659],[9.201735,45.45256],[9.201707,45.452537],[9.201582,45.452434],[9.201198,45.452118],[9.201086,45.452118],[9.200901,45.452107],[9.200756,45.452098],[9.200486,45.452081],[9.200415,45.452078],[9.200329,45.452081],[9.200283,45.452085],[9.200265,45.452087],[9.200089,45.452101],[9.200044,45.452104],[9.200002,45.452109],[9.199808,45.452125],[9.199588,45.452144],[9.199551,45.452147],[9.199411,45.452159],[9.199335,45.452165],[9.199149,45.45218],[9.199049,45.452189],[9.199021,45.452191],[9.198672,45.452214],[9.198622,45.452217],[9.198595,45.452217],[9.198572,45.452218],[9.198509,45.452223],[9.198509,45.452229],[9.197915,45.452257],[9.197711,45.452238],[9.197422,45.452224],[9.197364,45.452211],[9.197061,45.452196],[9.19706,45.452208],[9.197019,45.452205],[9.19658,45.452178],[9.196378,45.452164],[9.196345,45.452164],[9.196215,45.452164],[9.196192,45.452164],[9.196153,45.452164],[9.196055,45.452163],[9.195956,45.452163],[9.195674,45.452163],[9.195503,45.452162],[9.195486,45.452162],[9.195253,45.452161],[9.195028,45.452161],[9.194794,45.45216],[9.194561,45.45216],[9.194344,45.45216],[9.194001,45.452159],[9.193761,45.452159],[9.193726,45.452159],[9.193395,45.452157],[9.193216,45.452154],[9.193057,45.452153],[9.192896,45.452151],[9.192882,45.452152],[9.192566,45.452151],[9.192207,45.452149],[9.192136,45.452149],[9.191817,45.452147],[9.191547,45.452146],[9.191475,45.452146],[9.191176,45.452144],[9.19116,45.452145],[9.190856,45.452147],[9.190815,45.452147],[9.190616,45.452146],[9.190227,45.452146],[9.189965,45.452147],[9.189773,45.452149],[9.189627,45.452149],[9.189493,45.452157],[9.189423,45.452164],[9.189165,45.452189],[9.189125,45.452193],[9.188908,45.452215],[9.188865,45.452219],[9.188756,45.45223],[9.188695,45.452236],[9.188566,45.452247],[9.188443,45.452258],[9.188413,45.452261],[9.188339,45.452268],[9.188308,45.452272],[9.188183,45.452284],[9.187991,45.452302],[9.187804,45.452318],[9.187195,45.452438],[9.187185,45.45244],[9.18711,45.452454],[9.187079,45.45246],[9.18692,45.452491],[9.186673,45.452529],[9.186085,45.452574],[9.185931,45.452585],[9.18564,45.452607],[9.185242,45.452639],[9.185048,45.452654],[9.184855,45.452669],[9.184602,45.45269],[9.184588,45.452692],[9.1843,45.452709],[9.183789,45.45275],[9.183728,45.452755],[9.183671,45.452759],[9.183598,45.452763],[9.183556,45.452767],[9.18343,45.452777],[9.183343,45.452785],[9.183247,45.452793],[9.183226,45.452795],[9.183157,45.4528],[9.18314,45.452802],[9.183049,45.452809],[9.183023,45.452811],[9.183013,45.452812],[9.182827,45.452826],[9.18277,45.45283],[9.182661,45.452838],[9.182577,45.452844],[9.182461,45.452853],[9.182225,45.452869],[9.182201,45.452871],[9.182033,45.452882],[9.181999,45.452885],[9.181696,45.452905],[9.181537,45.452916],[9.181247,45.45294],[9.181247,45.45294],[9.181227,45.452942],[9.180912,45.452997],[9.180651,45.453043],[9.180635,45.453048],[9.180625,45.45307],[9.180414,45.453114],[9.180305,45.453147],[9.180001,45.45314],[9.179767,45.453149],[9.179533,45.453142],[9.179531,45.453142],[9.179499,45.453141],[9.179139,45.453132],[9.179081,45.453128],[9.178989,45.453122],[9.178937,45.453119],[9.178654,45.453099],[9.178474,45.453087],[9.178259,45.453074],[9.177875,45.453048],[9.177442,45.45302],[9.177416,45.453022],[9.177389,45.453026],[9.177368,45.453033],[9.177353,45.453038],[9.177335,45.453047],[9.177323,45.453054],[9.177312,45.453063],[9.177134,45.453222],[9.176843,45.453478],[9.176824,45.453671],[9.176776,45.453672],[9.176777,45.453652],[9.176777,45.453649],[9.176777,45.453645],[9.176738,45.453645],[9.176738,45.453648],[9.176738,45.453652],[9.176738,45.453655],[9.176738,45.453659],[9.176738,45.453663],[9.176738,45.453666],[9.176738,45.45367],[9.176738,45.453673],[9.176688,45.453673],[9.176299,45.454017],[9.175793,45.454389],[9.175782,45.454397],[9.17569,45.454461],[9.175687,45.454464],[9.175613,45.454515],[9.175542,45.454568],[9.175475,45.454617],[9.175294,45.454748],[9.17506,45.454917],[9.174971,45.454982],[9.17481,45.455099],[9.174754,45.455139],[9.174736,45.455152],[9.174622,45.455234],[9.174398,45.455396],[9.174492,45.45546],[9.174599,45.455533],[9.174503,45.455592],[9.174444,45.455635],[9.174324,45.455722],[9.174324,45.455722],[9.174219,45.455799],[9.173927,45.456011],[9.173748,45.456141],[9.17339,45.4564],[9.17317,45.45656],[9.17308,45.456625],[9.172979,45.456556],[9.172888,45.456495],[9.172598,45.456663],[9.172297,45.456838],[9.172197,45.456895],[9.171928,45.457052],[9.171824,45.457114],[9.171823,45.457114],[9.171801,45.457128],[9.171763,45.45715],[9.171694,45.45719],[9.17168,45.457198],[9.171677,45.4572],[9.171638,45.457222],[9.171638,45.457223],[9.171462,45.457327],[9.171215,45.457471],[9.171095,45.457539],[9.170748,45.457741],[9.17068,45.457781],[9.170512,45.45788],[9.170509,45.457882],[9.170349,45.457977],[9.170189,45.458071],[9.170107,45.458118],[9.169966,45.458205],[9.169294,45.458679],[9.169278,45.45869],[9.169058,45.458828],[9.168828,45.458974],[9.168488,45.459189],[9.168374,45.459262],[9.168281,45.459321],[9.168279,45.459322],[9.168137,45.459411],[9.168071,45.459453],[9.168043,45.459471],[9.167652,45.459717],[9.167541,45.459787],[9.167258,45.459965],[9.167187,45.46001],[9.167109,45.460059],[9.167037,45.460104],[9.166869,45.46021],[9.166861,45.460215],[9.166731,45.460287],[9.166726,45.46029],[9.166719,45.460294],[9.166718,45.460295],[9.166717,45.460295],[9.166717,45.460295],[9.166714,45.460307],[9.166316,45.460516],[9.166283,45.460534],[9.166109,45.460625],[9.165418,45.46099],[9.165417,45.460991],[9.165402,45.460999],[9.165401,45.461],[9.165396,45.461002],[9.165238,45.461085],[9.164947,45.461238],[9.164911,45.461256],[9.164804,45.461313],[9.16447,45.461501],[9.164465,45.461514],[9.164461,45.461525],[9.16446,45.461536],[9.164458,45.461543],[9.164455,45.461555],[9.164455,45.461564],[9.16446,45.461589],[9.164527,45.461793],[9.164551,45.461866],[9.164691,45.462303]]]}}]}
