{"type":"FeatureCollection","attribution":"(c) OpenStreetMap contributors - opendatacommons.org/licenses/odbl","license":"ODbL-1.0","source":"OpenStreetMap via Overpass, way[\"highway\"=\"motorway\"][\"ref\"=\"A21racc\"]","features":[{"type":"Feature","properties":{"id":"corda-molle","name":"Corda Molle","ambiguous":true,"ambiguousRunM":1177,"lengthM":27807},"geometry":{"type":"LineString","coordinates":[[10.065159,45.565953],[10.064321,45.564801],[10.063858,45.564107],[10.062051,45.561551],[10.061006,45.560055],[10.059943,45.558541],[10.058722,45.556889],[10.058536,45.556628],[10.058394,45.556423],[10.057386,45.554985],[10.057165,45.55467],[10.056837,45.55415],[10.05645,45.553528],[10.055784,45.552393],[10.05544,45.551653],[10.055114,45.550561],[10.054861,45.549395],[10.054545,45.547802],[10.054225,45.545724],[10.054139,45.545224],[10.054087,45.544925],[10.053965,45.544126],[10.053695,45.54231],[10.053575,45.541495],[10.05354,45.540753],[10.053543,45.540214],[10.053554,45.540006],[10.053581,45.539482],[10.053666,45.537882],[10.053972,45.535636],[10.054008,45.535376],[10.05431,45.533402],[10.054497,45.532317],[10.054554,45.532038],[10.054632,45.531708],[10.054804,45.531076],[10.054996,45.530391],[10.055099,45.530097],[10.055185,45.529849],[10.055435,45.529212],[10.055836,45.528334],[10.056126,45.527539],[10.056361,45.526978],[10.056542,45.526554],[10.056662,45.526279],[10.05691,45.525889],[10.057204,45.525415],[10.057544,45.524986],[10.058514,45.523969],[10.058917,45.523519],[10.059204,45.523183],[10.060096,45.522068],[10.060254,45.521849],[10.061789,45.51974],[10.062418,45.518887],[10.063126,45.517874],[10.063508,45.517335],[10.06403,45.516562],[10.064917,45.515223],[10.065094,45.514961],[10.06619,45.513317],[10.067006,45.512068],[10.067485,45.511342],[10.067584,45.511194],[10.067973,45.510617],[10.068188,45.510291],[10.069437,45.508423],[10.069666,45.508083],[10.070104,45.507456],[10.070422,45.507018],[10.070769,45.506569],[10.071244,45.50599],[10.071748,45.50541],[10.072126,45.505014],[10.072468,45.504673],[10.072696,45.504444],[10.072855,45.504305],[10.073287,45.503911],[10.073887,45.50342],[10.074282,45.503096],[10.07514,45.502461],[10.076063,45.501797],[10.076205,45.501692],[10.076256,45.501656],[10.077583,45.500745],[10.078207,45.500309],[10.078959,45.499789],[10.080412,45.498772],[10.080977,45.498371],[10.081633,45.497922],[10.082402,45.497393],[10.08294,45.497018],[10.083225,45.496823],[10.083714,45.496489],[10.084211,45.496151],[10.084855,45.495719],[10.085574,45.495248],[10.087717,45.493927],[10.088864,45.493255],[10.090123,45.492568],[10.091336,45.49192],[10.092392,45.491401],[10.094403,45.490451],[10.096021,45.489729],[10.097722,45.489024],[10.098887,45.488565],[10.099789,45.488233],[10.10119,45.487729],[10.102562,45.487259],[10.103974,45.486807],[10.104788,45.486563],[10.105911,45.486236],[10.106809,45.485997],[10.108205,45.485624],[10.109265,45.485355],[10.110545,45.48505],[10.111525,45.484838],[10.112688,45.484602],[10.113034,45.484532],[10.113936,45.484357],[10.115182,45.484132],[10.116042,45.483989],[10.116769,45.483869],[10.11707,45.48382],[10.118948,45.48351],[10.121245,45.483143],[10.123612,45.482766],[10.124438,45.482631],[10.126703,45.482248],[10.12747,45.482104],[10.129167,45.4818],[10.130894,45.481472],[10.134712,45.480762],[10.135902,45.480545],[10.136625,45.480401],[10.137607,45.480227],[10.13812,45.480137],[10.139369,45.479917],[10.141273,45.479603],[10.147485,45.478585],[10.150211,45.478145],[10.152009,45.477867],[10.152733,45.477774],[10.153557,45.477689],[10.156534,45.477417],[10.157789,45.477314],[10.158333,45.477269],[10.159054,45.47721],[10.16161,45.477009],[10.162555,45.476929],[10.164021,45.476814],[10.164986,45.476735],[10.166841,45.476527],[10.169402,45.476209],[10.169707,45.476172],[10.170841,45.476025],[10.17186,45.475899],[10.171965,45.475886],[10.172491,45.475821],[10.176236,45.475355],[10.17791,45.47516],[10.179492,45.474953],[10.181336,45.474749],[10.182231,45.474639],[10.182704,45.474581],[10.183987,45.474421],[10.18567,45.474192],[10.187299,45.473952],[10.188386,45.473769],[10.189861,45.473494],[10.190818,45.47329],[10.191954,45.473035],[10.192833,45.472829],[10.194329,45.472426],[10.194673,45.472327],[10.195773,45.472008],[10.196706,45.471716],[10.197461,45.471471],[10.198674,45.471052],[10.19984,45.470626],[10.201493,45.470004],[10.203818,45.469115],[10.204641,45.468798],[10.206282,45.468191],[10.206736,45.468013],[10.207707,45.467644],[10.208906,45.467185],[10.209713,45.466872],[10.210697,45.466501],[10.213601,45.465388],[10.214732,45.464961],[10.217474,45.463907],[10.218117,45.463655],[10.219077,45.463293],[10.219922,45.462994],[10.220691,45.462732],[10.22134,45.462516],[10.221894,45.462351],[10.222674,45.462136],[10.223456,45.461938],[10.224257,45.461762],[10.225002,45.461613],[10.225844,45.461466],[10.226902,45.461315],[10.227768,45.461222],[10.228497,45.461152],[10.229357,45.461092],[10.230351,45.46104],[10.231293,45.461023],[10.23225,45.461013],[10.232874,45.461017],[10.233933,45.461024],[10.235109,45.46103],[10.236506,45.461034],[10.236831,45.461035],[10.237793,45.461024],[10.238632,45.460995],[10.239457,45.460943],[10.240207,45.460887],[10.240945,45.460822],[10.24156,45.46075],[10.242429,45.460635],[10.243128,45.460528],[10.243968,45.460379],[10.244692,45.460232],[10.245567,45.46003],[10.245872,45.45996],[10.248583,45.459252],[10.250177,45.458837],[10.251802,45.458434],[10.253305,45.458043],[10.256082,45.457329],[10.259125,45.456549],[10.260548,45.456194],[10.261093,45.456066],[10.261229,45.456034],[10.261456,45.455981],[10.261754,45.455911],[10.263209,45.455585],[10.264438,45.455329],[10.265855,45.455042],[10.267241,45.454803],[10.268874,45.454545],[10.270231,45.454353],[10.271856,45.454158],[10.273634,45.453957],[10.276255,45.453694],[10.278016,45.453519],[10.278435,45.453476],[10.280178,45.453307],[10.280727,45.453251],[10.282193,45.453101],[10.286464,45.452666],[10.288007,45.452512],[10.290555,45.452252],[10.290944,45.452213],[10.292828,45.452022],[10.295566,45.45175],[10.299563,45.451347],[10.301126,45.451187],[10.303379,45.450956],[10.304536,45.450841],[10.30628,45.450664],[10.306938,45.450597],[10.307596,45.450539],[10.308507,45.450482],[10.309082,45.450475],[10.309682,45.450492],[10.310216,45.450524],[10.310782,45.450587],[10.311429,45.45068],[10.312082,45.450811],[10.312664,45.450944],[10.313268,45.451123],[10.313755,45.451287],[10.314221,45.451468],[10.314686,45.451667],[10.315015,45.451828],[10.31547,45.452072],[10.315796,45.452268],[10.316054,45.452424],[10.316692,45.452873],[10.317073,45.453195],[10.317351,45.45345],[10.317648,45.453746]]}},{"type":"Feature","properties":{"id":"corda-molle","name":"Corda Molle","ambiguous":false,"ambiguousRunM":944,"lengthM":29005},"geometry":{"type":"LineString","coordinates":[[10.317648,45.453746],[10.317949,45.454092],[10.318162,45.454371],[10.31841,45.454728],[10.318623,45.455085],[10.318798,45.455428],[10.318967,45.455819],[10.31913,45.456282],[10.319287,45.456889],[10.319288,45.457076],[10.319311,45.457711],[10.319306,45.457788],[10.319298,45.457918],[10.319296,45.457955],[10.319282,45.45819],[10.319277,45.458269],[10.31923,45.458742],[10.319132,45.459182],[10.319169,45.458674],[10.319194,45.458274],[10.319193,45.458023],[10.319197,45.457817],[10.319194,45.457707],[10.319183,45.457542],[10.319157,45.457277],[10.319137,45.457109],[10.319107,45.45688],[10.319045,45.456585],[10.318972,45.456302],[10.318827,45.455866],[10.318655,45.455455],[10.318477,45.45512],[10.318267,45.454764],[10.31802,45.454419],[10.317812,45.454142],[10.317513,45.453806],[10.317218,45.453513],[10.316944,45.453259],[10.316564,45.452958],[10.31595,45.452528],[10.315656,45.452344],[10.315362,45.45216],[10.314925,45.451924],[10.314746,45.451841],[10.314591,45.451769],[10.314132,45.45156],[10.313688,45.451391],[10.313213,45.45123],[10.312621,45.451051],[10.312051,45.450916],[10.311407,45.450791],[10.310759,45.450696],[10.310169,45.450634],[10.309669,45.450599],[10.30908,45.450594],[10.308509,45.450603],[10.307636,45.450653],[10.306304,45.450772],[10.304563,45.450949],[10.303382,45.451068],[10.29958,45.451456],[10.295585,45.451858],[10.292847,45.452139],[10.291021,45.452321],[10.290739,45.452349],[10.290647,45.452359],[10.288031,45.45262],[10.282219,45.453212],[10.280194,45.453414],[10.278451,45.453584],[10.276309,45.453797],[10.276278,45.4538],[10.273661,45.454062],[10.271875,45.454267],[10.270251,45.454468],[10.268916,45.454649],[10.26731,45.454904],[10.265895,45.45515],[10.26449,45.455431],[10.263243,45.455695],[10.261801,45.456018],[10.261526,45.456082],[10.261272,45.456143],[10.260596,45.456302],[10.25919,45.456646],[10.256122,45.457436],[10.253345,45.45815],[10.250224,45.458948],[10.245931,45.460061],[10.24472,45.460343],[10.244011,45.460484],[10.243138,45.460636],[10.242467,45.460743],[10.241582,45.460865],[10.240959,45.460934],[10.240225,45.461003],[10.239477,45.461055],[10.238648,45.461106],[10.237794,45.461139],[10.236864,45.461149],[10.236582,45.46115],[10.235118,45.461142],[10.233875,45.461133],[10.232806,45.461128],[10.232304,45.461125],[10.231285,45.461126],[10.23033,45.46115],[10.229413,45.461193],[10.228625,45.46125],[10.227834,45.461322],[10.22693,45.461423],[10.225872,45.461571],[10.225127,45.461703],[10.224424,45.46184],[10.223511,45.462044],[10.222655,45.462256],[10.221769,45.462507],[10.220827,45.462803],[10.219996,45.463089],[10.219135,45.463398],[10.218251,45.463743],[10.217553,45.464004],[10.214805,45.465059],[10.213682,45.46549],[10.210797,45.466585],[10.209841,45.466954],[10.208975,45.467287],[10.207789,45.467739],[10.206818,45.468113],[10.206372,45.468284],[10.204678,45.468915],[10.203881,45.469216],[10.201585,45.470097],[10.199905,45.470728],[10.199341,45.470934],[10.197492,45.471579],[10.196769,45.471821],[10.19583,45.472114],[10.194704,45.472442],[10.194374,45.472536],[10.192907,45.472924],[10.191982,45.473144],[10.190857,45.473395],[10.189879,45.473603],[10.188432,45.473878],[10.187334,45.47406],[10.185683,45.474301],[10.184006,45.474528],[10.183246,45.474624],[10.182762,45.474685],[10.181333,45.474862],[10.179517,45.475066],[10.177927,45.475277],[10.176252,45.475474],[10.172515,45.475938],[10.171994,45.476],[10.171878,45.476014],[10.170867,45.476135],[10.170485,45.476181],[10.169729,45.476273],[10.169423,45.47631],[10.166853,45.476634],[10.164988,45.476838],[10.163796,45.476939],[10.162568,45.477037],[10.16162,45.477115],[10.159067,45.477327],[10.157813,45.477425],[10.156546,45.477521],[10.153576,45.477777],[10.152751,45.477871],[10.152026,45.477968],[10.150248,45.478246],[10.147513,45.478698],[10.141341,45.47972],[10.139404,45.480033],[10.138374,45.480216],[10.137869,45.480298],[10.136831,45.480482],[10.13603,45.480639],[10.134762,45.48087],[10.130506,45.481659],[10.129582,45.481837],[10.128377,45.482057],[10.12691,45.482317],[10.124595,45.482717],[10.122489,45.48306],[10.121263,45.483256],[10.120149,45.483437],[10.119036,45.483623],[10.117096,45.483937],[10.116831,45.48398],[10.1156,45.48418],[10.114471,45.484378],[10.113104,45.48464],[10.111614,45.484934],[10.110612,45.485158],[10.109358,45.485452],[10.108083,45.485774],[10.107148,45.486021],[10.106014,45.486334],[10.104084,45.486901],[10.102645,45.48736],[10.101341,45.487803],[10.10006,45.48826],[10.098968,45.488674],[10.097527,45.489237],[10.096183,45.489794],[10.094113,45.490711],[10.092488,45.491483],[10.091416,45.492022],[10.090193,45.492663],[10.088972,45.493342],[10.087855,45.493994],[10.085811,45.495235],[10.084974,45.495796],[10.084316,45.496236],[10.083544,45.496769],[10.083365,45.496892],[10.083102,45.497079],[10.081145,45.498426],[10.079997,45.499222],[10.079063,45.499868],[10.078542,45.500238],[10.077696,45.500825],[10.076617,45.501575],[10.075438,45.502406],[10.074863,45.502826],[10.074417,45.50316],[10.073927,45.503558],[10.073386,45.504013],[10.072751,45.504598],[10.072229,45.505116],[10.071872,45.505492],[10.071374,45.506058],[10.070896,45.506647],[10.070608,45.507022],[10.070549,45.507098],[10.070268,45.507487],[10.069671,45.508351],[10.069469,45.508649],[10.068335,45.510353],[10.068114,45.510679],[10.067733,45.511245],[10.067634,45.511392],[10.067213,45.512036],[10.066353,45.513343],[10.06612,45.5137],[10.065929,45.513989],[10.065243,45.515013],[10.065069,45.515269],[10.064084,45.516763],[10.063648,45.517392],[10.06309,45.518197],[10.062558,45.518942],[10.062049,45.519667],[10.061127,45.520981],[10.060239,45.522232],[10.060213,45.52227],[10.06004,45.52252],[10.059662,45.523086],[10.059163,45.523805],[10.058456,45.524785],[10.058146,45.525228],[10.057944,45.525571],[10.057132,45.526766],[10.057072,45.526855],[10.056626,45.527564],[10.056382,45.527946],[10.056328,45.528031],[10.05571,45.529257],[10.055453,45.529831],[10.055228,45.530419],[10.054966,45.531155],[10.054794,45.531736],[10.054688,45.532326],[10.054566,45.533208],[10.054552,45.533303],[10.054494,45.533722],[10.05447,45.533899],[10.054456,45.534002],[10.053854,45.537883],[10.053805,45.538402],[10.053783,45.539025],[10.05373,45.539841],[10.053715,45.540969],[10.053746,45.541491],[10.053833,45.542104],[10.054161,45.544116],[10.054219,45.544488],[10.054293,45.544899],[10.054347,45.545204],[10.054436,45.545704],[10.054691,45.54713],[10.05539,45.550638],[10.055715,45.551617],[10.056022,45.5523],[10.056535,45.55323],[10.057028,45.554079],[10.05739,45.554619],[10.057602,45.554922],[10.058552,45.556291],[10.058763,45.556614],[10.05891,45.556825],[10.060068,45.558513],[10.061137,45.560026],[10.062195,45.561488],[10.063984,45.564072],[10.065266,45.565922]]}}]}
