<?xml version="1.0" encoding="UTF-8"?>
<gpx version="1.1" creator="haipagato tools/build_gpx.py" xmlns="http://www.topografix.com/GPX/1/1">
  <metadata>
    <name>A33 Asti-Cuneo in coda a 20 km/h</name>
    <desc>In coda per 8 km: confermato via avanzamento.</desc>
  </metadata>
  <trk>
    <name>A33 Asti-Cuneo in coda a 20 km/h</name>
    <trkseg>
      <trkpt lat="44.728307" lon="8.056588">
        <time>2026-09-28T08:00:00Z</time>
      </trkpt>
      <trkpt lat="44.728388" lon="8.056674">
        <time>2026-09-28T08:00:02Z</time>
      </trkpt>
      <trkpt lat="44.728468" lon="8.056760">
        <time>2026-09-28T08:00:04Z</time>
      </trkpt>
      <trkpt lat="44.728548" lon="8.056845">
        <time>2026-09-28T08:00:06Z</time>
      </trkpt>
      <trkpt lat="44.728629" lon="8.056931">
        <time>2026-09-28T08:00:08Z</time>
      </trkpt>
      <trkpt lat="44.728709" lon="8.057016">
        <time>2026-09-28T08:00:10Z</time>
      </trkpt>
      <trkpt lat="44.728789" lon="8.057102">
        <time>2026-09-28T08:00:12Z</time>
      </trkpt>
      <trkpt lat="44.728870" lon="8.057187">
        <time>2026-09-28T08:00:14Z</time>
      </trkpt>
      <trkpt lat="44.728950" lon="8.057273">
        <time>2026-09-28T08:00:16Z</time>
      </trkpt>
      <trkpt lat="44.729030" lon="8.057358">
        <time>2026-09-28T08:00:18Z</time>
      </trkpt>
      <trkpt lat="44.729111" lon="8.057444">
        <time>2026-09-28T08:00:20Z</time>
      </trkpt>
      <trkpt lat="44.729191" lon="8.057529">
        <time>2026-09-28T08:00:22Z</time>
      </trkpt>
      <trkpt lat="44.729271" lon="8.057615">
        <time>2026-09-28T08:00:24Z</time>
      </trkpt>
      <trkpt lat="44.729352" lon="8.057700">
        <time>2026-09-28T08:00:26Z</time>
      </trkpt>
      <trkpt lat="44.729432" lon="8.057785">
        <time>2026-09-28T08:00:28Z</time>
      </trkpt>
      <trkpt lat="44.729513" lon="8.057870">
        <time>2026-09-28T08:00:30Z</time>
      </trkpt>
      <trkpt lat="44.729594" lon="8.057955">
        <time>2026-09-28T08:00:32Z</time>
      </trkpt>
      <trkpt lat="44.729674" lon="8.058040">
        <time>2026-09-28T08:00:34Z</time>
      </trkpt>
      <trkpt lat="44.729755" lon="8.058126">
        <time>2026-09-28T08:00:36Z</time>
      </trkpt>
      <trkpt lat="44.729835" lon="8.058211">
        <time>2026-09-28T08:00:38Z</time>
      </trkpt>
      <trkpt lat="44.729916" lon="8.058296">
        <time>2026-09-28T08:00:40Z</time>
      </trkpt>
      <trkpt lat="44.729996" lon="8.058381">
        <time>2026-09-28T08:00:42Z</time>
      </trkpt>
      <trkpt lat="44.730077" lon="8.058466">
        <time>2026-09-28T08:00:44Z</time>
      </trkpt>
      <trkpt lat="44.730157" lon="8.058551">
        <time>2026-09-28T08:00:46Z</time>
      </trkpt>
      <trkpt lat="44.730238" lon="8.058636">
        <time>2026-09-28T08:00:48Z</time>
      </trkpt>
      <trkpt lat="44.730318" lon="8.058722">
        <time>2026-09-28T08:00:50Z</time>
      </trkpt>
      <trkpt lat="44.730399" lon="8.058807">
        <time>2026-09-28T08:00:52Z</time>
      </trkpt>
      <trkpt lat="44.730479" lon="8.058892">
        <time>2026-09-28T08:00:54Z</time>
      </trkpt>
      <trkpt lat="44.730560" lon="8.058977">
        <time>2026-09-28T08:00:56Z</time>
      </trkpt>
      <trkpt lat="44.730641" lon="8.059062">
        <time>2026-09-28T08:00:58Z</time>
      </trkpt>
      <trkpt lat="44.730721" lon="8.059147">
        <time>2026-09-28T08:01:00Z</time>
      </trkpt>
      <trkpt lat="44.730802" lon="8.059232">
        <time>2026-09-28T08:01:02Z</time>
      </trkpt>
      <trkpt lat="44.730882" lon="8.059317">
        <time>2026-09-28T08:01:04Z</time>
      </trkpt>
      <trkpt lat="44.730963" lon="8.059403">
        <time>2026-09-28T08:01:06Z</time>
      </trkpt>
      <trkpt lat="44.731043" lon="8.059488">
        <time>2026-09-28T08:01:08Z</time>
      </trkpt>
      <trkpt lat="44.731124" lon="8.059573">
        <time>2026-09-28T08:01:10Z</time>
      </trkpt>
      <trkpt lat="44.731205" lon="8.059658">
        <time>2026-09-28T08:01:12Z</time>
      </trkpt>
      <trkpt lat="44.731285" lon="8.059743">
        <time>2026-09-28T08:01:14Z</time>
      </trkpt>
      <trkpt lat="44.731366" lon="8.059828">
        <time>2026-09-28T08:01:16Z</time>
      </trkpt>
      <trkpt lat="44.731446" lon="8.059913">
        <time>2026-09-28T08:01:18Z</time>
      </trkpt>
      <trkpt lat="44.731527" lon="8.059998">
        <time>2026-09-28T08:01:20Z</time>
      </trkpt>
      <trkpt lat="44.731607" lon="8.060083">
        <time>2026-09-28T08:01:22Z</time>
      </trkpt>
      <trkpt lat="44.731688" lon="8.060168">
        <time>2026-09-28T08:01:24Z</time>
      </trkpt>
      <trkpt lat="44.731769" lon="8.060253">
        <time>2026-09-28T08:01:26Z</time>
      </trkpt>
      <trkpt lat="44.731849" lon="8.060339">
        <time>2026-09-28T08:01:28Z</time>
      </trkpt>
      <trkpt lat="44.731930" lon="8.060424">
        <time>2026-09-28T08:01:30Z</time>
      </trkpt>
      <trkpt lat="44.732010" lon="8.060509">
        <time>2026-09-28T08:01:32Z</time>
      </trkpt>
      <trkpt lat="44.732091" lon="8.060594">
        <time>2026-09-28T08:01:34Z</time>
      </trkpt>
      <trkpt lat="44.732171" lon="8.060680">
        <time>2026-09-28T08:01:36Z</time>
      </trkpt>
      <trkpt lat="44.732251" lon="8.060765">
        <time>2026-09-28T08:01:38Z</time>
      </trkpt>
      <trkpt lat="44.732332" lon="8.060851">
        <time>2026-09-28T08:01:40Z</time>
      </trkpt>
      <trkpt lat="44.732412" lon="8.060937">
        <time>2026-09-28T08:01:42Z</time>
      </trkpt>
      <trkpt lat="44.732492" lon="8.061022">
        <time>2026-09-28T08:01:44Z</time>
      </trkpt>
      <trkpt lat="44.732572" lon="8.061108">
        <time>2026-09-28T08:01:46Z</time>
      </trkpt>
      <trkpt lat="44.732653" lon="8.061193">
        <time>2026-09-28T08:01:48Z</time>
      </trkpt>
      <trkpt lat="44.732733" lon="8.061279">
        <time>2026-09-28T08:01:50Z</time>
      </trkpt>
      <trkpt lat="44.732813" lon="8.061365">
        <time>2026-09-28T08:01:52Z</time>
      </trkpt>
      <trkpt lat="44.732894" lon="8.061450">
        <time>2026-09-28T08:01:54Z</time>
      </trkpt>
      <trkpt lat="44.732974" lon="8.061536">
        <time>2026-09-28T08:01:56Z</time>
      </trkpt>
      <trkpt lat="44.733054" lon="8.061621">
        <time>2026-09-28T08:01:58Z</time>
      </trkpt>
      <trkpt lat="44.733135" lon="8.061707">
        <time>2026-09-28T08:02:00Z</time>
      </trkpt>
      <trkpt lat="44.733215" lon="8.061793">
        <time>2026-09-28T08:02:02Z</time>
      </trkpt>
      <trkpt lat="44.733295" lon="8.061878">
        <time>2026-09-28T08:02:04Z</time>
      </trkpt>
      <trkpt lat="44.733375" lon="8.061964">
        <time>2026-09-28T08:02:06Z</time>
      </trkpt>
      <trkpt lat="44.733456" lon="8.062050">
        <time>2026-09-28T08:02:08Z</time>
      </trkpt>
      <trkpt lat="44.733536" lon="8.062136">
        <time>2026-09-28T08:02:10Z</time>
      </trkpt>
      <trkpt lat="44.733616" lon="8.062221">
        <time>2026-09-28T08:02:12Z</time>
      </trkpt>
      <trkpt lat="44.733696" lon="8.062307">
        <time>2026-09-28T08:02:14Z</time>
      </trkpt>
      <trkpt lat="44.733776" lon="8.062393">
        <time>2026-09-28T08:02:16Z</time>
      </trkpt>
      <trkpt lat="44.733856" lon="8.062479">
        <time>2026-09-28T08:02:18Z</time>
      </trkpt>
      <trkpt lat="44.733936" lon="8.062565">
        <time>2026-09-28T08:02:20Z</time>
      </trkpt>
      <trkpt lat="44.734017" lon="8.062651">
        <time>2026-09-28T08:02:22Z</time>
      </trkpt>
      <trkpt lat="44.734097" lon="8.062737">
        <time>2026-09-28T08:02:24Z</time>
      </trkpt>
      <trkpt lat="44.734177" lon="8.062823">
        <time>2026-09-28T08:02:26Z</time>
      </trkpt>
      <trkpt lat="44.734257" lon="8.062909">
        <time>2026-09-28T08:02:28Z</time>
      </trkpt>
      <trkpt lat="44.734337" lon="8.062995">
        <time>2026-09-28T08:02:30Z</time>
      </trkpt>
      <trkpt lat="44.734417" lon="8.063081">
        <time>2026-09-28T08:02:32Z</time>
      </trkpt>
      <trkpt lat="44.734497" lon="8.063167">
        <time>2026-09-28T08:02:34Z</time>
      </trkpt>
      <trkpt lat="44.734577" lon="8.063253">
        <time>2026-09-28T08:02:36Z</time>
      </trkpt>
      <trkpt lat="44.734658" lon="8.063339">
        <time>2026-09-28T08:02:38Z</time>
      </trkpt>
      <trkpt lat="44.734738" lon="8.063425">
        <time>2026-09-28T08:02:40Z</time>
      </trkpt>
      <trkpt lat="44.734818" lon="8.063510">
        <time>2026-09-28T08:02:42Z</time>
      </trkpt>
      <trkpt lat="44.734898" lon="8.063596">
        <time>2026-09-28T08:02:44Z</time>
      </trkpt>
      <trkpt lat="44.734978" lon="8.063682">
        <time>2026-09-28T08:02:46Z</time>
      </trkpt>
      <trkpt lat="44.735058" lon="8.063768">
        <time>2026-09-28T08:02:48Z</time>
      </trkpt>
      <trkpt lat="44.735138" lon="8.063854">
        <time>2026-09-28T08:02:50Z</time>
      </trkpt>
      <trkpt lat="44.735218" lon="8.063940">
        <time>2026-09-28T08:02:52Z</time>
      </trkpt>
      <trkpt lat="44.735299" lon="8.064026">
        <time>2026-09-28T08:02:54Z</time>
      </trkpt>
      <trkpt lat="44.735379" lon="8.064112">
        <time>2026-09-28T08:02:56Z</time>
      </trkpt>
      <trkpt lat="44.735459" lon="8.064198">
        <time>2026-09-28T08:02:58Z</time>
      </trkpt>
      <trkpt lat="44.735539" lon="8.064284">
        <time>2026-09-28T08:03:00Z</time>
      </trkpt>
      <trkpt lat="44.735619" lon="8.064370">
        <time>2026-09-28T08:03:02Z</time>
      </trkpt>
      <trkpt lat="44.735699" lon="8.064457">
        <time>2026-09-28T08:03:04Z</time>
      </trkpt>
      <trkpt lat="44.735778" lon="8.064544">
        <time>2026-09-28T08:03:06Z</time>
      </trkpt>
      <trkpt lat="44.735858" lon="8.064630">
        <time>2026-09-28T08:03:08Z</time>
      </trkpt>
      <trkpt lat="44.735938" lon="8.064717">
        <time>2026-09-28T08:03:10Z</time>
      </trkpt>
      <trkpt lat="44.736017" lon="8.064804">
        <time>2026-09-28T08:03:12Z</time>
      </trkpt>
      <trkpt lat="44.736097" lon="8.064890">
        <time>2026-09-28T08:03:14Z</time>
      </trkpt>
      <trkpt lat="44.736177" lon="8.064977">
        <time>2026-09-28T08:03:16Z</time>
      </trkpt>
      <trkpt lat="44.736257" lon="8.065064">
        <time>2026-09-28T08:03:18Z</time>
      </trkpt>
      <trkpt lat="44.736336" lon="8.065150">
        <time>2026-09-28T08:03:20Z</time>
      </trkpt>
      <trkpt lat="44.736416" lon="8.065237">
        <time>2026-09-28T08:03:22Z</time>
      </trkpt>
      <trkpt lat="44.736496" lon="8.065324">
        <time>2026-09-28T08:03:24Z</time>
      </trkpt>
      <trkpt lat="44.736575" lon="8.065410">
        <time>2026-09-28T08:03:26Z</time>
      </trkpt>
      <trkpt lat="44.736655" lon="8.065497">
        <time>2026-09-28T08:03:28Z</time>
      </trkpt>
      <trkpt lat="44.736735" lon="8.065584">
        <time>2026-09-28T08:03:30Z</time>
      </trkpt>
      <trkpt lat="44.736815" lon="8.065670">
        <time>2026-09-28T08:03:32Z</time>
      </trkpt>
      <trkpt lat="44.736894" lon="8.065757">
        <time>2026-09-28T08:03:34Z</time>
      </trkpt>
      <trkpt lat="44.736974" lon="8.065844">
        <time>2026-09-28T08:03:36Z</time>
      </trkpt>
      <trkpt lat="44.737054" lon="8.065931">
        <time>2026-09-28T08:03:38Z</time>
      </trkpt>
      <trkpt lat="44.737134" lon="8.066017">
        <time>2026-09-28T08:03:40Z</time>
      </trkpt>
      <trkpt lat="44.737213" lon="8.066104">
        <time>2026-09-28T08:03:42Z</time>
      </trkpt>
      <trkpt lat="44.737293" lon="8.066191">
        <time>2026-09-28T08:03:44Z</time>
      </trkpt>
      <trkpt lat="44.737373" lon="8.066277">
        <time>2026-09-28T08:03:46Z</time>
      </trkpt>
      <trkpt lat="44.737453" lon="8.066363">
        <time>2026-09-28T08:03:48Z</time>
      </trkpt>
      <trkpt lat="44.737533" lon="8.066449">
        <time>2026-09-28T08:03:50Z</time>
      </trkpt>
      <trkpt lat="44.737613" lon="8.066535">
        <time>2026-09-28T08:03:52Z</time>
      </trkpt>
      <trkpt lat="44.737693" lon="8.066621">
        <time>2026-09-28T08:03:54Z</time>
      </trkpt>
      <trkpt lat="44.737773" lon="8.066707">
        <time>2026-09-28T08:03:56Z</time>
      </trkpt>
      <trkpt lat="44.737853" lon="8.066793">
        <time>2026-09-28T08:03:58Z</time>
      </trkpt>
      <trkpt lat="44.737934" lon="8.066879">
        <time>2026-09-28T08:04:00Z</time>
      </trkpt>
      <trkpt lat="44.738014" lon="8.066965">
        <time>2026-09-28T08:04:02Z</time>
      </trkpt>
      <trkpt lat="44.738094" lon="8.067051">
        <time>2026-09-28T08:04:04Z</time>
      </trkpt>
      <trkpt lat="44.738174" lon="8.067136">
        <time>2026-09-28T08:04:06Z</time>
      </trkpt>
      <trkpt lat="44.738254" lon="8.067222">
        <time>2026-09-28T08:04:08Z</time>
      </trkpt>
      <trkpt lat="44.738334" lon="8.067308">
        <time>2026-09-28T08:04:10Z</time>
      </trkpt>
      <trkpt lat="44.738414" lon="8.067394">
        <time>2026-09-28T08:04:12Z</time>
      </trkpt>
      <trkpt lat="44.738494" lon="8.067480">
        <time>2026-09-28T08:04:14Z</time>
      </trkpt>
      <trkpt lat="44.738575" lon="8.067566">
        <time>2026-09-28T08:04:16Z</time>
      </trkpt>
      <trkpt lat="44.738655" lon="8.067652">
        <time>2026-09-28T08:04:18Z</time>
      </trkpt>
      <trkpt lat="44.738735" lon="8.067738">
        <time>2026-09-28T08:04:20Z</time>
      </trkpt>
      <trkpt lat="44.738815" lon="8.067824">
        <time>2026-09-28T08:04:22Z</time>
      </trkpt>
      <trkpt lat="44.738895" lon="8.067909">
        <time>2026-09-28T08:04:24Z</time>
      </trkpt>
      <trkpt lat="44.738976" lon="8.067995">
        <time>2026-09-28T08:04:26Z</time>
      </trkpt>
      <trkpt lat="44.739056" lon="8.068080">
        <time>2026-09-28T08:04:28Z</time>
      </trkpt>
      <trkpt lat="44.739137" lon="8.068165">
        <time>2026-09-28T08:04:30Z</time>
      </trkpt>
      <trkpt lat="44.739217" lon="8.068251">
        <time>2026-09-28T08:04:32Z</time>
      </trkpt>
      <trkpt lat="44.739298" lon="8.068336">
        <time>2026-09-28T08:04:34Z</time>
      </trkpt>
      <trkpt lat="44.739378" lon="8.068421">
        <time>2026-09-28T08:04:36Z</time>
      </trkpt>
      <trkpt lat="44.739458" lon="8.068507">
        <time>2026-09-28T08:04:38Z</time>
      </trkpt>
      <trkpt lat="44.739539" lon="8.068592">
        <time>2026-09-28T08:04:40Z</time>
      </trkpt>
      <trkpt lat="44.739619" lon="8.068678">
        <time>2026-09-28T08:04:42Z</time>
      </trkpt>
      <trkpt lat="44.739700" lon="8.068763">
        <time>2026-09-28T08:04:44Z</time>
      </trkpt>
      <trkpt lat="44.739780" lon="8.068848">
        <time>2026-09-28T08:04:46Z</time>
      </trkpt>
      <trkpt lat="44.739861" lon="8.068934">
        <time>2026-09-28T08:04:48Z</time>
      </trkpt>
      <trkpt lat="44.739941" lon="8.069019">
        <time>2026-09-28T08:04:50Z</time>
      </trkpt>
      <trkpt lat="44.740021" lon="8.069104">
        <time>2026-09-28T08:04:52Z</time>
      </trkpt>
      <trkpt lat="44.740102" lon="8.069190">
        <time>2026-09-28T08:04:54Z</time>
      </trkpt>
      <trkpt lat="44.740182" lon="8.069275">
        <time>2026-09-28T08:04:56Z</time>
      </trkpt>
      <trkpt lat="44.740263" lon="8.069360">
        <time>2026-09-28T08:04:58Z</time>
      </trkpt>
      <trkpt lat="44.740343" lon="8.069446">
        <time>2026-09-28T08:05:00Z</time>
      </trkpt>
      <trkpt lat="44.740423" lon="8.069532">
        <time>2026-09-28T08:05:02Z</time>
      </trkpt>
      <trkpt lat="44.740503" lon="8.069618">
        <time>2026-09-28T08:05:04Z</time>
      </trkpt>
      <trkpt lat="44.740583" lon="8.069704">
        <time>2026-09-28T08:05:06Z</time>
      </trkpt>
      <trkpt lat="44.740663" lon="8.069791">
        <time>2026-09-28T08:05:08Z</time>
      </trkpt>
      <trkpt lat="44.740743" lon="8.069877">
        <time>2026-09-28T08:05:10Z</time>
      </trkpt>
      <trkpt lat="44.740823" lon="8.069963">
        <time>2026-09-28T08:05:12Z</time>
      </trkpt>
      <trkpt lat="44.740903" lon="8.070049">
        <time>2026-09-28T08:05:14Z</time>
      </trkpt>
      <trkpt lat="44.740983" lon="8.070136">
        <time>2026-09-28T08:05:16Z</time>
      </trkpt>
      <trkpt lat="44.741063" lon="8.070222">
        <time>2026-09-28T08:05:18Z</time>
      </trkpt>
      <trkpt lat="44.741143" lon="8.070308">
        <time>2026-09-28T08:05:20Z</time>
      </trkpt>
      <trkpt lat="44.741223" lon="8.070394">
        <time>2026-09-28T08:05:22Z</time>
      </trkpt>
      <trkpt lat="44.741303" lon="8.070481">
        <time>2026-09-28T08:05:24Z</time>
      </trkpt>
      <trkpt lat="44.741383" lon="8.070567">
        <time>2026-09-28T08:05:26Z</time>
      </trkpt>
      <trkpt lat="44.741463" lon="8.070653">
        <time>2026-09-28T08:05:28Z</time>
      </trkpt>
      <trkpt lat="44.741543" lon="8.070739">
        <time>2026-09-28T08:05:30Z</time>
      </trkpt>
      <trkpt lat="44.741622" lon="8.070826">
        <time>2026-09-28T08:05:32Z</time>
      </trkpt>
      <trkpt lat="44.741702" lon="8.070912">
        <time>2026-09-28T08:05:34Z</time>
      </trkpt>
      <trkpt lat="44.741782" lon="8.070998">
        <time>2026-09-28T08:05:36Z</time>
      </trkpt>
      <trkpt lat="44.741862" lon="8.071084">
        <time>2026-09-28T08:05:38Z</time>
      </trkpt>
      <trkpt lat="44.741942" lon="8.071171">
        <time>2026-09-28T08:05:40Z</time>
      </trkpt>
      <trkpt lat="44.742022" lon="8.071257">
        <time>2026-09-28T08:05:42Z</time>
      </trkpt>
      <trkpt lat="44.742102" lon="8.071343">
        <time>2026-09-28T08:05:44Z</time>
      </trkpt>
      <trkpt lat="44.742182" lon="8.071430">
        <time>2026-09-28T08:05:46Z</time>
      </trkpt>
      <trkpt lat="44.742262" lon="8.071516">
        <time>2026-09-28T08:05:48Z</time>
      </trkpt>
      <trkpt lat="44.742342" lon="8.071602">
        <time>2026-09-28T08:05:50Z</time>
      </trkpt>
      <trkpt lat="44.742422" lon="8.071688">
        <time>2026-09-28T08:05:52Z</time>
      </trkpt>
      <trkpt lat="44.742502" lon="8.071774">
        <time>2026-09-28T08:05:54Z</time>
      </trkpt>
      <trkpt lat="44.742582" lon="8.071860">
        <time>2026-09-28T08:05:56Z</time>
      </trkpt>
      <trkpt lat="44.742663" lon="8.071946">
        <time>2026-09-28T08:05:58Z</time>
      </trkpt>
      <trkpt lat="44.742743" lon="8.072032">
        <time>2026-09-28T08:06:00Z</time>
      </trkpt>
      <trkpt lat="44.742823" lon="8.072118">
        <time>2026-09-28T08:06:02Z</time>
      </trkpt>
      <trkpt lat="44.742903" lon="8.072203">
        <time>2026-09-28T08:06:04Z</time>
      </trkpt>
      <trkpt lat="44.742983" lon="8.072289">
        <time>2026-09-28T08:06:06Z</time>
      </trkpt>
      <trkpt lat="44.743063" lon="8.072375">
        <time>2026-09-28T08:06:08Z</time>
      </trkpt>
      <trkpt lat="44.743144" lon="8.072461">
        <time>2026-09-28T08:06:10Z</time>
      </trkpt>
      <trkpt lat="44.743224" lon="8.072545">
        <time>2026-09-28T08:06:12Z</time>
      </trkpt>
      <trkpt lat="44.743306" lon="8.072629">
        <time>2026-09-28T08:06:14Z</time>
      </trkpt>
      <trkpt lat="44.743387" lon="8.072712">
        <time>2026-09-28T08:06:16Z</time>
      </trkpt>
      <trkpt lat="44.743469" lon="8.072795">
        <time>2026-09-28T08:06:18Z</time>
      </trkpt>
      <trkpt lat="44.743550" lon="8.072879">
        <time>2026-09-28T08:06:20Z</time>
      </trkpt>
      <trkpt lat="44.743632" lon="8.072962">
        <time>2026-09-28T08:06:22Z</time>
      </trkpt>
      <trkpt lat="44.743713" lon="8.073045">
        <time>2026-09-28T08:06:24Z</time>
      </trkpt>
      <trkpt lat="44.743795" lon="8.073129">
        <time>2026-09-28T08:06:26Z</time>
      </trkpt>
      <trkpt lat="44.743876" lon="8.073212">
        <time>2026-09-28T08:06:28Z</time>
      </trkpt>
      <trkpt lat="44.743958" lon="8.073295">
        <time>2026-09-28T08:06:30Z</time>
      </trkpt>
      <trkpt lat="44.744039" lon="8.073379">
        <time>2026-09-28T08:06:32Z</time>
      </trkpt>
      <trkpt lat="44.744121" lon="8.073462">
        <time>2026-09-28T08:06:34Z</time>
      </trkpt>
      <trkpt lat="44.744202" lon="8.073545">
        <time>2026-09-28T08:06:36Z</time>
      </trkpt>
      <trkpt lat="44.744283" lon="8.073630">
        <time>2026-09-28T08:06:38Z</time>
      </trkpt>
      <trkpt lat="44.744363" lon="8.073715">
        <time>2026-09-28T08:06:40Z</time>
      </trkpt>
      <trkpt lat="44.744444" lon="8.073801">
        <time>2026-09-28T08:06:42Z</time>
      </trkpt>
      <trkpt lat="44.744524" lon="8.073887">
        <time>2026-09-28T08:06:44Z</time>
      </trkpt>
      <trkpt lat="44.744604" lon="8.073973">
        <time>2026-09-28T08:06:46Z</time>
      </trkpt>
      <trkpt lat="44.744684" lon="8.074059">
        <time>2026-09-28T08:06:48Z</time>
      </trkpt>
      <trkpt lat="44.744764" lon="8.074146">
        <time>2026-09-28T08:06:50Z</time>
      </trkpt>
      <trkpt lat="44.744844" lon="8.074232">
        <time>2026-09-28T08:06:52Z</time>
      </trkpt>
      <trkpt lat="44.744924" lon="8.074318">
        <time>2026-09-28T08:06:54Z</time>
      </trkpt>
      <trkpt lat="44.745004" lon="8.074403">
        <time>2026-09-28T08:06:56Z</time>
      </trkpt>
      <trkpt lat="44.745085" lon="8.074487">
        <time>2026-09-28T08:06:58Z</time>
      </trkpt>
      <trkpt lat="44.745166" lon="8.074571">
        <time>2026-09-28T08:07:00Z</time>
      </trkpt>
      <trkpt lat="44.745247" lon="8.074656">
        <time>2026-09-28T08:07:02Z</time>
      </trkpt>
      <trkpt lat="44.745328" lon="8.074740">
        <time>2026-09-28T08:07:04Z</time>
      </trkpt>
      <trkpt lat="44.745409" lon="8.074824">
        <time>2026-09-28T08:07:06Z</time>
      </trkpt>
      <trkpt lat="44.745490" lon="8.074908">
        <time>2026-09-28T08:07:08Z</time>
      </trkpt>
      <trkpt lat="44.745571" lon="8.074993">
        <time>2026-09-28T08:07:10Z</time>
      </trkpt>
      <trkpt lat="44.745653" lon="8.075077">
        <time>2026-09-28T08:07:12Z</time>
      </trkpt>
      <trkpt lat="44.745734" lon="8.075160">
        <time>2026-09-28T08:07:14Z</time>
      </trkpt>
      <trkpt lat="44.745816" lon="8.075242">
        <time>2026-09-28T08:07:16Z</time>
      </trkpt>
      <trkpt lat="44.745898" lon="8.075324">
        <time>2026-09-28T08:07:18Z</time>
      </trkpt>
      <trkpt lat="44.745980" lon="8.075406">
        <time>2026-09-28T08:07:20Z</time>
      </trkpt>
      <trkpt lat="44.746062" lon="8.075489">
        <time>2026-09-28T08:07:22Z</time>
      </trkpt>
      <trkpt lat="44.746144" lon="8.075571">
        <time>2026-09-28T08:07:24Z</time>
      </trkpt>
      <trkpt lat="44.746226" lon="8.075653">
        <time>2026-09-28T08:07:26Z</time>
      </trkpt>
      <trkpt lat="44.746308" lon="8.075736">
        <time>2026-09-28T08:07:28Z</time>
      </trkpt>
      <trkpt lat="44.746390" lon="8.075818">
        <time>2026-09-28T08:07:30Z</time>
      </trkpt>
      <trkpt lat="44.746473" lon="8.075900">
        <time>2026-09-28T08:07:32Z</time>
      </trkpt>
      <trkpt lat="44.746555" lon="8.075982">
        <time>2026-09-28T08:07:34Z</time>
      </trkpt>
      <trkpt lat="44.746637" lon="8.076063">
        <time>2026-09-28T08:07:36Z</time>
      </trkpt>
      <trkpt lat="44.746720" lon="8.076144">
        <time>2026-09-28T08:07:38Z</time>
      </trkpt>
      <trkpt lat="44.746802" lon="8.076226">
        <time>2026-09-28T08:07:40Z</time>
      </trkpt>
      <trkpt lat="44.746885" lon="8.076307">
        <time>2026-09-28T08:07:42Z</time>
      </trkpt>
      <trkpt lat="44.746967" lon="8.076389">
        <time>2026-09-28T08:07:44Z</time>
      </trkpt>
      <trkpt lat="44.747050" lon="8.076470">
        <time>2026-09-28T08:07:46Z</time>
      </trkpt>
      <trkpt lat="44.747132" lon="8.076551">
        <time>2026-09-28T08:07:48Z</time>
      </trkpt>
      <trkpt lat="44.747214" lon="8.076633">
        <time>2026-09-28T08:07:50Z</time>
      </trkpt>
      <trkpt lat="44.747297" lon="8.076714">
        <time>2026-09-28T08:07:52Z</time>
      </trkpt>
      <trkpt lat="44.747379" lon="8.076796">
        <time>2026-09-28T08:07:54Z</time>
      </trkpt>
      <trkpt lat="44.747462" lon="8.076877">
        <time>2026-09-28T08:07:56Z</time>
      </trkpt>
      <trkpt lat="44.747544" lon="8.076958">
        <time>2026-09-28T08:07:58Z</time>
      </trkpt>
      <trkpt lat="44.747627" lon="8.077040">
        <time>2026-09-28T08:08:00Z</time>
      </trkpt>
      <trkpt lat="44.747709" lon="8.077121">
        <time>2026-09-28T08:08:02Z</time>
      </trkpt>
      <trkpt lat="44.747792" lon="8.077202">
        <time>2026-09-28T08:08:04Z</time>
      </trkpt>
      <trkpt lat="44.747874" lon="8.077284">
        <time>2026-09-28T08:08:06Z</time>
      </trkpt>
      <trkpt lat="44.747957" lon="8.077365">
        <time>2026-09-28T08:08:08Z</time>
      </trkpt>
      <trkpt lat="44.748039" lon="8.077447">
        <time>2026-09-28T08:08:10Z</time>
      </trkpt>
      <trkpt lat="44.748121" lon="8.077529">
        <time>2026-09-28T08:08:12Z</time>
      </trkpt>
      <trkpt lat="44.748204" lon="8.077610">
        <time>2026-09-28T08:08:14Z</time>
      </trkpt>
      <trkpt lat="44.748286" lon="8.077692">
        <time>2026-09-28T08:08:16Z</time>
      </trkpt>
      <trkpt lat="44.748368" lon="8.077774">
        <time>2026-09-28T08:08:18Z</time>
      </trkpt>
      <trkpt lat="44.748451" lon="8.077855">
        <time>2026-09-28T08:08:20Z</time>
      </trkpt>
      <trkpt lat="44.748533" lon="8.077937">
        <time>2026-09-28T08:08:22Z</time>
      </trkpt>
      <trkpt lat="44.748615" lon="8.078018">
        <time>2026-09-28T08:08:24Z</time>
      </trkpt>
      <trkpt lat="44.748698" lon="8.078100">
        <time>2026-09-28T08:08:26Z</time>
      </trkpt>
      <trkpt lat="44.748780" lon="8.078182">
        <time>2026-09-28T08:08:28Z</time>
      </trkpt>
      <trkpt lat="44.748862" lon="8.078263">
        <time>2026-09-28T08:08:30Z</time>
      </trkpt>
      <trkpt lat="44.748945" lon="8.078345">
        <time>2026-09-28T08:08:32Z</time>
      </trkpt>
      <trkpt lat="44.749027" lon="8.078427">
        <time>2026-09-28T08:08:34Z</time>
      </trkpt>
      <trkpt lat="44.749109" lon="8.078508">
        <time>2026-09-28T08:08:36Z</time>
      </trkpt>
      <trkpt lat="44.749192" lon="8.078590">
        <time>2026-09-28T08:08:38Z</time>
      </trkpt>
      <trkpt lat="44.749274" lon="8.078672">
        <time>2026-09-28T08:08:40Z</time>
      </trkpt>
      <trkpt lat="44.749356" lon="8.078753">
        <time>2026-09-28T08:08:42Z</time>
      </trkpt>
      <trkpt lat="44.749439" lon="8.078834">
        <time>2026-09-28T08:08:44Z</time>
      </trkpt>
      <trkpt lat="44.749522" lon="8.078915">
        <time>2026-09-28T08:08:46Z</time>
      </trkpt>
      <trkpt lat="44.749604" lon="8.078996">
        <time>2026-09-28T08:08:48Z</time>
      </trkpt>
      <trkpt lat="44.749687" lon="8.079077">
        <time>2026-09-28T08:08:50Z</time>
      </trkpt>
      <trkpt lat="44.749770" lon="8.079158">
        <time>2026-09-28T08:08:52Z</time>
      </trkpt>
      <trkpt lat="44.749852" lon="8.079238">
        <time>2026-09-28T08:08:54Z</time>
      </trkpt>
      <trkpt lat="44.749935" lon="8.079319">
        <time>2026-09-28T08:08:56Z</time>
      </trkpt>
      <trkpt lat="44.750018" lon="8.079400">
        <time>2026-09-28T08:08:58Z</time>
      </trkpt>
      <trkpt lat="44.750101" lon="8.079481">
        <time>2026-09-28T08:09:00Z</time>
      </trkpt>
      <trkpt lat="44.750183" lon="8.079562">
        <time>2026-09-28T08:09:02Z</time>
      </trkpt>
      <trkpt lat="44.750266" lon="8.079643">
        <time>2026-09-28T08:09:04Z</time>
      </trkpt>
      <trkpt lat="44.750349" lon="8.079724">
        <time>2026-09-28T08:09:06Z</time>
      </trkpt>
      <trkpt lat="44.750431" lon="8.079805">
        <time>2026-09-28T08:09:08Z</time>
      </trkpt>
      <trkpt lat="44.750514" lon="8.079886">
        <time>2026-09-28T08:09:10Z</time>
      </trkpt>
      <trkpt lat="44.750596" lon="8.079968">
        <time>2026-09-28T08:09:12Z</time>
      </trkpt>
      <trkpt lat="44.750678" lon="8.080050">
        <time>2026-09-28T08:09:14Z</time>
      </trkpt>
      <trkpt lat="44.750760" lon="8.080133">
        <time>2026-09-28T08:09:16Z</time>
      </trkpt>
      <trkpt lat="44.750842" lon="8.080216">
        <time>2026-09-28T08:09:18Z</time>
      </trkpt>
      <trkpt lat="44.750924" lon="8.080298">
        <time>2026-09-28T08:09:20Z</time>
      </trkpt>
      <trkpt lat="44.751005" lon="8.080381">
        <time>2026-09-28T08:09:22Z</time>
      </trkpt>
      <trkpt lat="44.751087" lon="8.080463">
        <time>2026-09-28T08:09:24Z</time>
      </trkpt>
      <trkpt lat="44.751169" lon="8.080546">
        <time>2026-09-28T08:09:26Z</time>
      </trkpt>
      <trkpt lat="44.751251" lon="8.080629">
        <time>2026-09-28T08:09:28Z</time>
      </trkpt>
      <trkpt lat="44.751333" lon="8.080711">
        <time>2026-09-28T08:09:30Z</time>
      </trkpt>
      <trkpt lat="44.751415" lon="8.080794">
        <time>2026-09-28T08:09:32Z</time>
      </trkpt>
      <trkpt lat="44.751496" lon="8.080877">
        <time>2026-09-28T08:09:34Z</time>
      </trkpt>
      <trkpt lat="44.751578" lon="8.080960">
        <time>2026-09-28T08:09:36Z</time>
      </trkpt>
      <trkpt lat="44.751660" lon="8.081043">
        <time>2026-09-28T08:09:38Z</time>
      </trkpt>
      <trkpt lat="44.751741" lon="8.081127">
        <time>2026-09-28T08:09:40Z</time>
      </trkpt>
      <trkpt lat="44.751822" lon="8.081210">
        <time>2026-09-28T08:09:42Z</time>
      </trkpt>
      <trkpt lat="44.751904" lon="8.081294">
        <time>2026-09-28T08:09:44Z</time>
      </trkpt>
      <trkpt lat="44.751985" lon="8.081377">
        <time>2026-09-28T08:09:46Z</time>
      </trkpt>
      <trkpt lat="44.752066" lon="8.081461">
        <time>2026-09-28T08:09:48Z</time>
      </trkpt>
      <trkpt lat="44.752148" lon="8.081544">
        <time>2026-09-28T08:09:50Z</time>
      </trkpt>
      <trkpt lat="44.752229" lon="8.081628">
        <time>2026-09-28T08:09:52Z</time>
      </trkpt>
      <trkpt lat="44.752310" lon="8.081712">
        <time>2026-09-28T08:09:54Z</time>
      </trkpt>
      <trkpt lat="44.752391" lon="8.081796">
        <time>2026-09-28T08:09:56Z</time>
      </trkpt>
      <trkpt lat="44.752472" lon="8.081881">
        <time>2026-09-28T08:09:58Z</time>
      </trkpt>
      <trkpt lat="44.752552" lon="8.081967">
        <time>2026-09-28T08:10:00Z</time>
      </trkpt>
      <trkpt lat="44.752633" lon="8.082052">
        <time>2026-09-28T08:10:02Z</time>
      </trkpt>
      <trkpt lat="44.752713" lon="8.082137">
        <time>2026-09-28T08:10:04Z</time>
      </trkpt>
      <trkpt lat="44.752794" lon="8.082222">
        <time>2026-09-28T08:10:06Z</time>
      </trkpt>
      <trkpt lat="44.752873" lon="8.082309">
        <time>2026-09-28T08:10:08Z</time>
      </trkpt>
      <trkpt lat="44.752952" lon="8.082397">
        <time>2026-09-28T08:10:10Z</time>
      </trkpt>
      <trkpt lat="44.753031" lon="8.082487">
        <time>2026-09-28T08:10:12Z</time>
      </trkpt>
      <trkpt lat="44.753109" lon="8.082576">
        <time>2026-09-28T08:10:14Z</time>
      </trkpt>
      <trkpt lat="44.753187" lon="8.082665">
        <time>2026-09-28T08:10:16Z</time>
      </trkpt>
      <trkpt lat="44.753265" lon="8.082755">
        <time>2026-09-28T08:10:18Z</time>
      </trkpt>
      <trkpt lat="44.753344" lon="8.082844">
        <time>2026-09-28T08:10:20Z</time>
      </trkpt>
      <trkpt lat="44.753422" lon="8.082933">
        <time>2026-09-28T08:10:22Z</time>
      </trkpt>
      <trkpt lat="44.753500" lon="8.083023">
        <time>2026-09-28T08:10:24Z</time>
      </trkpt>
      <trkpt lat="44.753578" lon="8.083113">
        <time>2026-09-28T08:10:26Z</time>
      </trkpt>
      <trkpt lat="44.753656" lon="8.083203">
        <time>2026-09-28T08:10:28Z</time>
      </trkpt>
      <trkpt lat="44.753734" lon="8.083293">
        <time>2026-09-28T08:10:30Z</time>
      </trkpt>
      <trkpt lat="44.753811" lon="8.083383">
        <time>2026-09-28T08:10:32Z</time>
      </trkpt>
      <trkpt lat="44.753889" lon="8.083473">
        <time>2026-09-28T08:10:34Z</time>
      </trkpt>
      <trkpt lat="44.753967" lon="8.083563">
        <time>2026-09-28T08:10:36Z</time>
      </trkpt>
      <trkpt lat="44.754045" lon="8.083653">
        <time>2026-09-28T08:10:38Z</time>
      </trkpt>
      <trkpt lat="44.754121" lon="8.083746">
        <time>2026-09-28T08:10:40Z</time>
      </trkpt>
      <trkpt lat="44.754196" lon="8.083840">
        <time>2026-09-28T08:10:42Z</time>
      </trkpt>
      <trkpt lat="44.754270" lon="8.083936">
        <time>2026-09-28T08:10:44Z</time>
      </trkpt>
      <trkpt lat="44.754345" lon="8.084032">
        <time>2026-09-28T08:10:46Z</time>
      </trkpt>
      <trkpt lat="44.754419" lon="8.084128">
        <time>2026-09-28T08:10:48Z</time>
      </trkpt>
      <trkpt lat="44.754493" lon="8.084224">
        <time>2026-09-28T08:10:50Z</time>
      </trkpt>
      <trkpt lat="44.754567" lon="8.084320">
        <time>2026-09-28T08:10:52Z</time>
      </trkpt>
      <trkpt lat="44.754642" lon="8.084416">
        <time>2026-09-28T08:10:54Z</time>
      </trkpt>
      <trkpt lat="44.754716" lon="8.084512">
        <time>2026-09-28T08:10:56Z</time>
      </trkpt>
      <trkpt lat="44.754790" lon="8.084608">
        <time>2026-09-28T08:10:58Z</time>
      </trkpt>
      <trkpt lat="44.754864" lon="8.084705">
        <time>2026-09-28T08:11:00Z</time>
      </trkpt>
      <trkpt lat="44.754937" lon="8.084802">
        <time>2026-09-28T08:11:02Z</time>
      </trkpt>
      <trkpt lat="44.755010" lon="8.084900">
        <time>2026-09-28T08:11:04Z</time>
      </trkpt>
      <trkpt lat="44.755083" lon="8.084997">
        <time>2026-09-28T08:11:06Z</time>
      </trkpt>
      <trkpt lat="44.755157" lon="8.085095">
        <time>2026-09-28T08:11:08Z</time>
      </trkpt>
      <trkpt lat="44.755230" lon="8.085192">
        <time>2026-09-28T08:11:10Z</time>
      </trkpt>
      <trkpt lat="44.755303" lon="8.085290">
        <time>2026-09-28T08:11:12Z</time>
      </trkpt>
      <trkpt lat="44.755376" lon="8.085387">
        <time>2026-09-28T08:11:14Z</time>
      </trkpt>
      <trkpt lat="44.755449" lon="8.085485">
        <time>2026-09-28T08:11:16Z</time>
      </trkpt>
      <trkpt lat="44.755523" lon="8.085583">
        <time>2026-09-28T08:11:18Z</time>
      </trkpt>
      <trkpt lat="44.755595" lon="8.085682">
        <time>2026-09-28T08:11:20Z</time>
      </trkpt>
      <trkpt lat="44.755666" lon="8.085781">
        <time>2026-09-28T08:11:22Z</time>
      </trkpt>
      <trkpt lat="44.755738" lon="8.085881">
        <time>2026-09-28T08:11:24Z</time>
      </trkpt>
      <trkpt lat="44.755810" lon="8.085980">
        <time>2026-09-28T08:11:26Z</time>
      </trkpt>
      <trkpt lat="44.755882" lon="8.086080">
        <time>2026-09-28T08:11:28Z</time>
      </trkpt>
      <trkpt lat="44.755953" lon="8.086180">
        <time>2026-09-28T08:11:30Z</time>
      </trkpt>
      <trkpt lat="44.756024" lon="8.086281">
        <time>2026-09-28T08:11:32Z</time>
      </trkpt>
      <trkpt lat="44.756095" lon="8.086382">
        <time>2026-09-28T08:11:34Z</time>
      </trkpt>
      <trkpt lat="44.756166" lon="8.086482">
        <time>2026-09-28T08:11:36Z</time>
      </trkpt>
      <trkpt lat="44.756237" lon="8.086583">
        <time>2026-09-28T08:11:38Z</time>
      </trkpt>
      <trkpt lat="44.756308" lon="8.086684">
        <time>2026-09-28T08:11:40Z</time>
      </trkpt>
      <trkpt lat="44.756379" lon="8.086785">
        <time>2026-09-28T08:11:42Z</time>
      </trkpt>
      <trkpt lat="44.756450" lon="8.086886">
        <time>2026-09-28T08:11:44Z</time>
      </trkpt>
      <trkpt lat="44.756521" lon="8.086987">
        <time>2026-09-28T08:11:46Z</time>
      </trkpt>
      <trkpt lat="44.756591" lon="8.087089">
        <time>2026-09-28T08:11:48Z</time>
      </trkpt>
      <trkpt lat="44.756661" lon="8.087191">
        <time>2026-09-28T08:11:50Z</time>
      </trkpt>
      <trkpt lat="44.756731" lon="8.087294">
        <time>2026-09-28T08:11:52Z</time>
      </trkpt>
      <trkpt lat="44.756800" lon="8.087396">
        <time>2026-09-28T08:11:54Z</time>
      </trkpt>
      <trkpt lat="44.756870" lon="8.087498">
        <time>2026-09-28T08:11:56Z</time>
      </trkpt>
      <trkpt lat="44.756940" lon="8.087601">
        <time>2026-09-28T08:11:58Z</time>
      </trkpt>
      <trkpt lat="44.757010" lon="8.087703">
        <time>2026-09-28T08:12:00Z</time>
      </trkpt>
      <trkpt lat="44.757080" lon="8.087806">
        <time>2026-09-28T08:12:02Z</time>
      </trkpt>
      <trkpt lat="44.757150" lon="8.087908">
        <time>2026-09-28T08:12:04Z</time>
      </trkpt>
      <trkpt lat="44.757219" lon="8.088010">
        <time>2026-09-28T08:12:06Z</time>
      </trkpt>
      <trkpt lat="44.757289" lon="8.088113">
        <time>2026-09-28T08:12:08Z</time>
      </trkpt>
      <trkpt lat="44.757359" lon="8.088215">
        <time>2026-09-28T08:12:10Z</time>
      </trkpt>
      <trkpt lat="44.757428" lon="8.088318">
        <time>2026-09-28T08:12:12Z</time>
      </trkpt>
      <trkpt lat="44.757498" lon="8.088421">
        <time>2026-09-28T08:12:14Z</time>
      </trkpt>
      <trkpt lat="44.757567" lon="8.088524">
        <time>2026-09-28T08:12:16Z</time>
      </trkpt>
      <trkpt lat="44.757637" lon="8.088627">
        <time>2026-09-28T08:12:18Z</time>
      </trkpt>
      <trkpt lat="44.757706" lon="8.088729">
        <time>2026-09-28T08:12:20Z</time>
      </trkpt>
      <trkpt lat="44.757776" lon="8.088832">
        <time>2026-09-28T08:12:22Z</time>
      </trkpt>
      <trkpt lat="44.757845" lon="8.088935">
        <time>2026-09-28T08:12:24Z</time>
      </trkpt>
      <trkpt lat="44.757915" lon="8.089038">
        <time>2026-09-28T08:12:26Z</time>
      </trkpt>
      <trkpt lat="44.757985" lon="8.089140">
        <time>2026-09-28T08:12:28Z</time>
      </trkpt>
      <trkpt lat="44.758055" lon="8.089242">
        <time>2026-09-28T08:12:30Z</time>
      </trkpt>
      <trkpt lat="44.758125" lon="8.089344">
        <time>2026-09-28T08:12:32Z</time>
      </trkpt>
      <trkpt lat="44.758195" lon="8.089446">
        <time>2026-09-28T08:12:34Z</time>
      </trkpt>
      <trkpt lat="44.758265" lon="8.089548">
        <time>2026-09-28T08:12:36Z</time>
      </trkpt>
      <trkpt lat="44.758336" lon="8.089649">
        <time>2026-09-28T08:12:38Z</time>
      </trkpt>
      <trkpt lat="44.758406" lon="8.089751">
        <time>2026-09-28T08:12:40Z</time>
      </trkpt>
      <trkpt lat="44.758476" lon="8.089853">
        <time>2026-09-28T08:12:42Z</time>
      </trkpt>
      <trkpt lat="44.758546" lon="8.089955">
        <time>2026-09-28T08:12:44Z</time>
      </trkpt>
      <trkpt lat="44.758617" lon="8.090057">
        <time>2026-09-28T08:12:46Z</time>
      </trkpt>
      <trkpt lat="44.758687" lon="8.090158">
        <time>2026-09-28T08:12:48Z</time>
      </trkpt>
      <trkpt lat="44.758757" lon="8.090260">
        <time>2026-09-28T08:12:50Z</time>
      </trkpt>
      <trkpt lat="44.758827" lon="8.090362">
        <time>2026-09-28T08:12:52Z</time>
      </trkpt>
      <trkpt lat="44.758897" lon="8.090465">
        <time>2026-09-28T08:12:54Z</time>
      </trkpt>
      <trkpt lat="44.758967" lon="8.090567">
        <time>2026-09-28T08:12:56Z</time>
      </trkpt>
      <trkpt lat="44.759037" lon="8.090669">
        <time>2026-09-28T08:12:58Z</time>
      </trkpt>
      <trkpt lat="44.759107" lon="8.090771">
        <time>2026-09-28T08:13:00Z</time>
      </trkpt>
      <trkpt lat="44.759177" lon="8.090873">
        <time>2026-09-28T08:13:02Z</time>
      </trkpt>
      <trkpt lat="44.759247" lon="8.090975">
        <time>2026-09-28T08:13:04Z</time>
      </trkpt>
      <trkpt lat="44.759318" lon="8.091077">
        <time>2026-09-28T08:13:06Z</time>
      </trkpt>
      <trkpt lat="44.759388" lon="8.091179">
        <time>2026-09-28T08:13:08Z</time>
      </trkpt>
      <trkpt lat="44.759458" lon="8.091281">
        <time>2026-09-28T08:13:10Z</time>
      </trkpt>
      <trkpt lat="44.759529" lon="8.091382">
        <time>2026-09-28T08:13:12Z</time>
      </trkpt>
      <trkpt lat="44.759600" lon="8.091482">
        <time>2026-09-28T08:13:14Z</time>
      </trkpt>
      <trkpt lat="44.759671" lon="8.091582">
        <time>2026-09-28T08:13:16Z</time>
      </trkpt>
      <trkpt lat="44.759743" lon="8.091683">
        <time>2026-09-28T08:13:18Z</time>
      </trkpt>
      <trkpt lat="44.759814" lon="8.091783">
        <time>2026-09-28T08:13:20Z</time>
      </trkpt>
      <trkpt lat="44.759885" lon="8.091883">
        <time>2026-09-28T08:13:22Z</time>
      </trkpt>
      <trkpt lat="44.759957" lon="8.091983">
        <time>2026-09-28T08:13:24Z</time>
      </trkpt>
      <trkpt lat="44.760028" lon="8.092083">
        <time>2026-09-28T08:13:26Z</time>
      </trkpt>
      <trkpt lat="44.760100" lon="8.092183">
        <time>2026-09-28T08:13:28Z</time>
      </trkpt>
      <trkpt lat="44.760171" lon="8.092283">
        <time>2026-09-28T08:13:30Z</time>
      </trkpt>
      <trkpt lat="44.760244" lon="8.092382">
        <time>2026-09-28T08:13:32Z</time>
      </trkpt>
      <trkpt lat="44.760316" lon="8.092481">
        <time>2026-09-28T08:13:34Z</time>
      </trkpt>
      <trkpt lat="44.760388" lon="8.092580">
        <time>2026-09-28T08:13:36Z</time>
      </trkpt>
      <trkpt lat="44.760461" lon="8.092678">
        <time>2026-09-28T08:13:38Z</time>
      </trkpt>
      <trkpt lat="44.760533" lon="8.092777">
        <time>2026-09-28T08:13:40Z</time>
      </trkpt>
      <trkpt lat="44.760605" lon="8.092876">
        <time>2026-09-28T08:13:42Z</time>
      </trkpt>
      <trkpt lat="44.760678" lon="8.092975">
        <time>2026-09-28T08:13:44Z</time>
      </trkpt>
      <trkpt lat="44.760750" lon="8.093073">
        <time>2026-09-28T08:13:46Z</time>
      </trkpt>
      <trkpt lat="44.760823" lon="8.093172">
        <time>2026-09-28T08:13:48Z</time>
      </trkpt>
      <trkpt lat="44.760895" lon="8.093270">
        <time>2026-09-28T08:13:50Z</time>
      </trkpt>
      <trkpt lat="44.760969" lon="8.093367">
        <time>2026-09-28T08:13:52Z</time>
      </trkpt>
      <trkpt lat="44.761044" lon="8.093463">
        <time>2026-09-28T08:13:54Z</time>
      </trkpt>
      <trkpt lat="44.761118" lon="8.093558">
        <time>2026-09-28T08:13:56Z</time>
      </trkpt>
      <trkpt lat="44.761193" lon="8.093653">
        <time>2026-09-28T08:13:58Z</time>
      </trkpt>
      <trkpt lat="44.761267" lon="8.093749">
        <time>2026-09-28T08:14:00Z</time>
      </trkpt>
      <trkpt lat="44.761343" lon="8.093842">
        <time>2026-09-28T08:14:02Z</time>
      </trkpt>
      <trkpt lat="44.761419" lon="8.093935">
        <time>2026-09-28T08:14:04Z</time>
      </trkpt>
      <trkpt lat="44.761495" lon="8.094029">
        <time>2026-09-28T08:14:06Z</time>
      </trkpt>
      <trkpt lat="44.761571" lon="8.094122">
        <time>2026-09-28T08:14:08Z</time>
      </trkpt>
      <trkpt lat="44.761647" lon="8.094215">
        <time>2026-09-28T08:14:10Z</time>
      </trkpt>
      <trkpt lat="44.761724" lon="8.094307">
        <time>2026-09-28T08:14:12Z</time>
      </trkpt>
      <trkpt lat="44.761802" lon="8.094397">
        <time>2026-09-28T08:14:14Z</time>
      </trkpt>
      <trkpt lat="44.761880" lon="8.094486">
        <time>2026-09-28T08:14:16Z</time>
      </trkpt>
      <trkpt lat="44.761958" lon="8.094576">
        <time>2026-09-28T08:14:18Z</time>
      </trkpt>
      <trkpt lat="44.762036" lon="8.094665">
        <time>2026-09-28T08:14:20Z</time>
      </trkpt>
      <trkpt lat="44.762114" lon="8.094755">
        <time>2026-09-28T08:14:22Z</time>
      </trkpt>
      <trkpt lat="44.762193" lon="8.094844">
        <time>2026-09-28T08:14:24Z</time>
      </trkpt>
      <trkpt lat="44.762271" lon="8.094933">
        <time>2026-09-28T08:14:26Z</time>
      </trkpt>
      <trkpt lat="44.762350" lon="8.095022">
        <time>2026-09-28T08:14:28Z</time>
      </trkpt>
      <trkpt lat="44.762429" lon="8.095109">
        <time>2026-09-28T08:14:30Z</time>
      </trkpt>
      <trkpt lat="44.762509" lon="8.095196">
        <time>2026-09-28T08:14:32Z</time>
      </trkpt>
      <trkpt lat="44.762588" lon="8.095283">
        <time>2026-09-28T08:14:34Z</time>
      </trkpt>
      <trkpt lat="44.762668" lon="8.095369">
        <time>2026-09-28T08:14:36Z</time>
      </trkpt>
      <trkpt lat="44.762748" lon="8.095456">
        <time>2026-09-28T08:14:38Z</time>
      </trkpt>
      <trkpt lat="44.762828" lon="8.095542">
        <time>2026-09-28T08:14:40Z</time>
      </trkpt>
      <trkpt lat="44.762908" lon="8.095629">
        <time>2026-09-28T08:14:42Z</time>
      </trkpt>
      <trkpt lat="44.762987" lon="8.095715">
        <time>2026-09-28T08:14:44Z</time>
      </trkpt>
      <trkpt lat="44.763068" lon="8.095800">
        <time>2026-09-28T08:14:46Z</time>
      </trkpt>
      <trkpt lat="44.763149" lon="8.095885">
        <time>2026-09-28T08:14:48Z</time>
      </trkpt>
      <trkpt lat="44.763230" lon="8.095969">
        <time>2026-09-28T08:14:50Z</time>
      </trkpt>
      <trkpt lat="44.763311" lon="8.096054">
        <time>2026-09-28T08:14:52Z</time>
      </trkpt>
      <trkpt lat="44.763391" lon="8.096138">
        <time>2026-09-28T08:14:54Z</time>
      </trkpt>
      <trkpt lat="44.763472" lon="8.096223">
        <time>2026-09-28T08:14:56Z</time>
      </trkpt>
      <trkpt lat="44.763553" lon="8.096307">
        <time>2026-09-28T08:14:58Z</time>
      </trkpt>
      <trkpt lat="44.763634" lon="8.096391">
        <time>2026-09-28T08:15:00Z</time>
      </trkpt>
      <trkpt lat="44.763715" lon="8.096475">
        <time>2026-09-28T08:15:02Z</time>
      </trkpt>
      <trkpt lat="44.763798" lon="8.096557">
        <time>2026-09-28T08:15:04Z</time>
      </trkpt>
      <trkpt lat="44.763880" lon="8.096639">
        <time>2026-09-28T08:15:06Z</time>
      </trkpt>
      <trkpt lat="44.763963" lon="8.096719">
        <time>2026-09-28T08:15:08Z</time>
      </trkpt>
      <trkpt lat="44.764046" lon="8.096800">
        <time>2026-09-28T08:15:10Z</time>
      </trkpt>
      <trkpt lat="44.764128" lon="8.096881">
        <time>2026-09-28T08:15:12Z</time>
      </trkpt>
      <trkpt lat="44.764211" lon="8.096962">
        <time>2026-09-28T08:15:14Z</time>
      </trkpt>
      <trkpt lat="44.764294" lon="8.097042">
        <time>2026-09-28T08:15:16Z</time>
      </trkpt>
      <trkpt lat="44.764377" lon="8.097123">
        <time>2026-09-28T08:15:18Z</time>
      </trkpt>
      <trkpt lat="44.764459" lon="8.097204">
        <time>2026-09-28T08:15:20Z</time>
      </trkpt>
      <trkpt lat="44.764541" lon="8.097286">
        <time>2026-09-28T08:15:22Z</time>
      </trkpt>
      <trkpt lat="44.764623" lon="8.097369">
        <time>2026-09-28T08:15:24Z</time>
      </trkpt>
      <trkpt lat="44.764705" lon="8.097453">
        <time>2026-09-28T08:15:26Z</time>
      </trkpt>
      <trkpt lat="44.764786" lon="8.097536">
        <time>2026-09-28T08:15:28Z</time>
      </trkpt>
      <trkpt lat="44.764867" lon="8.097620">
        <time>2026-09-28T08:15:30Z</time>
      </trkpt>
      <trkpt lat="44.764948" lon="8.097704">
        <time>2026-09-28T08:15:32Z</time>
      </trkpt>
      <trkpt lat="44.765030" lon="8.097788">
        <time>2026-09-28T08:15:34Z</time>
      </trkpt>
      <trkpt lat="44.765111" lon="8.097871">
        <time>2026-09-28T08:15:36Z</time>
      </trkpt>
      <trkpt lat="44.765192" lon="8.097955">
        <time>2026-09-28T08:15:38Z</time>
      </trkpt>
      <trkpt lat="44.765274" lon="8.098039">
        <time>2026-09-28T08:15:40Z</time>
      </trkpt>
      <trkpt lat="44.765355" lon="8.098123">
        <time>2026-09-28T08:15:42Z</time>
      </trkpt>
      <trkpt lat="44.765435" lon="8.098208">
        <time>2026-09-28T08:15:44Z</time>
      </trkpt>
      <trkpt lat="44.765515" lon="8.098294">
        <time>2026-09-28T08:15:46Z</time>
      </trkpt>
      <trkpt lat="44.765595" lon="8.098380">
        <time>2026-09-28T08:15:48Z</time>
      </trkpt>
      <trkpt lat="44.765676" lon="8.098466">
        <time>2026-09-28T08:15:50Z</time>
      </trkpt>
      <trkpt lat="44.765756" lon="8.098552">
        <time>2026-09-28T08:15:52Z</time>
      </trkpt>
      <trkpt lat="44.765836" lon="8.098638">
        <time>2026-09-28T08:15:54Z</time>
      </trkpt>
      <trkpt lat="44.765915" lon="8.098725">
        <time>2026-09-28T08:15:56Z</time>
      </trkpt>
      <trkpt lat="44.765990" lon="8.098819">
        <time>2026-09-28T08:15:58Z</time>
      </trkpt>
      <trkpt lat="44.766066" lon="8.098914">
        <time>2026-09-28T08:16:00Z</time>
      </trkpt>
      <trkpt lat="44.766141" lon="8.099008">
        <time>2026-09-28T08:16:02Z</time>
      </trkpt>
      <trkpt lat="44.766215" lon="8.099104">
        <time>2026-09-28T08:16:04Z</time>
      </trkpt>
      <trkpt lat="44.766290" lon="8.099200">
        <time>2026-09-28T08:16:06Z</time>
      </trkpt>
      <trkpt lat="44.766364" lon="8.099296">
        <time>2026-09-28T08:16:08Z</time>
      </trkpt>
      <trkpt lat="44.766437" lon="8.099393">
        <time>2026-09-28T08:16:10Z</time>
      </trkpt>
      <trkpt lat="44.766511" lon="8.099489">
        <time>2026-09-28T08:16:12Z</time>
      </trkpt>
      <trkpt lat="44.766585" lon="8.099586">
        <time>2026-09-28T08:16:14Z</time>
      </trkpt>
      <trkpt lat="44.766659" lon="8.099682">
        <time>2026-09-28T08:16:16Z</time>
      </trkpt>
      <trkpt lat="44.766733" lon="8.099778">
        <time>2026-09-28T08:16:18Z</time>
      </trkpt>
      <trkpt lat="44.766810" lon="8.099869">
        <time>2026-09-28T08:16:20Z</time>
      </trkpt>
      <trkpt lat="44.766888" lon="8.099959">
        <time>2026-09-28T08:16:22Z</time>
      </trkpt>
      <trkpt lat="44.766968" lon="8.100047">
        <time>2026-09-28T08:16:24Z</time>
      </trkpt>
      <trkpt lat="44.767048" lon="8.100132">
        <time>2026-09-28T08:16:26Z</time>
      </trkpt>
      <trkpt lat="44.767129" lon="8.100215">
        <time>2026-09-28T08:16:28Z</time>
      </trkpt>
      <trkpt lat="44.767211" lon="8.100298">
        <time>2026-09-28T08:16:30Z</time>
      </trkpt>
      <trkpt lat="44.767293" lon="8.100381">
        <time>2026-09-28T08:16:32Z</time>
      </trkpt>
      <trkpt lat="44.767376" lon="8.100462">
        <time>2026-09-28T08:16:34Z</time>
      </trkpt>
      <trkpt lat="44.767459" lon="8.100541">
        <time>2026-09-28T08:16:36Z</time>
      </trkpt>
      <trkpt lat="44.767544" lon="8.100617">
        <time>2026-09-28T08:16:38Z</time>
      </trkpt>
      <trkpt lat="44.767632" lon="8.100686">
        <time>2026-09-28T08:16:40Z</time>
      </trkpt>
      <trkpt lat="44.767723" lon="8.100746">
        <time>2026-09-28T08:16:42Z</time>
      </trkpt>
      <trkpt lat="44.767814" lon="8.100805">
        <time>2026-09-28T08:16:44Z</time>
      </trkpt>
      <trkpt lat="44.767906" lon="8.100864">
        <time>2026-09-28T08:16:46Z</time>
      </trkpt>
      <trkpt lat="44.767998" lon="8.100921">
        <time>2026-09-28T08:16:48Z</time>
      </trkpt>
      <trkpt lat="44.768090" lon="8.100979">
        <time>2026-09-28T08:16:50Z</time>
      </trkpt>
      <trkpt lat="44.768182" lon="8.101036">
        <time>2026-09-28T08:16:52Z</time>
      </trkpt>
      <trkpt lat="44.768274" lon="8.101094">
        <time>2026-09-28T08:16:54Z</time>
      </trkpt>
      <trkpt lat="44.768364" lon="8.101157">
        <time>2026-09-28T08:16:56Z</time>
      </trkpt>
      <trkpt lat="44.768452" lon="8.101225">
        <time>2026-09-28T08:16:58Z</time>
      </trkpt>
      <trkpt lat="44.768538" lon="8.101298">
        <time>2026-09-28T08:17:00Z</time>
      </trkpt>
      <trkpt lat="44.768623" lon="8.101375">
        <time>2026-09-28T08:17:02Z</time>
      </trkpt>
      <trkpt lat="44.768707" lon="8.101453">
        <time>2026-09-28T08:17:04Z</time>
      </trkpt>
      <trkpt lat="44.768790" lon="8.101533">
        <time>2026-09-28T08:17:06Z</time>
      </trkpt>
      <trkpt lat="44.768874" lon="8.101612">
        <time>2026-09-28T08:17:08Z</time>
      </trkpt>
      <trkpt lat="44.768957" lon="8.101692">
        <time>2026-09-28T08:17:10Z</time>
      </trkpt>
      <trkpt lat="44.769040" lon="8.101771">
        <time>2026-09-28T08:17:12Z</time>
      </trkpt>
      <trkpt lat="44.769124" lon="8.101851">
        <time>2026-09-28T08:17:14Z</time>
      </trkpt>
      <trkpt lat="44.769207" lon="8.101930">
        <time>2026-09-28T08:17:16Z</time>
      </trkpt>
      <trkpt lat="44.769290" lon="8.102010">
        <time>2026-09-28T08:17:18Z</time>
      </trkpt>
      <trkpt lat="44.769372" lon="8.102092">
        <time>2026-09-28T08:17:20Z</time>
      </trkpt>
      <trkpt lat="44.769454" lon="8.102174">
        <time>2026-09-28T08:17:22Z</time>
      </trkpt>
      <trkpt lat="44.769536" lon="8.102257">
        <time>2026-09-28T08:17:24Z</time>
      </trkpt>
      <trkpt lat="44.769618" lon="8.102339">
        <time>2026-09-28T08:17:26Z</time>
      </trkpt>
      <trkpt lat="44.769700" lon="8.102421">
        <time>2026-09-28T08:17:28Z</time>
      </trkpt>
      <trkpt lat="44.769782" lon="8.102504">
        <time>2026-09-28T08:17:30Z</time>
      </trkpt>
      <trkpt lat="44.769864" lon="8.102586">
        <time>2026-09-28T08:17:32Z</time>
      </trkpt>
      <trkpt lat="44.769946" lon="8.102669">
        <time>2026-09-28T08:17:34Z</time>
      </trkpt>
      <trkpt lat="44.770028" lon="8.102751">
        <time>2026-09-28T08:17:36Z</time>
      </trkpt>
      <trkpt lat="44.770110" lon="8.102833">
        <time>2026-09-28T08:17:38Z</time>
      </trkpt>
      <trkpt lat="44.770193" lon="8.102914">
        <time>2026-09-28T08:17:40Z</time>
      </trkpt>
      <trkpt lat="44.770275" lon="8.102996">
        <time>2026-09-28T08:17:42Z</time>
      </trkpt>
      <trkpt lat="44.770357" lon="8.103078">
        <time>2026-09-28T08:17:44Z</time>
      </trkpt>
      <trkpt lat="44.770440" lon="8.103159">
        <time>2026-09-28T08:17:46Z</time>
      </trkpt>
      <trkpt lat="44.770522" lon="8.103241">
        <time>2026-09-28T08:17:48Z</time>
      </trkpt>
      <trkpt lat="44.770604" lon="8.103322">
        <time>2026-09-28T08:17:50Z</time>
      </trkpt>
      <trkpt lat="44.770687" lon="8.103404">
        <time>2026-09-28T08:17:52Z</time>
      </trkpt>
      <trkpt lat="44.770769" lon="8.103486">
        <time>2026-09-28T08:17:54Z</time>
      </trkpt>
      <trkpt lat="44.770851" lon="8.103567">
        <time>2026-09-28T08:17:56Z</time>
      </trkpt>
      <trkpt lat="44.770934" lon="8.103649">
        <time>2026-09-28T08:17:58Z</time>
      </trkpt>
      <trkpt lat="44.771016" lon="8.103731">
        <time>2026-09-28T08:18:00Z</time>
      </trkpt>
      <trkpt lat="44.771098" lon="8.103813">
        <time>2026-09-28T08:18:02Z</time>
      </trkpt>
      <trkpt lat="44.771180" lon="8.103895">
        <time>2026-09-28T08:18:04Z</time>
      </trkpt>
      <trkpt lat="44.771262" lon="8.103977">
        <time>2026-09-28T08:18:06Z</time>
      </trkpt>
      <trkpt lat="44.771344" lon="8.104059">
        <time>2026-09-28T08:18:08Z</time>
      </trkpt>
      <trkpt lat="44.771427" lon="8.104141">
        <time>2026-09-28T08:18:10Z</time>
      </trkpt>
      <trkpt lat="44.771509" lon="8.104223">
        <time>2026-09-28T08:18:12Z</time>
      </trkpt>
      <trkpt lat="44.771591" lon="8.104305">
        <time>2026-09-28T08:18:14Z</time>
      </trkpt>
      <trkpt lat="44.771674" lon="8.104386">
        <time>2026-09-28T08:18:16Z</time>
      </trkpt>
      <trkpt lat="44.771756" lon="8.104468">
        <time>2026-09-28T08:18:18Z</time>
      </trkpt>
      <trkpt lat="44.771838" lon="8.104549">
        <time>2026-09-28T08:18:20Z</time>
      </trkpt>
      <trkpt lat="44.771921" lon="8.104631">
        <time>2026-09-28T08:18:22Z</time>
      </trkpt>
      <trkpt lat="44.772003" lon="8.104712">
        <time>2026-09-28T08:18:24Z</time>
      </trkpt>
      <trkpt lat="44.772086" lon="8.104794">
        <time>2026-09-28T08:18:26Z</time>
      </trkpt>
      <trkpt lat="44.772168" lon="8.104875">
        <time>2026-09-28T08:18:28Z</time>
      </trkpt>
      <trkpt lat="44.772250" lon="8.104957">
        <time>2026-09-28T08:18:30Z</time>
      </trkpt>
      <trkpt lat="44.772333" lon="8.105038">
        <time>2026-09-28T08:18:32Z</time>
      </trkpt>
      <trkpt lat="44.772415" lon="8.105120">
        <time>2026-09-28T08:18:34Z</time>
      </trkpt>
      <trkpt lat="44.772497" lon="8.105202">
        <time>2026-09-28T08:18:36Z</time>
      </trkpt>
      <trkpt lat="44.772580" lon="8.105283">
        <time>2026-09-28T08:18:38Z</time>
      </trkpt>
      <trkpt lat="44.772662" lon="8.105365">
        <time>2026-09-28T08:18:40Z</time>
      </trkpt>
      <trkpt lat="44.772745" lon="8.105446">
        <time>2026-09-28T08:18:42Z</time>
      </trkpt>
      <trkpt lat="44.772827" lon="8.105528">
        <time>2026-09-28T08:18:44Z</time>
      </trkpt>
      <trkpt lat="44.772909" lon="8.105609">
        <time>2026-09-28T08:18:46Z</time>
      </trkpt>
      <trkpt lat="44.772992" lon="8.105691">
        <time>2026-09-28T08:18:48Z</time>
      </trkpt>
      <trkpt lat="44.773074" lon="8.105773">
        <time>2026-09-28T08:18:50Z</time>
      </trkpt>
      <trkpt lat="44.773156" lon="8.105855">
        <time>2026-09-28T08:18:52Z</time>
      </trkpt>
      <trkpt lat="44.773238" lon="8.105937">
        <time>2026-09-28T08:18:54Z</time>
      </trkpt>
      <trkpt lat="44.773320" lon="8.106020">
        <time>2026-09-28T08:18:56Z</time>
      </trkpt>
      <trkpt lat="44.773402" lon="8.106102">
        <time>2026-09-28T08:18:58Z</time>
      </trkpt>
      <trkpt lat="44.773484" lon="8.106185">
        <time>2026-09-28T08:19:00Z</time>
      </trkpt>
      <trkpt lat="44.773566" lon="8.106267">
        <time>2026-09-28T08:19:02Z</time>
      </trkpt>
      <trkpt lat="44.773647" lon="8.106350">
        <time>2026-09-28T08:19:04Z</time>
      </trkpt>
      <trkpt lat="44.773729" lon="8.106432">
        <time>2026-09-28T08:19:06Z</time>
      </trkpt>
      <trkpt lat="44.773811" lon="8.106515">
        <time>2026-09-28T08:19:08Z</time>
      </trkpt>
      <trkpt lat="44.773893" lon="8.106597">
        <time>2026-09-28T08:19:10Z</time>
      </trkpt>
      <trkpt lat="44.773975" lon="8.106679">
        <time>2026-09-28T08:19:12Z</time>
      </trkpt>
      <trkpt lat="44.774058" lon="8.106760">
        <time>2026-09-28T08:19:14Z</time>
      </trkpt>
      <trkpt lat="44.774141" lon="8.106841">
        <time>2026-09-28T08:19:16Z</time>
      </trkpt>
      <trkpt lat="44.774224" lon="8.106922">
        <time>2026-09-28T08:19:18Z</time>
      </trkpt>
      <trkpt lat="44.774306" lon="8.107002">
        <time>2026-09-28T08:19:20Z</time>
      </trkpt>
      <trkpt lat="44.774389" lon="8.107083">
        <time>2026-09-28T08:19:22Z</time>
      </trkpt>
      <trkpt lat="44.774472" lon="8.107163">
        <time>2026-09-28T08:19:24Z</time>
      </trkpt>
      <trkpt lat="44.774555" lon="8.107244">
        <time>2026-09-28T08:19:26Z</time>
      </trkpt>
      <trkpt lat="44.774638" lon="8.107324">
        <time>2026-09-28T08:19:28Z</time>
      </trkpt>
      <trkpt lat="44.774720" lon="8.107406">
        <time>2026-09-28T08:19:30Z</time>
      </trkpt>
      <trkpt lat="44.774802" lon="8.107489">
        <time>2026-09-28T08:19:32Z</time>
      </trkpt>
      <trkpt lat="44.774884" lon="8.107572">
        <time>2026-09-28T08:19:34Z</time>
      </trkpt>
      <trkpt lat="44.774965" lon="8.107655">
        <time>2026-09-28T08:19:36Z</time>
      </trkpt>
      <trkpt lat="44.775047" lon="8.107738">
        <time>2026-09-28T08:19:38Z</time>
      </trkpt>
      <trkpt lat="44.775129" lon="8.107821">
        <time>2026-09-28T08:19:40Z</time>
      </trkpt>
      <trkpt lat="44.775210" lon="8.107904">
        <time>2026-09-28T08:19:42Z</time>
      </trkpt>
      <trkpt lat="44.775292" lon="8.107986">
        <time>2026-09-28T08:19:44Z</time>
      </trkpt>
      <trkpt lat="44.775374" lon="8.108069">
        <time>2026-09-28T08:19:46Z</time>
      </trkpt>
      <trkpt lat="44.775456" lon="8.108152">
        <time>2026-09-28T08:19:48Z</time>
      </trkpt>
      <trkpt lat="44.775538" lon="8.108233">
        <time>2026-09-28T08:19:50Z</time>
      </trkpt>
      <trkpt lat="44.775621" lon="8.108314">
        <time>2026-09-28T08:19:52Z</time>
      </trkpt>
      <trkpt lat="44.775703" lon="8.108395">
        <time>2026-09-28T08:19:54Z</time>
      </trkpt>
      <trkpt lat="44.775786" lon="8.108476">
        <time>2026-09-28T08:19:56Z</time>
      </trkpt>
      <trkpt lat="44.775869" lon="8.108557">
        <time>2026-09-28T08:19:58Z</time>
      </trkpt>
      <trkpt lat="44.775952" lon="8.108638">
        <time>2026-09-28T08:20:00Z</time>
      </trkpt>
      <trkpt lat="44.776034" lon="8.108719">
        <time>2026-09-28T08:20:02Z</time>
      </trkpt>
      <trkpt lat="44.776117" lon="8.108800">
        <time>2026-09-28T08:20:04Z</time>
      </trkpt>
      <trkpt lat="44.776199" lon="8.108882">
        <time>2026-09-28T08:20:06Z</time>
      </trkpt>
      <trkpt lat="44.776281" lon="8.108963">
        <time>2026-09-28T08:20:08Z</time>
      </trkpt>
      <trkpt lat="44.776363" lon="8.109046">
        <time>2026-09-28T08:20:10Z</time>
      </trkpt>
      <trkpt lat="44.776445" lon="8.109129">
        <time>2026-09-28T08:20:12Z</time>
      </trkpt>
      <trkpt lat="44.776527" lon="8.109211">
        <time>2026-09-28T08:20:14Z</time>
      </trkpt>
      <trkpt lat="44.776609" lon="8.109294">
        <time>2026-09-28T08:20:16Z</time>
      </trkpt>
      <trkpt lat="44.776691" lon="8.109376">
        <time>2026-09-28T08:20:18Z</time>
      </trkpt>
      <trkpt lat="44.776773" lon="8.109458">
        <time>2026-09-28T08:20:20Z</time>
      </trkpt>
      <trkpt lat="44.776855" lon="8.109541">
        <time>2026-09-28T08:20:22Z</time>
      </trkpt>
      <trkpt lat="44.776937" lon="8.109623">
        <time>2026-09-28T08:20:24Z</time>
      </trkpt>
      <trkpt lat="44.777019" lon="8.109706">
        <time>2026-09-28T08:20:26Z</time>
      </trkpt>
      <trkpt lat="44.777100" lon="8.109789">
        <time>2026-09-28T08:20:28Z</time>
      </trkpt>
      <trkpt lat="44.777182" lon="8.109872">
        <time>2026-09-28T08:20:30Z</time>
      </trkpt>
      <trkpt lat="44.777264" lon="8.109953">
        <time>2026-09-28T08:20:32Z</time>
      </trkpt>
      <trkpt lat="44.777347" lon="8.110035">
        <time>2026-09-28T08:20:34Z</time>
      </trkpt>
      <trkpt lat="44.777429" lon="8.110116">
        <time>2026-09-28T08:20:36Z</time>
      </trkpt>
      <trkpt lat="44.777512" lon="8.110197">
        <time>2026-09-28T08:20:38Z</time>
      </trkpt>
      <trkpt lat="44.777594" lon="8.110278">
        <time>2026-09-28T08:20:40Z</time>
      </trkpt>
      <trkpt lat="44.777677" lon="8.110360">
        <time>2026-09-28T08:20:42Z</time>
      </trkpt>
      <trkpt lat="44.777760" lon="8.110441">
        <time>2026-09-28T08:20:44Z</time>
      </trkpt>
      <trkpt lat="44.777841" lon="8.110523">
        <time>2026-09-28T08:20:46Z</time>
      </trkpt>
      <trkpt lat="44.777923" lon="8.110606">
        <time>2026-09-28T08:20:48Z</time>
      </trkpt>
      <trkpt lat="44.778005" lon="8.110689">
        <time>2026-09-28T08:20:50Z</time>
      </trkpt>
      <trkpt lat="44.778087" lon="8.110772">
        <time>2026-09-28T08:20:52Z</time>
      </trkpt>
      <trkpt lat="44.778168" lon="8.110855">
        <time>2026-09-28T08:20:54Z</time>
      </trkpt>
      <trkpt lat="44.778250" lon="8.110938">
        <time>2026-09-28T08:20:56Z</time>
      </trkpt>
      <trkpt lat="44.778331" lon="8.111022">
        <time>2026-09-28T08:20:58Z</time>
      </trkpt>
      <trkpt lat="44.778412" lon="8.111107">
        <time>2026-09-28T08:21:00Z</time>
      </trkpt>
      <trkpt lat="44.778492" lon="8.111192">
        <time>2026-09-28T08:21:02Z</time>
      </trkpt>
      <trkpt lat="44.778573" lon="8.111278">
        <time>2026-09-28T08:21:04Z</time>
      </trkpt>
      <trkpt lat="44.778653" lon="8.111363">
        <time>2026-09-28T08:21:06Z</time>
      </trkpt>
      <trkpt lat="44.778732" lon="8.111450">
        <time>2026-09-28T08:21:08Z</time>
      </trkpt>
      <trkpt lat="44.778811" lon="8.111538">
        <time>2026-09-28T08:21:10Z</time>
      </trkpt>
      <trkpt lat="44.778890" lon="8.111627">
        <time>2026-09-28T08:21:12Z</time>
      </trkpt>
      <trkpt lat="44.778968" lon="8.111716">
        <time>2026-09-28T08:21:14Z</time>
      </trkpt>
      <trkpt lat="44.779047" lon="8.111805">
        <time>2026-09-28T08:21:16Z</time>
      </trkpt>
      <trkpt lat="44.779125" lon="8.111894">
        <time>2026-09-28T08:21:18Z</time>
      </trkpt>
      <trkpt lat="44.779203" lon="8.111983">
        <time>2026-09-28T08:21:20Z</time>
      </trkpt>
      <trkpt lat="44.779282" lon="8.112072">
        <time>2026-09-28T08:21:22Z</time>
      </trkpt>
      <trkpt lat="44.779360" lon="8.112161">
        <time>2026-09-28T08:21:24Z</time>
      </trkpt>
      <trkpt lat="44.779437" lon="8.112253">
        <time>2026-09-28T08:21:26Z</time>
      </trkpt>
      <trkpt lat="44.779514" lon="8.112345">
        <time>2026-09-28T08:21:28Z</time>
      </trkpt>
      <trkpt lat="44.779590" lon="8.112438">
        <time>2026-09-28T08:21:30Z</time>
      </trkpt>
      <trkpt lat="44.779667" lon="8.112530">
        <time>2026-09-28T08:21:32Z</time>
      </trkpt>
      <trkpt lat="44.779743" lon="8.112623">
        <time>2026-09-28T08:21:34Z</time>
      </trkpt>
      <trkpt lat="44.779819" lon="8.112715">
        <time>2026-09-28T08:21:36Z</time>
      </trkpt>
      <trkpt lat="44.779896" lon="8.112807">
        <time>2026-09-28T08:21:38Z</time>
      </trkpt>
      <trkpt lat="44.779970" lon="8.112903">
        <time>2026-09-28T08:21:40Z</time>
      </trkpt>
      <trkpt lat="44.780044" lon="8.113000">
        <time>2026-09-28T08:21:42Z</time>
      </trkpt>
      <trkpt lat="44.780116" lon="8.113099">
        <time>2026-09-28T08:21:44Z</time>
      </trkpt>
      <trkpt lat="44.780189" lon="8.113197">
        <time>2026-09-28T08:21:46Z</time>
      </trkpt>
      <trkpt lat="44.780261" lon="8.113296">
        <time>2026-09-28T08:21:48Z</time>
      </trkpt>
      <trkpt lat="44.780334" lon="8.113395">
        <time>2026-09-28T08:21:50Z</time>
      </trkpt>
      <trkpt lat="44.780406" lon="8.113494">
        <time>2026-09-28T08:21:52Z</time>
      </trkpt>
      <trkpt lat="44.780478" lon="8.113592">
        <time>2026-09-28T08:21:54Z</time>
      </trkpt>
      <trkpt lat="44.780551" lon="8.113691">
        <time>2026-09-28T08:21:56Z</time>
      </trkpt>
      <trkpt lat="44.780621" lon="8.113793">
        <time>2026-09-28T08:21:58Z</time>
      </trkpt>
      <trkpt lat="44.780690" lon="8.113897">
        <time>2026-09-28T08:22:00Z</time>
      </trkpt>
      <trkpt lat="44.780759" lon="8.114000">
        <time>2026-09-28T08:22:02Z</time>
      </trkpt>
      <trkpt lat="44.780828" lon="8.114103">
        <time>2026-09-28T08:22:04Z</time>
      </trkpt>
      <trkpt lat="44.780897" lon="8.114207">
        <time>2026-09-28T08:22:06Z</time>
      </trkpt>
      <trkpt lat="44.780966" lon="8.114310">
        <time>2026-09-28T08:22:08Z</time>
      </trkpt>
      <trkpt lat="44.781035" lon="8.114413">
        <time>2026-09-28T08:22:10Z</time>
      </trkpt>
      <trkpt lat="44.781104" lon="8.114518">
        <time>2026-09-28T08:22:12Z</time>
      </trkpt>
      <trkpt lat="44.781171" lon="8.114623">
        <time>2026-09-28T08:22:14Z</time>
      </trkpt>
      <trkpt lat="44.781237" lon="8.114731">
        <time>2026-09-28T08:22:16Z</time>
      </trkpt>
      <trkpt lat="44.781302" lon="8.114839">
        <time>2026-09-28T08:22:18Z</time>
      </trkpt>
      <trkpt lat="44.781367" lon="8.114948">
        <time>2026-09-28T08:22:20Z</time>
      </trkpt>
      <trkpt lat="44.781432" lon="8.115056">
        <time>2026-09-28T08:22:22Z</time>
      </trkpt>
      <trkpt lat="44.781497" lon="8.115165">
        <time>2026-09-28T08:22:24Z</time>
      </trkpt>
      <trkpt lat="44.781562" lon="8.115273">
        <time>2026-09-28T08:22:26Z</time>
      </trkpt>
      <trkpt lat="44.781627" lon="8.115382">
        <time>2026-09-28T08:22:28Z</time>
      </trkpt>
      <trkpt lat="44.781691" lon="8.115492">
        <time>2026-09-28T08:22:30Z</time>
      </trkpt>
      <trkpt lat="44.781753" lon="8.115604">
        <time>2026-09-28T08:22:32Z</time>
      </trkpt>
      <trkpt lat="44.781815" lon="8.115716">
        <time>2026-09-28T08:22:34Z</time>
      </trkpt>
      <trkpt lat="44.781877" lon="8.115828">
        <time>2026-09-28T08:22:36Z</time>
      </trkpt>
      <trkpt lat="44.781939" lon="8.115940">
        <time>2026-09-28T08:22:38Z</time>
      </trkpt>
      <trkpt lat="44.782001" lon="8.116052">
        <time>2026-09-28T08:22:40Z</time>
      </trkpt>
      <trkpt lat="44.782063" lon="8.116164">
        <time>2026-09-28T08:22:42Z</time>
      </trkpt>
      <trkpt lat="44.782125" lon="8.116276">
        <time>2026-09-28T08:22:44Z</time>
      </trkpt>
      <trkpt lat="44.782187" lon="8.116388">
        <time>2026-09-28T08:22:46Z</time>
      </trkpt>
      <trkpt lat="44.782248" lon="8.116501">
        <time>2026-09-28T08:22:48Z</time>
      </trkpt>
      <trkpt lat="44.782308" lon="8.116616">
        <time>2026-09-28T08:22:50Z</time>
      </trkpt>
      <trkpt lat="44.782367" lon="8.116731">
        <time>2026-09-28T08:22:52Z</time>
      </trkpt>
      <trkpt lat="44.782425" lon="8.116846">
        <time>2026-09-28T08:22:54Z</time>
      </trkpt>
      <trkpt lat="44.782484" lon="8.116962">
        <time>2026-09-28T08:22:56Z</time>
      </trkpt>
      <trkpt lat="44.782543" lon="8.117077">
        <time>2026-09-28T08:22:58Z</time>
      </trkpt>
      <trkpt lat="44.782601" lon="8.117193">
        <time>2026-09-28T08:23:00Z</time>
      </trkpt>
      <trkpt lat="44.782660" lon="8.117309">
        <time>2026-09-28T08:23:02Z</time>
      </trkpt>
      <trkpt lat="44.782719" lon="8.117424">
        <time>2026-09-28T08:23:04Z</time>
      </trkpt>
      <trkpt lat="44.782777" lon="8.117540">
        <time>2026-09-28T08:23:06Z</time>
      </trkpt>
      <trkpt lat="44.782834" lon="8.117657">
        <time>2026-09-28T08:23:08Z</time>
      </trkpt>
      <trkpt lat="44.782891" lon="8.117774">
        <time>2026-09-28T08:23:10Z</time>
      </trkpt>
      <trkpt lat="44.782949" lon="8.117891">
        <time>2026-09-28T08:23:12Z</time>
      </trkpt>
      <trkpt lat="44.783006" lon="8.118008">
        <time>2026-09-28T08:23:14Z</time>
      </trkpt>
      <trkpt lat="44.783063" lon="8.118125">
        <time>2026-09-28T08:23:16Z</time>
      </trkpt>
      <trkpt lat="44.783121" lon="8.118242">
        <time>2026-09-28T08:23:18Z</time>
      </trkpt>
      <trkpt lat="44.783178" lon="8.118358">
        <time>2026-09-28T08:23:20Z</time>
      </trkpt>
      <trkpt lat="44.783235" lon="8.118475">
        <time>2026-09-28T08:23:22Z</time>
      </trkpt>
      <trkpt lat="44.783293" lon="8.118592">
        <time>2026-09-28T08:23:24Z</time>
      </trkpt>
      <trkpt lat="44.783350" lon="8.118709">
        <time>2026-09-28T08:23:26Z</time>
      </trkpt>
      <trkpt lat="44.783408" lon="8.118826">
        <time>2026-09-28T08:23:28Z</time>
      </trkpt>
      <trkpt lat="44.783465" lon="8.118943">
        <time>2026-09-28T08:23:30Z</time>
      </trkpt>
      <trkpt lat="44.783523" lon="8.119059">
        <time>2026-09-28T08:23:32Z</time>
      </trkpt>
      <trkpt lat="44.783580" lon="8.119176">
        <time>2026-09-28T08:23:34Z</time>
      </trkpt>
      <trkpt lat="44.783637" lon="8.119293">
        <time>2026-09-28T08:23:36Z</time>
      </trkpt>
      <trkpt lat="44.783695" lon="8.119410">
        <time>2026-09-28T08:23:38Z</time>
      </trkpt>
      <trkpt lat="44.783752" lon="8.119527">
        <time>2026-09-28T08:23:40Z</time>
      </trkpt>
      <trkpt lat="44.783810" lon="8.119644">
        <time>2026-09-28T08:23:42Z</time>
      </trkpt>
      <trkpt lat="44.783867" lon="8.119760">
        <time>2026-09-28T08:23:44Z</time>
      </trkpt>
      <trkpt lat="44.783925" lon="8.119876">
        <time>2026-09-28T08:23:46Z</time>
      </trkpt>
      <trkpt lat="44.783984" lon="8.119991">
        <time>2026-09-28T08:23:48Z</time>
      </trkpt>
      <trkpt lat="44.784043" lon="8.120107">
        <time>2026-09-28T08:23:50Z</time>
      </trkpt>
      <trkpt lat="44.784102" lon="8.120222">
        <time>2026-09-28T08:23:52Z</time>
      </trkpt>
      <trkpt lat="44.784162" lon="8.120337">
        <time>2026-09-28T08:23:54Z</time>
      </trkpt>
      <trkpt lat="44.784221" lon="8.120452">
        <time>2026-09-28T08:23:56Z</time>
      </trkpt>
      <trkpt lat="44.784280" lon="8.120567">
        <time>2026-09-28T08:23:58Z</time>
      </trkpt>
      <trkpt lat="44.784339" lon="8.120683">
        <time>2026-09-28T08:24:00Z</time>
      </trkpt>
      <trkpt lat="44.784398" lon="8.120798">
        <time>2026-09-28T08:24:02Z</time>
      </trkpt>
    </trkseg>
  </trk>
</gpx>