<?xml version="1.0" encoding="UTF-8"?>
<gpx version="1.1" creator="haipagato tools/build_gpx.py" xmlns="http://www.topografix.com/GPX/1/1">
  <metadata>
    <name>A33 Asti-Cuneo a 110 km/h</name>
    <desc>Percorrenza normale sul tronco II: transito confermato.</desc>
  </metadata>
  <trk>
    <name>A33 Asti-Cuneo a 110 km/h</name>
    <trkseg>
      <trkpt lat="44.728307" lon="8.056588">
        <time>2026-09-28T08:00:00Z</time>
      </trkpt>
      <trkpt lat="44.728749" lon="8.057059">
        <time>2026-09-28T08:00:02Z</time>
      </trkpt>
      <trkpt lat="44.729191" lon="8.057529">
        <time>2026-09-28T08:00:04Z</time>
      </trkpt>
      <trkpt lat="44.729634" lon="8.057998">
        <time>2026-09-28T08:00:06Z</time>
      </trkpt>
      <trkpt lat="44.730077" lon="8.058466">
        <time>2026-09-28T08:00:08Z</time>
      </trkpt>
      <trkpt lat="44.730520" lon="8.058934">
        <time>2026-09-28T08:00:10Z</time>
      </trkpt>
      <trkpt lat="44.730963" lon="8.059403">
        <time>2026-09-28T08:00:12Z</time>
      </trkpt>
      <trkpt lat="44.731406" lon="8.059871">
        <time>2026-09-28T08:00:14Z</time>
      </trkpt>
      <trkpt lat="44.731849" lon="8.060339">
        <time>2026-09-28T08:00:16Z</time>
      </trkpt>
      <trkpt lat="44.732291" lon="8.060808">
        <time>2026-09-28T08:00:18Z</time>
      </trkpt>
      <trkpt lat="44.732733" lon="8.061279">
        <time>2026-09-28T08:00:20Z</time>
      </trkpt>
      <trkpt lat="44.733175" lon="8.061750">
        <time>2026-09-28T08:00:22Z</time>
      </trkpt>
      <trkpt lat="44.733616" lon="8.062221">
        <time>2026-09-28T08:00:24Z</time>
      </trkpt>
      <trkpt lat="44.734057" lon="8.062694">
        <time>2026-09-28T08:00:26Z</time>
      </trkpt>
      <trkpt lat="44.734497" lon="8.063167">
        <time>2026-09-28T08:00:28Z</time>
      </trkpt>
      <trkpt lat="44.734938" lon="8.063639">
        <time>2026-09-28T08:00:30Z</time>
      </trkpt>
      <trkpt lat="44.735379" lon="8.064112">
        <time>2026-09-28T08:00:32Z</time>
      </trkpt>
      <trkpt lat="44.735818" lon="8.064587">
        <time>2026-09-28T08:00:34Z</time>
      </trkpt>
      <trkpt lat="44.736257" lon="8.065064">
        <time>2026-09-28T08:00:36Z</time>
      </trkpt>
      <trkpt lat="44.736695" lon="8.065540">
        <time>2026-09-28T08:00:38Z</time>
      </trkpt>
      <trkpt lat="44.737134" lon="8.066017">
        <time>2026-09-28T08:00:40Z</time>
      </trkpt>
      <trkpt lat="44.737573" lon="8.066492">
        <time>2026-09-28T08:00:42Z</time>
      </trkpt>
      <trkpt lat="44.738014" lon="8.066965">
        <time>2026-09-28T08:00:44Z</time>
      </trkpt>
      <trkpt lat="44.738454" lon="8.067437">
        <time>2026-09-28T08:00:46Z</time>
      </trkpt>
      <trkpt lat="44.738895" lon="8.067909">
        <time>2026-09-28T08:00:48Z</time>
      </trkpt>
      <trkpt lat="44.739338" lon="8.068379">
        <time>2026-09-28T08:00:50Z</time>
      </trkpt>
      <trkpt lat="44.739780" lon="8.068848">
        <time>2026-09-28T08:00:52Z</time>
      </trkpt>
      <trkpt lat="44.740223" lon="8.069318">
        <time>2026-09-28T08:00:54Z</time>
      </trkpt>
      <trkpt lat="44.740663" lon="8.069791">
        <time>2026-09-28T08:00:56Z</time>
      </trkpt>
      <trkpt lat="44.741103" lon="8.070265">
        <time>2026-09-28T08:00:58Z</time>
      </trkpt>
      <trkpt lat="44.741543" lon="8.070739">
        <time>2026-09-28T08:01:00Z</time>
      </trkpt>
      <trkpt lat="44.741982" lon="8.071214">
        <time>2026-09-28T08:01:02Z</time>
      </trkpt>
      <trkpt lat="44.742422" lon="8.071688">
        <time>2026-09-28T08:01:04Z</time>
      </trkpt>
      <trkpt lat="44.742863" lon="8.072160">
        <time>2026-09-28T08:01:06Z</time>
      </trkpt>
      <trkpt lat="44.743306" lon="8.072629">
        <time>2026-09-28T08:01:08Z</time>
      </trkpt>
      <trkpt lat="44.743754" lon="8.073087">
        <time>2026-09-28T08:01:10Z</time>
      </trkpt>
      <trkpt lat="44.744202" lon="8.073545">
        <time>2026-09-28T08:01:12Z</time>
      </trkpt>
      <trkpt lat="44.744644" lon="8.074016">
        <time>2026-09-28T08:01:14Z</time>
      </trkpt>
      <trkpt lat="44.745085" lon="8.074487">
        <time>2026-09-28T08:01:16Z</time>
      </trkpt>
      <trkpt lat="44.745531" lon="8.074951">
        <time>2026-09-28T08:01:18Z</time>
      </trkpt>
      <trkpt lat="44.745980" lon="8.075406">
        <time>2026-09-28T08:01:20Z</time>
      </trkpt>
      <trkpt lat="44.746431" lon="8.075859">
        <time>2026-09-28T08:01:22Z</time>
      </trkpt>
      <trkpt lat="44.746885" lon="8.076307">
        <time>2026-09-28T08:01:24Z</time>
      </trkpt>
      <trkpt lat="44.747338" lon="8.076755">
        <time>2026-09-28T08:01:26Z</time>
      </trkpt>
      <trkpt lat="44.747792" lon="8.077202">
        <time>2026-09-28T08:01:28Z</time>
      </trkpt>
      <trkpt lat="44.748245" lon="8.077651">
        <time>2026-09-28T08:01:30Z</time>
      </trkpt>
      <trkpt lat="44.748698" lon="8.078100">
        <time>2026-09-28T08:01:32Z</time>
      </trkpt>
      <trkpt lat="44.749150" lon="8.078549">
        <time>2026-09-28T08:01:34Z</time>
      </trkpt>
      <trkpt lat="44.749604" lon="8.078996">
        <time>2026-09-28T08:01:36Z</time>
      </trkpt>
      <trkpt lat="44.750059" lon="8.079441">
        <time>2026-09-28T08:01:38Z</time>
      </trkpt>
      <trkpt lat="44.750514" lon="8.079886">
        <time>2026-09-28T08:01:40Z</time>
      </trkpt>
      <trkpt lat="44.750964" lon="8.080340">
        <time>2026-09-28T08:01:42Z</time>
      </trkpt>
      <trkpt lat="44.751415" lon="8.080794">
        <time>2026-09-28T08:01:44Z</time>
      </trkpt>
      <trkpt lat="44.751863" lon="8.081252">
        <time>2026-09-28T08:01:46Z</time>
      </trkpt>
      <trkpt lat="44.752310" lon="8.081712">
        <time>2026-09-28T08:01:48Z</time>
      </trkpt>
      <trkpt lat="44.752754" lon="8.082179">
        <time>2026-09-28T08:01:50Z</time>
      </trkpt>
      <trkpt lat="44.753187" lon="8.082665">
        <time>2026-09-28T08:01:52Z</time>
      </trkpt>
      <trkpt lat="44.753617" lon="8.083158">
        <time>2026-09-28T08:01:54Z</time>
      </trkpt>
      <trkpt lat="44.754045" lon="8.083653">
        <time>2026-09-28T08:01:56Z</time>
      </trkpt>
      <trkpt lat="44.754456" lon="8.084176">
        <time>2026-09-28T08:01:58Z</time>
      </trkpt>
      <trkpt lat="44.754864" lon="8.084705">
        <time>2026-09-28T08:02:00Z</time>
      </trkpt>
      <trkpt lat="44.755266" lon="8.085241">
        <time>2026-09-28T08:02:02Z</time>
      </trkpt>
      <trkpt lat="44.755666" lon="8.085781">
        <time>2026-09-28T08:02:04Z</time>
      </trkpt>
      <trkpt lat="44.756060" lon="8.086331">
        <time>2026-09-28T08:02:06Z</time>
      </trkpt>
      <trkpt lat="44.756450" lon="8.086886">
        <time>2026-09-28T08:02:08Z</time>
      </trkpt>
      <trkpt lat="44.756835" lon="8.087447">
        <time>2026-09-28T08:02:10Z</time>
      </trkpt>
      <trkpt lat="44.757219" lon="8.088010">
        <time>2026-09-28T08:02:12Z</time>
      </trkpt>
      <trkpt lat="44.757602" lon="8.088575">
        <time>2026-09-28T08:02:14Z</time>
      </trkpt>
      <trkpt lat="44.757985" lon="8.089140">
        <time>2026-09-28T08:02:16Z</time>
      </trkpt>
      <trkpt lat="44.758371" lon="8.089700">
        <time>2026-09-28T08:02:18Z</time>
      </trkpt>
      <trkpt lat="44.758757" lon="8.090260">
        <time>2026-09-28T08:02:20Z</time>
      </trkpt>
      <trkpt lat="44.759142" lon="8.090822">
        <time>2026-09-28T08:02:22Z</time>
      </trkpt>
      <trkpt lat="44.759529" lon="8.091382">
        <time>2026-09-28T08:02:24Z</time>
      </trkpt>
      <trkpt lat="44.759921" lon="8.091933">
        <time>2026-09-28T08:02:26Z</time>
      </trkpt>
      <trkpt lat="44.760316" lon="8.092481">
        <time>2026-09-28T08:02:28Z</time>
      </trkpt>
      <trkpt lat="44.760714" lon="8.093024">
        <time>2026-09-28T08:02:30Z</time>
      </trkpt>
      <trkpt lat="44.761118" lon="8.093558">
        <time>2026-09-28T08:02:32Z</time>
      </trkpt>
      <trkpt lat="44.761533" lon="8.094075">
        <time>2026-09-28T08:02:34Z</time>
      </trkpt>
      <trkpt lat="44.761958" lon="8.094576">
        <time>2026-09-28T08:02:36Z</time>
      </trkpt>
      <trkpt lat="44.762389" lon="8.095066">
        <time>2026-09-28T08:02:38Z</time>
      </trkpt>
      <trkpt lat="44.762828" lon="8.095542">
        <time>2026-09-28T08:02:40Z</time>
      </trkpt>
      <trkpt lat="44.763270" lon="8.096012">
        <time>2026-09-28T08:02:42Z</time>
      </trkpt>
      <trkpt lat="44.763715" lon="8.096475">
        <time>2026-09-28T08:02:44Z</time>
      </trkpt>
      <trkpt lat="44.764170" lon="8.096921">
        <time>2026-09-28T08:02:46Z</time>
      </trkpt>
      <trkpt lat="44.764623" lon="8.097369">
        <time>2026-09-28T08:02:48Z</time>
      </trkpt>
      <trkpt lat="44.765070" lon="8.097829">
        <time>2026-09-28T08:02:50Z</time>
      </trkpt>
      <trkpt lat="44.765515" lon="8.098294">
        <time>2026-09-28T08:02:52Z</time>
      </trkpt>
      <trkpt lat="44.765953" lon="8.098772">
        <time>2026-09-28T08:02:54Z</time>
      </trkpt>
      <trkpt lat="44.766364" lon="8.099296">
        <time>2026-09-28T08:02:56Z</time>
      </trkpt>
      <trkpt lat="44.766772" lon="8.099824">
        <time>2026-09-28T08:02:58Z</time>
      </trkpt>
      <trkpt lat="44.767211" lon="8.100298">
        <time>2026-09-28T08:03:00Z</time>
      </trkpt>
      <trkpt lat="44.767677" lon="8.100716">
        <time>2026-09-28T08:03:02Z</time>
      </trkpt>
      <trkpt lat="44.768182" lon="8.101036">
        <time>2026-09-28T08:03:04Z</time>
      </trkpt>
      <trkpt lat="44.768665" lon="8.101414">
        <time>2026-09-28T08:03:06Z</time>
      </trkpt>
      <trkpt lat="44.769124" lon="8.101851">
        <time>2026-09-28T08:03:08Z</time>
      </trkpt>
      <trkpt lat="44.769577" lon="8.102298">
        <time>2026-09-28T08:03:10Z</time>
      </trkpt>
      <trkpt lat="44.770028" lon="8.102751">
        <time>2026-09-28T08:03:12Z</time>
      </trkpt>
      <trkpt lat="44.770481" lon="8.103200">
        <time>2026-09-28T08:03:14Z</time>
      </trkpt>
      <trkpt lat="44.770934" lon="8.103649">
        <time>2026-09-28T08:03:16Z</time>
      </trkpt>
      <trkpt lat="44.771385" lon="8.104100">
        <time>2026-09-28T08:03:18Z</time>
      </trkpt>
      <trkpt lat="44.771838" lon="8.104549">
        <time>2026-09-28T08:03:20Z</time>
      </trkpt>
      <trkpt lat="44.772292" lon="8.104998">
        <time>2026-09-28T08:03:22Z</time>
      </trkpt>
      <trkpt lat="44.772745" lon="8.105446">
        <time>2026-09-28T08:03:24Z</time>
      </trkpt>
      <trkpt lat="44.773197" lon="8.105896">
        <time>2026-09-28T08:03:26Z</time>
      </trkpt>
      <trkpt lat="44.773647" lon="8.106350">
        <time>2026-09-28T08:03:28Z</time>
      </trkpt>
      <trkpt lat="44.774099" lon="8.106801">
        <time>2026-09-28T08:03:30Z</time>
      </trkpt>
      <trkpt lat="44.774555" lon="8.107244">
        <time>2026-09-28T08:03:32Z</time>
      </trkpt>
      <trkpt lat="44.775006" lon="8.107696">
        <time>2026-09-28T08:03:34Z</time>
      </trkpt>
      <trkpt lat="44.775456" lon="8.108152">
        <time>2026-09-28T08:03:36Z</time>
      </trkpt>
      <trkpt lat="44.775910" lon="8.108598">
        <time>2026-09-28T08:03:38Z</time>
      </trkpt>
      <trkpt lat="44.776363" lon="8.109046">
        <time>2026-09-28T08:03:40Z</time>
      </trkpt>
      <trkpt lat="44.776814" lon="8.109500">
        <time>2026-09-28T08:03:42Z</time>
      </trkpt>
      <trkpt lat="44.777264" lon="8.109953">
        <time>2026-09-28T08:03:44Z</time>
      </trkpt>
      <trkpt lat="44.777718" lon="8.110400">
        <time>2026-09-28T08:03:46Z</time>
      </trkpt>
      <trkpt lat="44.778168" lon="8.110855">
        <time>2026-09-28T08:03:48Z</time>
      </trkpt>
      <trkpt lat="44.778613" lon="8.111320">
        <time>2026-09-28T08:03:50Z</time>
      </trkpt>
      <trkpt lat="44.779047" lon="8.111805">
        <time>2026-09-28T08:03:52Z</time>
      </trkpt>
      <trkpt lat="44.779476" lon="8.112299">
        <time>2026-09-28T08:03:54Z</time>
      </trkpt>
      <trkpt lat="44.779896" lon="8.112807">
        <time>2026-09-28T08:03:56Z</time>
      </trkpt>
      <trkpt lat="44.780297" lon="8.113346">
        <time>2026-09-28T08:03:58Z</time>
      </trkpt>
      <trkpt lat="44.780690" lon="8.113897">
        <time>2026-09-28T08:04:00Z</time>
      </trkpt>
      <trkpt lat="44.781070" lon="8.114465">
        <time>2026-09-28T08:04:02Z</time>
      </trkpt>
      <trkpt lat="44.781432" lon="8.115056">
        <time>2026-09-28T08:04:04Z</time>
      </trkpt>
      <trkpt lat="44.781784" lon="8.115660">
        <time>2026-09-28T08:04:06Z</time>
      </trkpt>
      <trkpt lat="44.782125" lon="8.116276">
        <time>2026-09-28T08:04:08Z</time>
      </trkpt>
      <trkpt lat="44.782455" lon="8.116904">
        <time>2026-09-28T08:04:10Z</time>
      </trkpt>
      <trkpt lat="44.782777" lon="8.117540">
        <time>2026-09-28T08:04:12Z</time>
      </trkpt>
      <trkpt lat="44.783092" lon="8.118183">
        <time>2026-09-28T08:04:14Z</time>
      </trkpt>
      <trkpt lat="44.783408" lon="8.118826">
        <time>2026-09-28T08:04:16Z</time>
      </trkpt>
      <trkpt lat="44.783724" lon="8.119468">
        <time>2026-09-28T08:04:18Z</time>
      </trkpt>
      <trkpt lat="44.784043" lon="8.120107">
        <time>2026-09-28T08:04:20Z</time>
      </trkpt>
      <trkpt lat="44.784368" lon="8.120740">
        <time>2026-09-28T08:04:22Z</time>
      </trkpt>
    </trkseg>
  </trk>
</gpx>