<?xml version="1.0" encoding="UTF-8"?>
<gpx version="1.1" creator="haipagato tools/build_gpx.py" xmlns="http://www.topografix.com/GPX/1/1">
  <metadata>
    <name>A36 Pedemontana in coda a 20 km/h</name>
    <desc>In coda non si superano i 50 km/h ma il pedaggio e' dovuto: confermato via avanzamento.</desc>
  </metadata>
  <trk>
    <name>A36 Pedemontana in coda a 20 km/h</name>
    <trkseg>
      <trkpt lat="45.650899" lon="8.849941">
        <time>2026-09-28T08:00:00Z</time>
      </trkpt>
      <trkpt lat="45.650922" lon="8.850079">
        <time>2026-09-28T08:00:02Z</time>
      </trkpt>
      <trkpt lat="45.650946" lon="8.850217">
        <time>2026-09-28T08:00:04Z</time>
      </trkpt>
      <trkpt lat="45.650969" lon="8.850356">
        <time>2026-09-28T08:00:06Z</time>
      </trkpt>
      <trkpt lat="45.650993" lon="8.850494">
        <time>2026-09-28T08:00:08Z</time>
      </trkpt>
      <trkpt lat="45.651017" lon="8.850632">
        <time>2026-09-28T08:00:10Z</time>
      </trkpt>
      <trkpt lat="45.651041" lon="8.850770">
        <time>2026-09-28T08:00:12Z</time>
      </trkpt>
      <trkpt lat="45.651065" lon="8.850909">
        <time>2026-09-28T08:00:14Z</time>
      </trkpt>
      <trkpt lat="45.651088" lon="8.851047">
        <time>2026-09-28T08:00:16Z</time>
      </trkpt>
      <trkpt lat="45.651112" lon="8.851185">
        <time>2026-09-28T08:00:18Z</time>
      </trkpt>
      <trkpt lat="45.651136" lon="8.851324">
        <time>2026-09-28T08:00:20Z</time>
      </trkpt>
      <trkpt lat="45.651160" lon="8.851462">
        <time>2026-09-28T08:00:22Z</time>
      </trkpt>
      <trkpt lat="45.651184" lon="8.851600">
        <time>2026-09-28T08:00:24Z</time>
      </trkpt>
      <trkpt lat="45.651207" lon="8.851738">
        <time>2026-09-28T08:00:26Z</time>
      </trkpt>
      <trkpt lat="45.651231" lon="8.851877">
        <time>2026-09-28T08:00:28Z</time>
      </trkpt>
      <trkpt lat="45.651255" lon="8.852015">
        <time>2026-09-28T08:00:30Z</time>
      </trkpt>
      <trkpt lat="45.651279" lon="8.852153">
        <time>2026-09-28T08:00:32Z</time>
      </trkpt>
      <trkpt lat="45.651303" lon="8.852291">
        <time>2026-09-28T08:00:34Z</time>
      </trkpt>
      <trkpt lat="45.651326" lon="8.852430">
        <time>2026-09-28T08:00:36Z</time>
      </trkpt>
      <trkpt lat="45.651350" lon="8.852568">
        <time>2026-09-28T08:00:38Z</time>
      </trkpt>
      <trkpt lat="45.651374" lon="8.852706">
        <time>2026-09-28T08:00:40Z</time>
      </trkpt>
      <trkpt lat="45.651398" lon="8.852845">
        <time>2026-09-28T08:00:42Z</time>
      </trkpt>
      <trkpt lat="45.651422" lon="8.852983">
        <time>2026-09-28T08:00:44Z</time>
      </trkpt>
      <trkpt lat="45.651445" lon="8.853121">
        <time>2026-09-28T08:00:46Z</time>
      </trkpt>
      <trkpt lat="45.651469" lon="8.853259">
        <time>2026-09-28T08:00:48Z</time>
      </trkpt>
      <trkpt lat="45.651493" lon="8.853398">
        <time>2026-09-28T08:00:50Z</time>
      </trkpt>
      <trkpt lat="45.651517" lon="8.853536">
        <time>2026-09-28T08:00:52Z</time>
      </trkpt>
      <trkpt lat="45.651541" lon="8.853674">
        <time>2026-09-28T08:00:54Z</time>
      </trkpt>
      <trkpt lat="45.651564" lon="8.853812">
        <time>2026-09-28T08:00:56Z</time>
      </trkpt>
      <trkpt lat="45.651588" lon="8.853951">
        <time>2026-09-28T08:00:58Z</time>
      </trkpt>
      <trkpt lat="45.651612" lon="8.854089">
        <time>2026-09-28T08:01:00Z</time>
      </trkpt>
      <trkpt lat="45.651636" lon="8.854227">
        <time>2026-09-28T08:01:02Z</time>
      </trkpt>
      <trkpt lat="45.651660" lon="8.854366">
        <time>2026-09-28T08:01:04Z</time>
      </trkpt>
      <trkpt lat="45.651683" lon="8.854504">
        <time>2026-09-28T08:01:06Z</time>
      </trkpt>
      <trkpt lat="45.651707" lon="8.854642">
        <time>2026-09-28T08:01:08Z</time>
      </trkpt>
      <trkpt lat="45.651731" lon="8.854780">
        <time>2026-09-28T08:01:10Z</time>
      </trkpt>
      <trkpt lat="45.651755" lon="8.854919">
        <time>2026-09-28T08:01:12Z</time>
      </trkpt>
      <trkpt lat="45.651778" lon="8.855057">
        <time>2026-09-28T08:01:14Z</time>
      </trkpt>
      <trkpt lat="45.651802" lon="8.855195">
        <time>2026-09-28T08:01:16Z</time>
      </trkpt>
      <trkpt lat="45.651825" lon="8.855334">
        <time>2026-09-28T08:01:18Z</time>
      </trkpt>
      <trkpt lat="45.651848" lon="8.855472">
        <time>2026-09-28T08:01:20Z</time>
      </trkpt>
      <trkpt lat="45.651872" lon="8.855611">
        <time>2026-09-28T08:01:22Z</time>
      </trkpt>
      <trkpt lat="45.651895" lon="8.855749">
        <time>2026-09-28T08:01:24Z</time>
      </trkpt>
      <trkpt lat="45.651918" lon="8.855888">
        <time>2026-09-28T08:01:26Z</time>
      </trkpt>
      <trkpt lat="45.651942" lon="8.856026">
        <time>2026-09-28T08:01:28Z</time>
      </trkpt>
      <trkpt lat="45.651965" lon="8.856164">
        <time>2026-09-28T08:01:30Z</time>
      </trkpt>
      <trkpt lat="45.651988" lon="8.856303">
        <time>2026-09-28T08:01:32Z</time>
      </trkpt>
      <trkpt lat="45.652012" lon="8.856441">
        <time>2026-09-28T08:01:34Z</time>
      </trkpt>
      <trkpt lat="45.652035" lon="8.856580">
        <time>2026-09-28T08:01:36Z</time>
      </trkpt>
      <trkpt lat="45.652058" lon="8.856718">
        <time>2026-09-28T08:01:38Z</time>
      </trkpt>
      <trkpt lat="45.652082" lon="8.856857">
        <time>2026-09-28T08:01:40Z</time>
      </trkpt>
      <trkpt lat="45.652105" lon="8.856995">
        <time>2026-09-28T08:01:42Z</time>
      </trkpt>
      <trkpt lat="45.652128" lon="8.857133">
        <time>2026-09-28T08:01:44Z</time>
      </trkpt>
      <trkpt lat="45.652154" lon="8.857271">
        <time>2026-09-28T08:01:46Z</time>
      </trkpt>
      <trkpt lat="45.652182" lon="8.857408">
        <time>2026-09-28T08:01:48Z</time>
      </trkpt>
      <trkpt lat="45.652209" lon="8.857545">
        <time>2026-09-28T08:01:50Z</time>
      </trkpt>
      <trkpt lat="45.652237" lon="8.857682">
        <time>2026-09-28T08:01:52Z</time>
      </trkpt>
      <trkpt lat="45.652265" lon="8.857818">
        <time>2026-09-28T08:01:54Z</time>
      </trkpt>
      <trkpt lat="45.652292" lon="8.857955">
        <time>2026-09-28T08:01:56Z</time>
      </trkpt>
      <trkpt lat="45.652320" lon="8.858092">
        <time>2026-09-28T08:01:58Z</time>
      </trkpt>
      <trkpt lat="45.652347" lon="8.858229">
        <time>2026-09-28T08:02:00Z</time>
      </trkpt>
      <trkpt lat="45.652375" lon="8.858366">
        <time>2026-09-28T08:02:02Z</time>
      </trkpt>
      <trkpt lat="45.652403" lon="8.858502">
        <time>2026-09-28T08:02:04Z</time>
      </trkpt>
      <trkpt lat="45.652430" lon="8.858639">
        <time>2026-09-28T08:02:06Z</time>
      </trkpt>
      <trkpt lat="45.652457" lon="8.858776">
        <time>2026-09-28T08:02:08Z</time>
      </trkpt>
      <trkpt lat="45.652484" lon="8.858914">
        <time>2026-09-28T08:02:10Z</time>
      </trkpt>
      <trkpt lat="45.652509" lon="8.859051">
        <time>2026-09-28T08:02:12Z</time>
      </trkpt>
      <trkpt lat="45.652533" lon="8.859190">
        <time>2026-09-28T08:02:14Z</time>
      </trkpt>
      <trkpt lat="45.652558" lon="8.859328">
        <time>2026-09-28T08:02:16Z</time>
      </trkpt>
      <trkpt lat="45.652582" lon="8.859466">
        <time>2026-09-28T08:02:18Z</time>
      </trkpt>
      <trkpt lat="45.652607" lon="8.859604">
        <time>2026-09-28T08:02:20Z</time>
      </trkpt>
      <trkpt lat="45.652631" lon="8.859742">
        <time>2026-09-28T08:02:22Z</time>
      </trkpt>
      <trkpt lat="45.652656" lon="8.859880">
        <time>2026-09-28T08:02:24Z</time>
      </trkpt>
      <trkpt lat="45.652680" lon="8.860018">
        <time>2026-09-28T08:02:26Z</time>
      </trkpt>
      <trkpt lat="45.652705" lon="8.860156">
        <time>2026-09-28T08:02:28Z</time>
      </trkpt>
      <trkpt lat="45.652729" lon="8.860294">
        <time>2026-09-28T08:02:30Z</time>
      </trkpt>
      <trkpt lat="45.652754" lon="8.860432">
        <time>2026-09-28T08:02:32Z</time>
      </trkpt>
      <trkpt lat="45.652778" lon="8.860570">
        <time>2026-09-28T08:02:34Z</time>
      </trkpt>
      <trkpt lat="45.652803" lon="8.860708">
        <time>2026-09-28T08:02:36Z</time>
      </trkpt>
      <trkpt lat="45.652827" lon="8.860846">
        <time>2026-09-28T08:02:38Z</time>
      </trkpt>
      <trkpt lat="45.652852" lon="8.860984">
        <time>2026-09-28T08:02:40Z</time>
      </trkpt>
      <trkpt lat="45.652876" lon="8.861122">
        <time>2026-09-28T08:02:42Z</time>
      </trkpt>
      <trkpt lat="45.652901" lon="8.861260">
        <time>2026-09-28T08:02:44Z</time>
      </trkpt>
      <trkpt lat="45.652925" lon="8.861398">
        <time>2026-09-28T08:02:46Z</time>
      </trkpt>
      <trkpt lat="45.652950" lon="8.861536">
        <time>2026-09-28T08:02:48Z</time>
      </trkpt>
      <trkpt lat="45.652974" lon="8.861674">
        <time>2026-09-28T08:02:50Z</time>
      </trkpt>
      <trkpt lat="45.652999" lon="8.861812">
        <time>2026-09-28T08:02:52Z</time>
      </trkpt>
      <trkpt lat="45.653023" lon="8.861950">
        <time>2026-09-28T08:02:54Z</time>
      </trkpt>
      <trkpt lat="45.653048" lon="8.862088">
        <time>2026-09-28T08:02:56Z</time>
      </trkpt>
      <trkpt lat="45.653073" lon="8.862226">
        <time>2026-09-28T08:02:58Z</time>
      </trkpt>
      <trkpt lat="45.653098" lon="8.862364">
        <time>2026-09-28T08:03:00Z</time>
      </trkpt>
      <trkpt lat="45.653124" lon="8.862501">
        <time>2026-09-28T08:03:02Z</time>
      </trkpt>
      <trkpt lat="45.653150" lon="8.862639">
        <time>2026-09-28T08:03:04Z</time>
      </trkpt>
      <trkpt lat="45.653176" lon="8.862776">
        <time>2026-09-28T08:03:06Z</time>
      </trkpt>
      <trkpt lat="45.653203" lon="8.862913">
        <time>2026-09-28T08:03:08Z</time>
      </trkpt>
      <trkpt lat="45.653229" lon="8.863051">
        <time>2026-09-28T08:03:10Z</time>
      </trkpt>
      <trkpt lat="45.653255" lon="8.863188">
        <time>2026-09-28T08:03:12Z</time>
      </trkpt>
      <trkpt lat="45.653282" lon="8.863325">
        <time>2026-09-28T08:03:14Z</time>
      </trkpt>
      <trkpt lat="45.653308" lon="8.863463">
        <time>2026-09-28T08:03:16Z</time>
      </trkpt>
      <trkpt lat="45.653334" lon="8.863600">
        <time>2026-09-28T08:03:18Z</time>
      </trkpt>
      <trkpt lat="45.653360" lon="8.863738">
        <time>2026-09-28T08:03:20Z</time>
      </trkpt>
      <trkpt lat="45.653387" lon="8.863875">
        <time>2026-09-28T08:03:22Z</time>
      </trkpt>
      <trkpt lat="45.653411" lon="8.864013">
        <time>2026-09-28T08:03:24Z</time>
      </trkpt>
      <trkpt lat="45.653435" lon="8.864151">
        <time>2026-09-28T08:03:26Z</time>
      </trkpt>
      <trkpt lat="45.653457" lon="8.864290">
        <time>2026-09-28T08:03:28Z</time>
      </trkpt>
      <trkpt lat="45.653480" lon="8.864429">
        <time>2026-09-28T08:03:30Z</time>
      </trkpt>
      <trkpt lat="45.653502" lon="8.864567">
        <time>2026-09-28T08:03:32Z</time>
      </trkpt>
      <trkpt lat="45.653525" lon="8.864706">
        <time>2026-09-28T08:03:34Z</time>
      </trkpt>
      <trkpt lat="45.653547" lon="8.864845">
        <time>2026-09-28T08:03:36Z</time>
      </trkpt>
      <trkpt lat="45.653571" lon="8.864983">
        <time>2026-09-28T08:03:38Z</time>
      </trkpt>
      <trkpt lat="45.653598" lon="8.865120">
        <time>2026-09-28T08:03:40Z</time>
      </trkpt>
      <trkpt lat="45.653628" lon="8.865256">
        <time>2026-09-28T08:03:42Z</time>
      </trkpt>
      <trkpt lat="45.653661" lon="8.865390">
        <time>2026-09-28T08:03:44Z</time>
      </trkpt>
      <trkpt lat="45.653694" lon="8.865525">
        <time>2026-09-28T08:03:46Z</time>
      </trkpt>
      <trkpt lat="45.653727" lon="8.865659">
        <time>2026-09-28T08:03:48Z</time>
      </trkpt>
      <trkpt lat="45.653759" lon="8.865794">
        <time>2026-09-28T08:03:50Z</time>
      </trkpt>
      <trkpt lat="45.653792" lon="8.865928">
        <time>2026-09-28T08:03:52Z</time>
      </trkpt>
      <trkpt lat="45.653826" lon="8.866063">
        <time>2026-09-28T08:03:54Z</time>
      </trkpt>
      <trkpt lat="45.653861" lon="8.866196">
        <time>2026-09-28T08:03:56Z</time>
      </trkpt>
      <trkpt lat="45.653899" lon="8.866328">
        <time>2026-09-28T08:03:58Z</time>
      </trkpt>
      <trkpt lat="45.653936" lon="8.866460">
        <time>2026-09-28T08:04:00Z</time>
      </trkpt>
      <trkpt lat="45.653973" lon="8.866592">
        <time>2026-09-28T08:04:02Z</time>
      </trkpt>
      <trkpt lat="45.654011" lon="8.866724">
        <time>2026-09-28T08:04:04Z</time>
      </trkpt>
      <trkpt lat="45.654048" lon="8.866856">
        <time>2026-09-28T08:04:06Z</time>
      </trkpt>
      <trkpt lat="45.654085" lon="8.866988">
        <time>2026-09-28T08:04:08Z</time>
      </trkpt>
      <trkpt lat="45.654123" lon="8.867121">
        <time>2026-09-28T08:04:10Z</time>
      </trkpt>
      <trkpt lat="45.654160" lon="8.867253">
        <time>2026-09-28T08:04:12Z</time>
      </trkpt>
      <trkpt lat="45.654198" lon="8.867385">
        <time>2026-09-28T08:04:14Z</time>
      </trkpt>
      <trkpt lat="45.654235" lon="8.867517">
        <time>2026-09-28T08:04:16Z</time>
      </trkpt>
      <trkpt lat="45.654272" lon="8.867649">
        <time>2026-09-28T08:04:18Z</time>
      </trkpt>
      <trkpt lat="45.654310" lon="8.867781">
        <time>2026-09-28T08:04:20Z</time>
      </trkpt>
      <trkpt lat="45.654347" lon="8.867913">
        <time>2026-09-28T08:04:22Z</time>
      </trkpt>
      <trkpt lat="45.654384" lon="8.868045">
        <time>2026-09-28T08:04:24Z</time>
      </trkpt>
      <trkpt lat="45.654427" lon="8.868175">
        <time>2026-09-28T08:04:26Z</time>
      </trkpt>
      <trkpt lat="45.654469" lon="8.868303">
        <time>2026-09-28T08:04:28Z</time>
      </trkpt>
      <trkpt lat="45.654512" lon="8.868432">
        <time>2026-09-28T08:04:30Z</time>
      </trkpt>
      <trkpt lat="45.654556" lon="8.868561">
        <time>2026-09-28T08:04:32Z</time>
      </trkpt>
      <trkpt lat="45.654599" lon="8.868689">
        <time>2026-09-28T08:04:34Z</time>
      </trkpt>
      <trkpt lat="45.654642" lon="8.868818">
        <time>2026-09-28T08:04:36Z</time>
      </trkpt>
      <trkpt lat="45.654685" lon="8.868946">
        <time>2026-09-28T08:04:38Z</time>
      </trkpt>
      <trkpt lat="45.654728" lon="8.869075">
        <time>2026-09-28T08:04:40Z</time>
      </trkpt>
      <trkpt lat="45.654771" lon="8.869203">
        <time>2026-09-28T08:04:42Z</time>
      </trkpt>
      <trkpt lat="45.654814" lon="8.869332">
        <time>2026-09-28T08:04:44Z</time>
      </trkpt>
      <trkpt lat="45.654857" lon="8.869460">
        <time>2026-09-28T08:04:46Z</time>
      </trkpt>
      <trkpt lat="45.654901" lon="8.869589">
        <time>2026-09-28T08:04:48Z</time>
      </trkpt>
      <trkpt lat="45.654944" lon="8.869718">
        <time>2026-09-28T08:04:50Z</time>
      </trkpt>
      <trkpt lat="45.654987" lon="8.869846">
        <time>2026-09-28T08:04:52Z</time>
      </trkpt>
      <trkpt lat="45.655030" lon="8.869975">
        <time>2026-09-28T08:04:54Z</time>
      </trkpt>
      <trkpt lat="45.655073" lon="8.870103">
        <time>2026-09-28T08:04:56Z</time>
      </trkpt>
      <trkpt lat="45.655116" lon="8.870232">
        <time>2026-09-28T08:04:58Z</time>
      </trkpt>
      <trkpt lat="45.655159" lon="8.870360">
        <time>2026-09-28T08:05:00Z</time>
      </trkpt>
      <trkpt lat="45.655205" lon="8.870487">
        <time>2026-09-28T08:05:02Z</time>
      </trkpt>
      <trkpt lat="45.655252" lon="8.870613">
        <time>2026-09-28T08:05:04Z</time>
      </trkpt>
      <trkpt lat="45.655300" lon="8.870738">
        <time>2026-09-28T08:05:06Z</time>
      </trkpt>
      <trkpt lat="45.655348" lon="8.870863">
        <time>2026-09-28T08:05:08Z</time>
      </trkpt>
      <trkpt lat="45.655397" lon="8.870987">
        <time>2026-09-28T08:05:10Z</time>
      </trkpt>
      <trkpt lat="45.655445" lon="8.871112">
        <time>2026-09-28T08:05:12Z</time>
      </trkpt>
      <trkpt lat="45.655493" lon="8.871237">
        <time>2026-09-28T08:05:14Z</time>
      </trkpt>
      <trkpt lat="45.655542" lon="8.871362">
        <time>2026-09-28T08:05:16Z</time>
      </trkpt>
      <trkpt lat="45.655590" lon="8.871486">
        <time>2026-09-28T08:05:18Z</time>
      </trkpt>
      <trkpt lat="45.655642" lon="8.871608">
        <time>2026-09-28T08:05:20Z</time>
      </trkpt>
      <trkpt lat="45.655694" lon="8.871730">
        <time>2026-09-28T08:05:22Z</time>
      </trkpt>
      <trkpt lat="45.655746" lon="8.871852">
        <time>2026-09-28T08:05:24Z</time>
      </trkpt>
      <trkpt lat="45.655797" lon="8.871974">
        <time>2026-09-28T08:05:26Z</time>
      </trkpt>
      <trkpt lat="45.655849" lon="8.872096">
        <time>2026-09-28T08:05:28Z</time>
      </trkpt>
      <trkpt lat="45.655901" lon="8.872218">
        <time>2026-09-28T08:05:30Z</time>
      </trkpt>
      <trkpt lat="45.655953" lon="8.872340">
        <time>2026-09-28T08:05:32Z</time>
      </trkpt>
      <trkpt lat="45.656005" lon="8.872461">
        <time>2026-09-28T08:05:34Z</time>
      </trkpt>
      <trkpt lat="45.656058" lon="8.872582">
        <time>2026-09-28T08:05:36Z</time>
      </trkpt>
      <trkpt lat="45.656113" lon="8.872702">
        <time>2026-09-28T08:05:38Z</time>
      </trkpt>
      <trkpt lat="45.656168" lon="8.872821">
        <time>2026-09-28T08:05:40Z</time>
      </trkpt>
      <trkpt lat="45.656223" lon="8.872940">
        <time>2026-09-28T08:05:42Z</time>
      </trkpt>
      <trkpt lat="45.656278" lon="8.873059">
        <time>2026-09-28T08:05:44Z</time>
      </trkpt>
      <trkpt lat="45.656333" lon="8.873178">
        <time>2026-09-28T08:05:46Z</time>
      </trkpt>
      <trkpt lat="45.656388" lon="8.873298">
        <time>2026-09-28T08:05:48Z</time>
      </trkpt>
      <trkpt lat="45.656443" lon="8.873417">
        <time>2026-09-28T08:05:50Z</time>
      </trkpt>
      <trkpt lat="45.656498" lon="8.873536">
        <time>2026-09-28T08:05:52Z</time>
      </trkpt>
      <trkpt lat="45.656553" lon="8.873655">
        <time>2026-09-28T08:05:54Z</time>
      </trkpt>
      <trkpt lat="45.656608" lon="8.873774">
        <time>2026-09-28T08:05:56Z</time>
      </trkpt>
      <trkpt lat="45.656663" lon="8.873893">
        <time>2026-09-28T08:05:58Z</time>
      </trkpt>
      <trkpt lat="45.656718" lon="8.874012">
        <time>2026-09-28T08:06:00Z</time>
      </trkpt>
      <trkpt lat="45.656773" lon="8.874131">
        <time>2026-09-28T08:06:02Z</time>
      </trkpt>
      <trkpt lat="45.656828" lon="8.874251">
        <time>2026-09-28T08:06:04Z</time>
      </trkpt>
      <trkpt lat="45.656882" lon="8.874371">
        <time>2026-09-28T08:06:06Z</time>
      </trkpt>
      <trkpt lat="45.656934" lon="8.874493">
        <time>2026-09-28T08:06:08Z</time>
      </trkpt>
      <trkpt lat="45.656982" lon="8.874618">
        <time>2026-09-28T08:06:10Z</time>
      </trkpt>
      <trkpt lat="45.657026" lon="8.874745">
        <time>2026-09-28T08:06:12Z</time>
      </trkpt>
      <trkpt lat="45.657071" lon="8.874872">
        <time>2026-09-28T08:06:14Z</time>
      </trkpt>
      <trkpt lat="45.657116" lon="8.875000">
        <time>2026-09-28T08:06:16Z</time>
      </trkpt>
      <trkpt lat="45.657158" lon="8.875129">
        <time>2026-09-28T08:06:18Z</time>
      </trkpt>
      <trkpt lat="45.657199" lon="8.875259">
        <time>2026-09-28T08:06:20Z</time>
      </trkpt>
      <trkpt lat="45.657238" lon="8.875390">
        <time>2026-09-28T08:06:22Z</time>
      </trkpt>
      <trkpt lat="45.657277" lon="8.875521">
        <time>2026-09-28T08:06:24Z</time>
      </trkpt>
      <trkpt lat="45.657316" lon="8.875653">
        <time>2026-09-28T08:06:26Z</time>
      </trkpt>
      <trkpt lat="45.657355" lon="8.875784">
        <time>2026-09-28T08:06:28Z</time>
      </trkpt>
      <trkpt lat="45.657394" lon="8.875915">
        <time>2026-09-28T08:06:30Z</time>
      </trkpt>
      <trkpt lat="45.657429" lon="8.876048">
        <time>2026-09-28T08:06:32Z</time>
      </trkpt>
      <trkpt lat="45.657463" lon="8.876182">
        <time>2026-09-28T08:06:34Z</time>
      </trkpt>
      <trkpt lat="45.657496" lon="8.876317">
        <time>2026-09-28T08:06:36Z</time>
      </trkpt>
      <trkpt lat="45.657529" lon="8.876451">
        <time>2026-09-28T08:06:38Z</time>
      </trkpt>
      <trkpt lat="45.657562" lon="8.876585">
        <time>2026-09-28T08:06:40Z</time>
      </trkpt>
      <trkpt lat="45.657595" lon="8.876720">
        <time>2026-09-28T08:06:42Z</time>
      </trkpt>
      <trkpt lat="45.657628" lon="8.876854">
        <time>2026-09-28T08:06:44Z</time>
      </trkpt>
      <trkpt lat="45.657661" lon="8.876989">
        <time>2026-09-28T08:06:46Z</time>
      </trkpt>
      <trkpt lat="45.657695" lon="8.877123">
        <time>2026-09-28T08:06:48Z</time>
      </trkpt>
      <trkpt lat="45.657728" lon="8.877257">
        <time>2026-09-28T08:06:50Z</time>
      </trkpt>
      <trkpt lat="45.657761" lon="8.877391">
        <time>2026-09-28T08:06:52Z</time>
      </trkpt>
      <trkpt lat="45.657794" lon="8.877526">
        <time>2026-09-28T08:06:54Z</time>
      </trkpt>
      <trkpt lat="45.657827" lon="8.877660">
        <time>2026-09-28T08:06:56Z</time>
      </trkpt>
      <trkpt lat="45.657857" lon="8.877796">
        <time>2026-09-28T08:06:58Z</time>
      </trkpt>
      <trkpt lat="45.657885" lon="8.877933">
        <time>2026-09-28T08:07:00Z</time>
      </trkpt>
      <trkpt lat="45.657911" lon="8.878070">
        <time>2026-09-28T08:07:02Z</time>
      </trkpt>
      <trkpt lat="45.657937" lon="8.878208">
        <time>2026-09-28T08:07:04Z</time>
      </trkpt>
      <trkpt lat="45.657963" lon="8.878345">
        <time>2026-09-28T08:07:06Z</time>
      </trkpt>
      <trkpt lat="45.657989" lon="8.878483">
        <time>2026-09-28T08:07:08Z</time>
      </trkpt>
      <trkpt lat="45.658016" lon="8.878620">
        <time>2026-09-28T08:07:10Z</time>
      </trkpt>
      <trkpt lat="45.658039" lon="8.878758">
        <time>2026-09-28T08:07:12Z</time>
      </trkpt>
      <trkpt lat="45.658062" lon="8.878897">
        <time>2026-09-28T08:07:14Z</time>
      </trkpt>
      <trkpt lat="45.658083" lon="8.879036">
        <time>2026-09-28T08:07:16Z</time>
      </trkpt>
      <trkpt lat="45.658105" lon="8.879175">
        <time>2026-09-28T08:07:18Z</time>
      </trkpt>
      <trkpt lat="45.658126" lon="8.879314">
        <time>2026-09-28T08:07:20Z</time>
      </trkpt>
      <trkpt lat="45.658147" lon="8.879453">
        <time>2026-09-28T08:07:22Z</time>
      </trkpt>
      <trkpt lat="45.658167" lon="8.879593">
        <time>2026-09-28T08:07:24Z</time>
      </trkpt>
      <trkpt lat="45.658186" lon="8.879733">
        <time>2026-09-28T08:07:26Z</time>
      </trkpt>
      <trkpt lat="45.658204" lon="8.879873">
        <time>2026-09-28T08:07:28Z</time>
      </trkpt>
      <trkpt lat="45.658222" lon="8.880013">
        <time>2026-09-28T08:07:30Z</time>
      </trkpt>
      <trkpt lat="45.658240" lon="8.880153">
        <time>2026-09-28T08:07:32Z</time>
      </trkpt>
      <trkpt lat="45.658257" lon="8.880293">
        <time>2026-09-28T08:07:34Z</time>
      </trkpt>
      <trkpt lat="45.658274" lon="8.880433">
        <time>2026-09-28T08:07:36Z</time>
      </trkpt>
      <trkpt lat="45.658285" lon="8.880575">
        <time>2026-09-28T08:07:38Z</time>
      </trkpt>
      <trkpt lat="45.658295" lon="8.880716">
        <time>2026-09-28T08:07:40Z</time>
      </trkpt>
      <trkpt lat="45.658302" lon="8.880858">
        <time>2026-09-28T08:07:42Z</time>
      </trkpt>
      <trkpt lat="45.658310" lon="8.881000">
        <time>2026-09-28T08:07:44Z</time>
      </trkpt>
      <trkpt lat="45.658317" lon="8.881142">
        <time>2026-09-28T08:07:46Z</time>
      </trkpt>
      <trkpt lat="45.658325" lon="8.881284">
        <time>2026-09-28T08:07:48Z</time>
      </trkpt>
      <trkpt lat="45.658332" lon="8.881426">
        <time>2026-09-28T08:07:50Z</time>
      </trkpt>
      <trkpt lat="45.658328" lon="8.881568">
        <time>2026-09-28T08:07:52Z</time>
      </trkpt>
      <trkpt lat="45.658322" lon="8.881710">
        <time>2026-09-28T08:07:54Z</time>
      </trkpt>
      <trkpt lat="45.658314" lon="8.881852">
        <time>2026-09-28T08:07:56Z</time>
      </trkpt>
      <trkpt lat="45.658306" lon="8.881994">
        <time>2026-09-28T08:07:58Z</time>
      </trkpt>
      <trkpt lat="45.658298" lon="8.882136">
        <time>2026-09-28T08:08:00Z</time>
      </trkpt>
      <trkpt lat="45.658290" lon="8.882278">
        <time>2026-09-28T08:08:02Z</time>
      </trkpt>
      <trkpt lat="45.658282" lon="8.882419">
        <time>2026-09-28T08:08:04Z</time>
      </trkpt>
      <trkpt lat="45.658275" lon="8.882561">
        <time>2026-09-28T08:08:06Z</time>
      </trkpt>
      <trkpt lat="45.658267" lon="8.882703">
        <time>2026-09-28T08:08:08Z</time>
      </trkpt>
      <trkpt lat="45.658259" lon="8.882845">
        <time>2026-09-28T08:08:10Z</time>
      </trkpt>
      <trkpt lat="45.658251" lon="8.882987">
        <time>2026-09-28T08:08:12Z</time>
      </trkpt>
      <trkpt lat="45.658241" lon="8.883129">
        <time>2026-09-28T08:08:14Z</time>
      </trkpt>
      <trkpt lat="45.658232" lon="8.883270">
        <time>2026-09-28T08:08:16Z</time>
      </trkpt>
      <trkpt lat="45.658223" lon="8.883412">
        <time>2026-09-28T08:08:18Z</time>
      </trkpt>
      <trkpt lat="45.658213" lon="8.883554">
        <time>2026-09-28T08:08:20Z</time>
      </trkpt>
      <trkpt lat="45.658203" lon="8.883695">
        <time>2026-09-28T08:08:22Z</time>
      </trkpt>
      <trkpt lat="45.658194" lon="8.883837">
        <time>2026-09-28T08:08:24Z</time>
      </trkpt>
      <trkpt lat="45.658184" lon="8.883979">
        <time>2026-09-28T08:08:26Z</time>
      </trkpt>
      <trkpt lat="45.658174" lon="8.884120">
        <time>2026-09-28T08:08:28Z</time>
      </trkpt>
      <trkpt lat="45.658163" lon="8.884262">
        <time>2026-09-28T08:08:30Z</time>
      </trkpt>
      <trkpt lat="45.658151" lon="8.884403">
        <time>2026-09-28T08:08:32Z</time>
      </trkpt>
      <trkpt lat="45.658139" lon="8.884544">
        <time>2026-09-28T08:08:34Z</time>
      </trkpt>
      <trkpt lat="45.658126" lon="8.884685">
        <time>2026-09-28T08:08:36Z</time>
      </trkpt>
      <trkpt lat="45.658114" lon="8.884827">
        <time>2026-09-28T08:08:38Z</time>
      </trkpt>
      <trkpt lat="45.658102" lon="8.884968">
        <time>2026-09-28T08:08:40Z</time>
      </trkpt>
      <trkpt lat="45.658088" lon="8.885109">
        <time>2026-09-28T08:08:42Z</time>
      </trkpt>
      <trkpt lat="45.658074" lon="8.885250">
        <time>2026-09-28T08:08:44Z</time>
      </trkpt>
      <trkpt lat="45.658057" lon="8.885390">
        <time>2026-09-28T08:08:46Z</time>
      </trkpt>
      <trkpt lat="45.658041" lon="8.885531">
        <time>2026-09-28T08:08:48Z</time>
      </trkpt>
      <trkpt lat="45.658024" lon="8.885671">
        <time>2026-09-28T08:08:50Z</time>
      </trkpt>
      <trkpt lat="45.658007" lon="8.885811">
        <time>2026-09-28T08:08:52Z</time>
      </trkpt>
      <trkpt lat="45.657991" lon="8.885952">
        <time>2026-09-28T08:08:54Z</time>
      </trkpt>
      <trkpt lat="45.657977" lon="8.886093">
        <time>2026-09-28T08:08:56Z</time>
      </trkpt>
      <trkpt lat="45.657966" lon="8.886234">
        <time>2026-09-28T08:08:58Z</time>
      </trkpt>
      <trkpt lat="45.657954" lon="8.886375">
        <time>2026-09-28T08:09:00Z</time>
      </trkpt>
      <trkpt lat="45.657943" lon="8.886517">
        <time>2026-09-28T08:09:02Z</time>
      </trkpt>
      <trkpt lat="45.657932" lon="8.886658">
        <time>2026-09-28T08:09:04Z</time>
      </trkpt>
      <trkpt lat="45.657921" lon="8.886800">
        <time>2026-09-28T08:09:06Z</time>
      </trkpt>
      <trkpt lat="45.657904" lon="8.886940">
        <time>2026-09-28T08:09:08Z</time>
      </trkpt>
      <trkpt lat="45.657885" lon="8.887080">
        <time>2026-09-28T08:09:10Z</time>
      </trkpt>
      <trkpt lat="45.657860" lon="8.887218">
        <time>2026-09-28T08:09:12Z</time>
      </trkpt>
      <trkpt lat="45.657835" lon="8.887355">
        <time>2026-09-28T08:09:14Z</time>
      </trkpt>
      <trkpt lat="45.657809" lon="8.887493">
        <time>2026-09-28T08:09:16Z</time>
      </trkpt>
      <trkpt lat="45.657784" lon="8.887631">
        <time>2026-09-28T08:09:18Z</time>
      </trkpt>
      <trkpt lat="45.657758" lon="8.887768">
        <time>2026-09-28T08:09:20Z</time>
      </trkpt>
      <trkpt lat="45.657730" lon="8.887905">
        <time>2026-09-28T08:09:22Z</time>
      </trkpt>
      <trkpt lat="45.657702" lon="8.888042">
        <time>2026-09-28T08:09:24Z</time>
      </trkpt>
      <trkpt lat="45.657674" lon="8.888178">
        <time>2026-09-28T08:09:26Z</time>
      </trkpt>
      <trkpt lat="45.657646" lon="8.888315">
        <time>2026-09-28T08:09:28Z</time>
      </trkpt>
      <trkpt lat="45.657618" lon="8.888452">
        <time>2026-09-28T08:09:30Z</time>
      </trkpt>
      <trkpt lat="45.657590" lon="8.888588">
        <time>2026-09-28T08:09:32Z</time>
      </trkpt>
      <trkpt lat="45.657562" lon="8.888725">
        <time>2026-09-28T08:09:34Z</time>
      </trkpt>
      <trkpt lat="45.657534" lon="8.888862">
        <time>2026-09-28T08:09:36Z</time>
      </trkpt>
      <trkpt lat="45.657506" lon="8.888998">
        <time>2026-09-28T08:09:38Z</time>
      </trkpt>
      <trkpt lat="45.657478" lon="8.889135">
        <time>2026-09-28T08:09:40Z</time>
      </trkpt>
      <trkpt lat="45.657450" lon="8.889272">
        <time>2026-09-28T08:09:42Z</time>
      </trkpt>
      <trkpt lat="45.657422" lon="8.889408">
        <time>2026-09-28T08:09:44Z</time>
      </trkpt>
      <trkpt lat="45.657394" lon="8.889545">
        <time>2026-09-28T08:09:46Z</time>
      </trkpt>
      <trkpt lat="45.657366" lon="8.889682">
        <time>2026-09-28T08:09:48Z</time>
      </trkpt>
      <trkpt lat="45.657338" lon="8.889818">
        <time>2026-09-28T08:09:50Z</time>
      </trkpt>
      <trkpt lat="45.657310" lon="8.889955">
        <time>2026-09-28T08:09:52Z</time>
      </trkpt>
      <trkpt lat="45.657280" lon="8.890091">
        <time>2026-09-28T08:09:54Z</time>
      </trkpt>
      <trkpt lat="45.657247" lon="8.890225">
        <time>2026-09-28T08:09:56Z</time>
      </trkpt>
      <trkpt lat="45.657211" lon="8.890358">
        <time>2026-09-28T08:09:58Z</time>
      </trkpt>
      <trkpt lat="45.657174" lon="8.890491">
        <time>2026-09-28T08:10:00Z</time>
      </trkpt>
      <trkpt lat="45.657138" lon="8.890623">
        <time>2026-09-28T08:10:02Z</time>
      </trkpt>
      <trkpt lat="45.657101" lon="8.890756">
        <time>2026-09-28T08:10:04Z</time>
      </trkpt>
      <trkpt lat="45.657064" lon="8.890888">
        <time>2026-09-28T08:10:06Z</time>
      </trkpt>
      <trkpt lat="45.657029" lon="8.891022">
        <time>2026-09-28T08:10:08Z</time>
      </trkpt>
      <trkpt lat="45.657000" lon="8.891158">
        <time>2026-09-28T08:10:10Z</time>
      </trkpt>
      <trkpt lat="45.656973" lon="8.891295">
        <time>2026-09-28T08:10:12Z</time>
      </trkpt>
      <trkpt lat="45.656949" lon="8.891433">
        <time>2026-09-28T08:10:14Z</time>
      </trkpt>
      <trkpt lat="45.656925" lon="8.891571">
        <time>2026-09-28T08:10:16Z</time>
      </trkpt>
      <trkpt lat="45.656901" lon="8.891709">
        <time>2026-09-28T08:10:18Z</time>
      </trkpt>
      <trkpt lat="45.656877" lon="8.891848">
        <time>2026-09-28T08:10:20Z</time>
      </trkpt>
      <trkpt lat="45.656853" lon="8.891986">
        <time>2026-09-28T08:10:22Z</time>
      </trkpt>
      <trkpt lat="45.656829" lon="8.892124">
        <time>2026-09-28T08:10:24Z</time>
      </trkpt>
      <trkpt lat="45.656805" lon="8.892262">
        <time>2026-09-28T08:10:26Z</time>
      </trkpt>
      <trkpt lat="45.656780" lon="8.892400">
        <time>2026-09-28T08:10:28Z</time>
      </trkpt>
      <trkpt lat="45.656756" lon="8.892538">
        <time>2026-09-28T08:10:30Z</time>
      </trkpt>
      <trkpt lat="45.656732" lon="8.892677">
        <time>2026-09-28T08:10:32Z</time>
      </trkpt>
      <trkpt lat="45.656708" lon="8.892815">
        <time>2026-09-28T08:10:34Z</time>
      </trkpt>
      <trkpt lat="45.656684" lon="8.892953">
        <time>2026-09-28T08:10:36Z</time>
      </trkpt>
      <trkpt lat="45.656661" lon="8.893091">
        <time>2026-09-28T08:10:38Z</time>
      </trkpt>
      <trkpt lat="45.656639" lon="8.893230">
        <time>2026-09-28T08:10:40Z</time>
      </trkpt>
      <trkpt lat="45.656618" lon="8.893369">
        <time>2026-09-28T08:10:42Z</time>
      </trkpt>
      <trkpt lat="45.656597" lon="8.893509">
        <time>2026-09-28T08:10:44Z</time>
      </trkpt>
      <trkpt lat="45.656577" lon="8.893648">
        <time>2026-09-28T08:10:46Z</time>
      </trkpt>
      <trkpt lat="45.656556" lon="8.893787">
        <time>2026-09-28T08:10:48Z</time>
      </trkpt>
      <trkpt lat="45.656535" lon="8.893926">
        <time>2026-09-28T08:10:50Z</time>
      </trkpt>
      <trkpt lat="45.656514" lon="8.894066">
        <time>2026-09-28T08:10:52Z</time>
      </trkpt>
      <trkpt lat="45.656494" lon="8.894205">
        <time>2026-09-28T08:10:54Z</time>
      </trkpt>
      <trkpt lat="45.656473" lon="8.894344">
        <time>2026-09-28T08:10:56Z</time>
      </trkpt>
      <trkpt lat="45.656452" lon="8.894483">
        <time>2026-09-28T08:10:58Z</time>
      </trkpt>
      <trkpt lat="45.656431" lon="8.894623">
        <time>2026-09-28T08:11:00Z</time>
      </trkpt>
      <trkpt lat="45.656411" lon="8.894762">
        <time>2026-09-28T08:11:02Z</time>
      </trkpt>
      <trkpt lat="45.656397" lon="8.894903">
        <time>2026-09-28T08:11:04Z</time>
      </trkpt>
      <trkpt lat="45.656383" lon="8.895044">
        <time>2026-09-28T08:11:06Z</time>
      </trkpt>
      <trkpt lat="45.656373" lon="8.895186">
        <time>2026-09-28T08:11:08Z</time>
      </trkpt>
      <trkpt lat="45.656362" lon="8.895327">
        <time>2026-09-28T08:11:10Z</time>
      </trkpt>
      <trkpt lat="45.656352" lon="8.895469">
        <time>2026-09-28T08:11:12Z</time>
      </trkpt>
      <trkpt lat="45.656342" lon="8.895610">
        <time>2026-09-28T08:11:14Z</time>
      </trkpt>
      <trkpt lat="45.656331" lon="8.895752">
        <time>2026-09-28T08:11:16Z</time>
      </trkpt>
      <trkpt lat="45.656321" lon="8.895893">
        <time>2026-09-28T08:11:18Z</time>
      </trkpt>
      <trkpt lat="45.656310" lon="8.896035">
        <time>2026-09-28T08:11:20Z</time>
      </trkpt>
      <trkpt lat="45.656300" lon="8.896176">
        <time>2026-09-28T08:11:22Z</time>
      </trkpt>
      <trkpt lat="45.656289" lon="8.896318">
        <time>2026-09-28T08:11:24Z</time>
      </trkpt>
      <trkpt lat="45.656280" lon="8.896460">
        <time>2026-09-28T08:11:26Z</time>
      </trkpt>
      <trkpt lat="45.656272" lon="8.896601">
        <time>2026-09-28T08:11:28Z</time>
      </trkpt>
      <trkpt lat="45.656266" lon="8.896744">
        <time>2026-09-28T08:11:30Z</time>
      </trkpt>
      <trkpt lat="45.656261" lon="8.896886">
        <time>2026-09-28T08:11:32Z</time>
      </trkpt>
      <trkpt lat="45.656255" lon="8.897028">
        <time>2026-09-28T08:11:34Z</time>
      </trkpt>
      <trkpt lat="45.656250" lon="8.897170">
        <time>2026-09-28T08:11:36Z</time>
      </trkpt>
      <trkpt lat="45.656244" lon="8.897312">
        <time>2026-09-28T08:11:38Z</time>
      </trkpt>
      <trkpt lat="45.656238" lon="8.897454">
        <time>2026-09-28T08:11:40Z</time>
      </trkpt>
      <trkpt lat="45.656233" lon="8.897596">
        <time>2026-09-28T08:11:42Z</time>
      </trkpt>
      <trkpt lat="45.656227" lon="8.897738">
        <time>2026-09-28T08:11:44Z</time>
      </trkpt>
      <trkpt lat="45.656222" lon="8.897880">
        <time>2026-09-28T08:11:46Z</time>
      </trkpt>
      <trkpt lat="45.656216" lon="8.898022">
        <time>2026-09-28T08:11:48Z</time>
      </trkpt>
      <trkpt lat="45.656210" lon="8.898165">
        <time>2026-09-28T08:11:50Z</time>
      </trkpt>
      <trkpt lat="45.656205" lon="8.898307">
        <time>2026-09-28T08:11:52Z</time>
      </trkpt>
      <trkpt lat="45.656206" lon="8.898449">
        <time>2026-09-28T08:11:54Z</time>
      </trkpt>
      <trkpt lat="45.656209" lon="8.898591">
        <time>2026-09-28T08:11:56Z</time>
      </trkpt>
      <trkpt lat="45.656215" lon="8.898733">
        <time>2026-09-28T08:11:58Z</time>
      </trkpt>
      <trkpt lat="45.656220" lon="8.898875">
        <time>2026-09-28T08:12:00Z</time>
      </trkpt>
      <trkpt lat="45.656226" lon="8.899017">
        <time>2026-09-28T08:12:02Z</time>
      </trkpt>
      <trkpt lat="45.656232" lon="8.899159">
        <time>2026-09-28T08:12:04Z</time>
      </trkpt>
      <trkpt lat="45.656238" lon="8.899302">
        <time>2026-09-28T08:12:06Z</time>
      </trkpt>
      <trkpt lat="45.656244" lon="8.899444">
        <time>2026-09-28T08:12:08Z</time>
      </trkpt>
      <trkpt lat="45.656250" lon="8.899586">
        <time>2026-09-28T08:12:10Z</time>
      </trkpt>
      <trkpt lat="45.656256" lon="8.899728">
        <time>2026-09-28T08:12:12Z</time>
      </trkpt>
      <trkpt lat="45.656261" lon="8.899870">
        <time>2026-09-28T08:12:14Z</time>
      </trkpt>
      <trkpt lat="45.656267" lon="8.900012">
        <time>2026-09-28T08:12:16Z</time>
      </trkpt>
      <trkpt lat="45.656273" lon="8.900154">
        <time>2026-09-28T08:12:18Z</time>
      </trkpt>
      <trkpt lat="45.656279" lon="8.900296">
        <time>2026-09-28T08:12:20Z</time>
      </trkpt>
      <trkpt lat="45.656285" lon="8.900438">
        <time>2026-09-28T08:12:22Z</time>
      </trkpt>
      <trkpt lat="45.656291" lon="8.900580">
        <time>2026-09-28T08:12:24Z</time>
      </trkpt>
      <trkpt lat="45.656297" lon="8.900722">
        <time>2026-09-28T08:12:26Z</time>
      </trkpt>
      <trkpt lat="45.656302" lon="8.900864">
        <time>2026-09-28T08:12:28Z</time>
      </trkpt>
      <trkpt lat="45.656312" lon="8.901006">
        <time>2026-09-28T08:12:30Z</time>
      </trkpt>
      <trkpt lat="45.656322" lon="8.901148">
        <time>2026-09-28T08:12:32Z</time>
      </trkpt>
      <trkpt lat="45.656341" lon="8.901287">
        <time>2026-09-28T08:12:34Z</time>
      </trkpt>
      <trkpt lat="45.656360" lon="8.901427">
        <time>2026-09-28T08:12:36Z</time>
      </trkpt>
      <trkpt lat="45.656379" lon="8.901567">
        <time>2026-09-28T08:12:38Z</time>
      </trkpt>
      <trkpt lat="45.656398" lon="8.901706">
        <time>2026-09-28T08:12:40Z</time>
      </trkpt>
      <trkpt lat="45.656418" lon="8.901846">
        <time>2026-09-28T08:12:42Z</time>
      </trkpt>
      <trkpt lat="45.656437" lon="8.901986">
        <time>2026-09-28T08:12:44Z</time>
      </trkpt>
      <trkpt lat="45.656457" lon="8.902125">
        <time>2026-09-28T08:12:46Z</time>
      </trkpt>
      <trkpt lat="45.656477" lon="8.902265">
        <time>2026-09-28T08:12:48Z</time>
      </trkpt>
      <trkpt lat="45.656498" lon="8.902404">
        <time>2026-09-28T08:12:50Z</time>
      </trkpt>
      <trkpt lat="45.656519" lon="8.902543">
        <time>2026-09-28T08:12:52Z</time>
      </trkpt>
      <trkpt lat="45.656539" lon="8.902683">
        <time>2026-09-28T08:12:54Z</time>
      </trkpt>
      <trkpt lat="45.656560" lon="8.902822">
        <time>2026-09-28T08:12:56Z</time>
      </trkpt>
      <trkpt lat="45.656581" lon="8.902961">
        <time>2026-09-28T08:12:58Z</time>
      </trkpt>
      <trkpt lat="45.656601" lon="8.903100">
        <time>2026-09-28T08:13:00Z</time>
      </trkpt>
      <trkpt lat="45.656623" lon="8.903239">
        <time>2026-09-28T08:13:02Z</time>
      </trkpt>
      <trkpt lat="45.656645" lon="8.903378">
        <time>2026-09-28T08:13:04Z</time>
      </trkpt>
      <trkpt lat="45.656672" lon="8.903515">
        <time>2026-09-28T08:13:06Z</time>
      </trkpt>
      <trkpt lat="45.656700" lon="8.903652">
        <time>2026-09-28T08:13:08Z</time>
      </trkpt>
      <trkpt lat="45.656729" lon="8.903788">
        <time>2026-09-28T08:13:10Z</time>
      </trkpt>
      <trkpt lat="45.656757" lon="8.903925">
        <time>2026-09-28T08:13:12Z</time>
      </trkpt>
      <trkpt lat="45.656786" lon="8.904061">
        <time>2026-09-28T08:13:14Z</time>
      </trkpt>
      <trkpt lat="45.656815" lon="8.904198">
        <time>2026-09-28T08:13:16Z</time>
      </trkpt>
      <trkpt lat="45.656843" lon="8.904334">
        <time>2026-09-28T08:13:18Z</time>
      </trkpt>
      <trkpt lat="45.656872" lon="8.904470">
        <time>2026-09-28T08:13:20Z</time>
      </trkpt>
      <trkpt lat="45.656900" lon="8.904607">
        <time>2026-09-28T08:13:22Z</time>
      </trkpt>
      <trkpt lat="45.656929" lon="8.904743">
        <time>2026-09-28T08:13:24Z</time>
      </trkpt>
      <trkpt lat="45.656957" lon="8.904880">
        <time>2026-09-28T08:13:26Z</time>
      </trkpt>
      <trkpt lat="45.656986" lon="8.905016">
        <time>2026-09-28T08:13:28Z</time>
      </trkpt>
      <trkpt lat="45.657015" lon="8.905153">
        <time>2026-09-28T08:13:30Z</time>
      </trkpt>
      <trkpt lat="45.657043" lon="8.905289">
        <time>2026-09-28T08:13:32Z</time>
      </trkpt>
      <trkpt lat="45.657072" lon="8.905426">
        <time>2026-09-28T08:13:34Z</time>
      </trkpt>
      <trkpt lat="45.657100" lon="8.905562">
        <time>2026-09-28T08:13:36Z</time>
      </trkpt>
      <trkpt lat="45.657129" lon="8.905698">
        <time>2026-09-28T08:13:38Z</time>
      </trkpt>
      <trkpt lat="45.657158" lon="8.905835">
        <time>2026-09-28T08:13:40Z</time>
      </trkpt>
      <trkpt lat="45.657186" lon="8.905971">
        <time>2026-09-28T08:13:42Z</time>
      </trkpt>
      <trkpt lat="45.657215" lon="8.906108">
        <time>2026-09-28T08:13:44Z</time>
      </trkpt>
      <trkpt lat="45.657244" lon="8.906244">
        <time>2026-09-28T08:13:46Z</time>
      </trkpt>
      <trkpt lat="45.657274" lon="8.906380">
        <time>2026-09-28T08:13:48Z</time>
      </trkpt>
      <trkpt lat="45.657305" lon="8.906515">
        <time>2026-09-28T08:13:50Z</time>
      </trkpt>
      <trkpt lat="45.657336" lon="8.906650">
        <time>2026-09-28T08:13:52Z</time>
      </trkpt>
      <trkpt lat="45.657367" lon="8.906786">
        <time>2026-09-28T08:13:54Z</time>
      </trkpt>
      <trkpt lat="45.657399" lon="8.906921">
        <time>2026-09-28T08:13:56Z</time>
      </trkpt>
      <trkpt lat="45.657430" lon="8.907056">
        <time>2026-09-28T08:13:58Z</time>
      </trkpt>
      <trkpt lat="45.657461" lon="8.907192">
        <time>2026-09-28T08:14:00Z</time>
      </trkpt>
      <trkpt lat="45.657492" lon="8.907327">
        <time>2026-09-28T08:14:02Z</time>
      </trkpt>
      <trkpt lat="45.657523" lon="8.907462">
        <time>2026-09-28T08:14:04Z</time>
      </trkpt>
      <trkpt lat="45.657555" lon="8.907597">
        <time>2026-09-28T08:14:06Z</time>
      </trkpt>
      <trkpt lat="45.657586" lon="8.907733">
        <time>2026-09-28T08:14:08Z</time>
      </trkpt>
      <trkpt lat="45.657617" lon="8.907868">
        <time>2026-09-28T08:14:10Z</time>
      </trkpt>
      <trkpt lat="45.657648" lon="8.908003">
        <time>2026-09-28T08:14:12Z</time>
      </trkpt>
      <trkpt lat="45.657679" lon="8.908139">
        <time>2026-09-28T08:14:14Z</time>
      </trkpt>
      <trkpt lat="45.657711" lon="8.908274">
        <time>2026-09-28T08:14:16Z</time>
      </trkpt>
      <trkpt lat="45.657742" lon="8.908409">
        <time>2026-09-28T08:14:18Z</time>
      </trkpt>
      <trkpt lat="45.657773" lon="8.908544">
        <time>2026-09-28T08:14:20Z</time>
      </trkpt>
      <trkpt lat="45.657804" lon="8.908680">
        <time>2026-09-28T08:14:22Z</time>
      </trkpt>
      <trkpt lat="45.657836" lon="8.908815">
        <time>2026-09-28T08:14:24Z</time>
      </trkpt>
      <trkpt lat="45.657867" lon="8.908950">
        <time>2026-09-28T08:14:26Z</time>
      </trkpt>
      <trkpt lat="45.657898" lon="8.909086">
        <time>2026-09-28T08:14:28Z</time>
      </trkpt>
      <trkpt lat="45.657929" lon="8.909221">
        <time>2026-09-28T08:14:30Z</time>
      </trkpt>
      <trkpt lat="45.657960" lon="8.909356">
        <time>2026-09-28T08:14:32Z</time>
      </trkpt>
      <trkpt lat="45.657990" lon="8.909492">
        <time>2026-09-28T08:14:34Z</time>
      </trkpt>
      <trkpt lat="45.658021" lon="8.909628">
        <time>2026-09-28T08:14:36Z</time>
      </trkpt>
      <trkpt lat="45.658051" lon="8.909763">
        <time>2026-09-28T08:14:38Z</time>
      </trkpt>
      <trkpt lat="45.658081" lon="8.909899">
        <time>2026-09-28T08:14:40Z</time>
      </trkpt>
      <trkpt lat="45.658111" lon="8.910035">
        <time>2026-09-28T08:14:42Z</time>
      </trkpt>
      <trkpt lat="45.658142" lon="8.910171">
        <time>2026-09-28T08:14:44Z</time>
      </trkpt>
      <trkpt lat="45.658172" lon="8.910306">
        <time>2026-09-28T08:14:46Z</time>
      </trkpt>
      <trkpt lat="45.658202" lon="8.910442">
        <time>2026-09-28T08:14:48Z</time>
      </trkpt>
      <trkpt lat="45.658232" lon="8.910578">
        <time>2026-09-28T08:14:50Z</time>
      </trkpt>
      <trkpt lat="45.658263" lon="8.910713">
        <time>2026-09-28T08:14:52Z</time>
      </trkpt>
      <trkpt lat="45.658293" lon="8.910849">
        <time>2026-09-28T08:14:54Z</time>
      </trkpt>
      <trkpt lat="45.658323" lon="8.910985">
        <time>2026-09-28T08:14:56Z</time>
      </trkpt>
      <trkpt lat="45.658353" lon="8.911121">
        <time>2026-09-28T08:14:58Z</time>
      </trkpt>
      <trkpt lat="45.658383" lon="8.911256">
        <time>2026-09-28T08:15:00Z</time>
      </trkpt>
      <trkpt lat="45.658414" lon="8.911392">
        <time>2026-09-28T08:15:02Z</time>
      </trkpt>
      <trkpt lat="45.658444" lon="8.911528">
        <time>2026-09-28T08:15:04Z</time>
      </trkpt>
      <trkpt lat="45.658474" lon="8.911664">
        <time>2026-09-28T08:15:06Z</time>
      </trkpt>
      <trkpt lat="45.658504" lon="8.911799">
        <time>2026-09-28T08:15:08Z</time>
      </trkpt>
      <trkpt lat="45.658535" lon="8.911935">
        <time>2026-09-28T08:15:10Z</time>
      </trkpt>
      <trkpt lat="45.658565" lon="8.912071">
        <time>2026-09-28T08:15:12Z</time>
      </trkpt>
      <trkpt lat="45.658595" lon="8.912206">
        <time>2026-09-28T08:15:14Z</time>
      </trkpt>
      <trkpt lat="45.658625" lon="8.912342">
        <time>2026-09-28T08:15:16Z</time>
      </trkpt>
      <trkpt lat="45.658656" lon="8.912478">
        <time>2026-09-28T08:15:18Z</time>
      </trkpt>
      <trkpt lat="45.658686" lon="8.912614">
        <time>2026-09-28T08:15:20Z</time>
      </trkpt>
      <trkpt lat="45.658716" lon="8.912749">
        <time>2026-09-28T08:15:22Z</time>
      </trkpt>
      <trkpt lat="45.658746" lon="8.912885">
        <time>2026-09-28T08:15:24Z</time>
      </trkpt>
      <trkpt lat="45.658777" lon="8.913021">
        <time>2026-09-28T08:15:26Z</time>
      </trkpt>
      <trkpt lat="45.658807" lon="8.913157">
        <time>2026-09-28T08:15:28Z</time>
      </trkpt>
      <trkpt lat="45.658837" lon="8.913292">
        <time>2026-09-28T08:15:30Z</time>
      </trkpt>
      <trkpt lat="45.658867" lon="8.913428">
        <time>2026-09-28T08:15:32Z</time>
      </trkpt>
      <trkpt lat="45.658897" lon="8.913564">
        <time>2026-09-28T08:15:34Z</time>
      </trkpt>
      <trkpt lat="45.658928" lon="8.913699">
        <time>2026-09-28T08:15:36Z</time>
      </trkpt>
      <trkpt lat="45.658958" lon="8.913835">
        <time>2026-09-28T08:15:38Z</time>
      </trkpt>
      <trkpt lat="45.658988" lon="8.913971">
        <time>2026-09-28T08:15:40Z</time>
      </trkpt>
      <trkpt lat="45.659018" lon="8.914107">
        <time>2026-09-28T08:15:42Z</time>
      </trkpt>
      <trkpt lat="45.659049" lon="8.914242">
        <time>2026-09-28T08:15:44Z</time>
      </trkpt>
      <trkpt lat="45.659080" lon="8.914378">
        <time>2026-09-28T08:15:46Z</time>
      </trkpt>
      <trkpt lat="45.659111" lon="8.914513">
        <time>2026-09-28T08:15:48Z</time>
      </trkpt>
      <trkpt lat="45.659142" lon="8.914648">
        <time>2026-09-28T08:15:50Z</time>
      </trkpt>
      <trkpt lat="45.659173" lon="8.914784">
        <time>2026-09-28T08:15:52Z</time>
      </trkpt>
      <trkpt lat="45.659204" lon="8.914919">
        <time>2026-09-28T08:15:54Z</time>
      </trkpt>
      <trkpt lat="45.659235" lon="8.915054">
        <time>2026-09-28T08:15:56Z</time>
      </trkpt>
      <trkpt lat="45.659266" lon="8.915190">
        <time>2026-09-28T08:15:58Z</time>
      </trkpt>
      <trkpt lat="45.659297" lon="8.915325">
        <time>2026-09-28T08:16:00Z</time>
      </trkpt>
      <trkpt lat="45.659329" lon="8.915460">
        <time>2026-09-28T08:16:02Z</time>
      </trkpt>
      <trkpt lat="45.659360" lon="8.915596">
        <time>2026-09-28T08:16:04Z</time>
      </trkpt>
      <trkpt lat="45.659391" lon="8.915731">
        <time>2026-09-28T08:16:06Z</time>
      </trkpt>
      <trkpt lat="45.659422" lon="8.915866">
        <time>2026-09-28T08:16:08Z</time>
      </trkpt>
      <trkpt lat="45.659453" lon="8.916002">
        <time>2026-09-28T08:16:10Z</time>
      </trkpt>
      <trkpt lat="45.659484" lon="8.916137">
        <time>2026-09-28T08:16:12Z</time>
      </trkpt>
      <trkpt lat="45.659515" lon="8.916272">
        <time>2026-09-28T08:16:14Z</time>
      </trkpt>
      <trkpt lat="45.659546" lon="8.916408">
        <time>2026-09-28T08:16:16Z</time>
      </trkpt>
      <trkpt lat="45.659577" lon="8.916543">
        <time>2026-09-28T08:16:18Z</time>
      </trkpt>
      <trkpt lat="45.659609" lon="8.916678">
        <time>2026-09-28T08:16:20Z</time>
      </trkpt>
      <trkpt lat="45.659640" lon="8.916814">
        <time>2026-09-28T08:16:22Z</time>
      </trkpt>
      <trkpt lat="45.659671" lon="8.916949">
        <time>2026-09-28T08:16:24Z</time>
      </trkpt>
      <trkpt lat="45.659702" lon="8.917084">
        <time>2026-09-28T08:16:26Z</time>
      </trkpt>
      <trkpt lat="45.659733" lon="8.917220">
        <time>2026-09-28T08:16:28Z</time>
      </trkpt>
      <trkpt lat="45.659764" lon="8.917355">
        <time>2026-09-28T08:16:30Z</time>
      </trkpt>
      <trkpt lat="45.659795" lon="8.917490">
        <time>2026-09-28T08:16:32Z</time>
      </trkpt>
      <trkpt lat="45.659826" lon="8.917626">
        <time>2026-09-28T08:16:34Z</time>
      </trkpt>
      <trkpt lat="45.659857" lon="8.917761">
        <time>2026-09-28T08:16:36Z</time>
      </trkpt>
      <trkpt lat="45.659889" lon="8.917896">
        <time>2026-09-28T08:16:38Z</time>
      </trkpt>
      <trkpt lat="45.659920" lon="8.918032">
        <time>2026-09-28T08:16:40Z</time>
      </trkpt>
      <trkpt lat="45.659950" lon="8.918167">
        <time>2026-09-28T08:16:42Z</time>
      </trkpt>
      <trkpt lat="45.659979" lon="8.918304">
        <time>2026-09-28T08:16:44Z</time>
      </trkpt>
      <trkpt lat="45.660006" lon="8.918441">
        <time>2026-09-28T08:16:46Z</time>
      </trkpt>
      <trkpt lat="45.660032" lon="8.918578">
        <time>2026-09-28T08:16:48Z</time>
      </trkpt>
      <trkpt lat="45.660057" lon="8.918716">
        <time>2026-09-28T08:16:50Z</time>
      </trkpt>
      <trkpt lat="45.660082" lon="8.918854">
        <time>2026-09-28T08:16:52Z</time>
      </trkpt>
      <trkpt lat="45.660108" lon="8.918991">
        <time>2026-09-28T08:16:54Z</time>
      </trkpt>
      <trkpt lat="45.660133" lon="8.919129">
        <time>2026-09-28T08:16:56Z</time>
      </trkpt>
      <trkpt lat="45.660159" lon="8.919267">
        <time>2026-09-28T08:16:58Z</time>
      </trkpt>
      <trkpt lat="45.660184" lon="8.919405">
        <time>2026-09-28T08:17:00Z</time>
      </trkpt>
      <trkpt lat="45.660207" lon="8.919543">
        <time>2026-09-28T08:17:02Z</time>
      </trkpt>
      <trkpt lat="45.660230" lon="8.919682">
        <time>2026-09-28T08:17:04Z</time>
      </trkpt>
      <trkpt lat="45.660250" lon="8.919821">
        <time>2026-09-28T08:17:06Z</time>
      </trkpt>
      <trkpt lat="45.660270" lon="8.919961">
        <time>2026-09-28T08:17:08Z</time>
      </trkpt>
      <trkpt lat="45.660290" lon="8.920100">
        <time>2026-09-28T08:17:10Z</time>
      </trkpt>
      <trkpt lat="45.660310" lon="8.920240">
        <time>2026-09-28T08:17:12Z</time>
      </trkpt>
      <trkpt lat="45.660330" lon="8.920379">
        <time>2026-09-28T08:17:14Z</time>
      </trkpt>
      <trkpt lat="45.660350" lon="8.920518">
        <time>2026-09-28T08:17:16Z</time>
      </trkpt>
      <trkpt lat="45.660370" lon="8.920658">
        <time>2026-09-28T08:17:18Z</time>
      </trkpt>
      <trkpt lat="45.660387" lon="8.920798">
        <time>2026-09-28T08:17:20Z</time>
      </trkpt>
      <trkpt lat="45.660403" lon="8.920939">
        <time>2026-09-28T08:17:22Z</time>
      </trkpt>
      <trkpt lat="45.660419" lon="8.921079">
        <time>2026-09-28T08:17:24Z</time>
      </trkpt>
      <trkpt lat="45.660434" lon="8.921220">
        <time>2026-09-28T08:17:26Z</time>
      </trkpt>
      <trkpt lat="45.660450" lon="8.921360">
        <time>2026-09-28T08:17:28Z</time>
      </trkpt>
      <trkpt lat="45.660465" lon="8.921501">
        <time>2026-09-28T08:17:30Z</time>
      </trkpt>
      <trkpt lat="45.660480" lon="8.921642">
        <time>2026-09-28T08:17:32Z</time>
      </trkpt>
      <trkpt lat="45.660491" lon="8.921783">
        <time>2026-09-28T08:17:34Z</time>
      </trkpt>
      <trkpt lat="45.660502" lon="8.921925">
        <time>2026-09-28T08:17:36Z</time>
      </trkpt>
      <trkpt lat="45.660513" lon="8.922066">
        <time>2026-09-28T08:17:38Z</time>
      </trkpt>
      <trkpt lat="45.660524" lon="8.922208">
        <time>2026-09-28T08:17:40Z</time>
      </trkpt>
      <trkpt lat="45.660534" lon="8.922349">
        <time>2026-09-28T08:17:42Z</time>
      </trkpt>
      <trkpt lat="45.660544" lon="8.922491">
        <time>2026-09-28T08:17:44Z</time>
      </trkpt>
      <trkpt lat="45.660552" lon="8.922633">
        <time>2026-09-28T08:17:46Z</time>
      </trkpt>
      <trkpt lat="45.660560" lon="8.922775">
        <time>2026-09-28T08:17:48Z</time>
      </trkpt>
      <trkpt lat="45.660568" lon="8.922916">
        <time>2026-09-28T08:17:50Z</time>
      </trkpt>
      <trkpt lat="45.660576" lon="8.923058">
        <time>2026-09-28T08:17:52Z</time>
      </trkpt>
      <trkpt lat="45.660584" lon="8.923200">
        <time>2026-09-28T08:17:54Z</time>
      </trkpt>
      <trkpt lat="45.660592" lon="8.923342">
        <time>2026-09-28T08:17:56Z</time>
      </trkpt>
      <trkpt lat="45.660599" lon="8.923484">
        <time>2026-09-28T08:17:58Z</time>
      </trkpt>
      <trkpt lat="45.660607" lon="8.923626">
        <time>2026-09-28T08:18:00Z</time>
      </trkpt>
      <trkpt lat="45.660615" lon="8.923768">
        <time>2026-09-28T08:18:02Z</time>
      </trkpt>
      <trkpt lat="45.660623" lon="8.923910">
        <time>2026-09-28T08:18:04Z</time>
      </trkpt>
      <trkpt lat="45.660631" lon="8.924052">
        <time>2026-09-28T08:18:06Z</time>
      </trkpt>
      <trkpt lat="45.660639" lon="8.924193">
        <time>2026-09-28T08:18:08Z</time>
      </trkpt>
      <trkpt lat="45.660647" lon="8.924335">
        <time>2026-09-28T08:18:10Z</time>
      </trkpt>
      <trkpt lat="45.660655" lon="8.924477">
        <time>2026-09-28T08:18:12Z</time>
      </trkpt>
      <trkpt lat="45.660660" lon="8.924619">
        <time>2026-09-28T08:18:14Z</time>
      </trkpt>
      <trkpt lat="45.660665" lon="8.924761">
        <time>2026-09-28T08:18:16Z</time>
      </trkpt>
      <trkpt lat="45.660669" lon="8.924904">
        <time>2026-09-28T08:18:18Z</time>
      </trkpt>
      <trkpt lat="45.660674" lon="8.925046">
        <time>2026-09-28T08:18:20Z</time>
      </trkpt>
      <trkpt lat="45.660678" lon="8.925188">
        <time>2026-09-28T08:18:22Z</time>
      </trkpt>
      <trkpt lat="45.660683" lon="8.925330">
        <time>2026-09-28T08:18:24Z</time>
      </trkpt>
      <trkpt lat="45.660687" lon="8.925472">
        <time>2026-09-28T08:18:26Z</time>
      </trkpt>
      <trkpt lat="45.660692" lon="8.925614">
        <time>2026-09-28T08:18:28Z</time>
      </trkpt>
      <trkpt lat="45.660696" lon="8.925757">
        <time>2026-09-28T08:18:30Z</time>
      </trkpt>
      <trkpt lat="45.660701" lon="8.925899">
        <time>2026-09-28T08:18:32Z</time>
      </trkpt>
      <trkpt lat="45.660706" lon="8.926041">
        <time>2026-09-28T08:18:34Z</time>
      </trkpt>
      <trkpt lat="45.660710" lon="8.926183">
        <time>2026-09-28T08:18:36Z</time>
      </trkpt>
      <trkpt lat="45.660715" lon="8.926325">
        <time>2026-09-28T08:18:38Z</time>
      </trkpt>
      <trkpt lat="45.660719" lon="8.926468">
        <time>2026-09-28T08:18:40Z</time>
      </trkpt>
      <trkpt lat="45.660724" lon="8.926610">
        <time>2026-09-28T08:18:42Z</time>
      </trkpt>
      <trkpt lat="45.660728" lon="8.926752">
        <time>2026-09-28T08:18:44Z</time>
      </trkpt>
      <trkpt lat="45.660740" lon="8.926893">
        <time>2026-09-28T08:18:46Z</time>
      </trkpt>
      <trkpt lat="45.660757" lon="8.927033">
        <time>2026-09-28T08:18:48Z</time>
      </trkpt>
      <trkpt lat="45.660774" lon="8.927174">
        <time>2026-09-28T08:18:50Z</time>
      </trkpt>
      <trkpt lat="45.660790" lon="8.927314">
        <time>2026-09-28T08:18:52Z</time>
      </trkpt>
      <trkpt lat="45.660807" lon="8.927454">
        <time>2026-09-28T08:18:54Z</time>
      </trkpt>
      <trkpt lat="45.660824" lon="8.927595">
        <time>2026-09-28T08:18:56Z</time>
      </trkpt>
      <trkpt lat="45.660840" lon="8.927735">
        <time>2026-09-28T08:18:58Z</time>
      </trkpt>
      <trkpt lat="45.660857" lon="8.927875">
        <time>2026-09-28T08:19:00Z</time>
      </trkpt>
      <trkpt lat="45.660873" lon="8.928016">
        <time>2026-09-28T08:19:02Z</time>
      </trkpt>
      <trkpt lat="45.660890" lon="8.928156">
        <time>2026-09-28T08:19:04Z</time>
      </trkpt>
      <trkpt lat="45.660907" lon="8.928296">
        <time>2026-09-28T08:19:06Z</time>
      </trkpt>
      <trkpt lat="45.660923" lon="8.928437">
        <time>2026-09-28T08:19:08Z</time>
      </trkpt>
      <trkpt lat="45.660940" lon="8.928577">
        <time>2026-09-28T08:19:10Z</time>
      </trkpt>
      <trkpt lat="45.660957" lon="8.928718">
        <time>2026-09-28T08:19:12Z</time>
      </trkpt>
      <trkpt lat="45.660974" lon="8.928858">
        <time>2026-09-28T08:19:14Z</time>
      </trkpt>
      <trkpt lat="45.660997" lon="8.928996">
        <time>2026-09-28T08:19:16Z</time>
      </trkpt>
      <trkpt lat="45.661020" lon="8.929135">
        <time>2026-09-28T08:19:18Z</time>
      </trkpt>
      <trkpt lat="45.661044" lon="8.929273">
        <time>2026-09-28T08:19:20Z</time>
      </trkpt>
      <trkpt lat="45.661068" lon="8.929411">
        <time>2026-09-28T08:19:22Z</time>
      </trkpt>
      <trkpt lat="45.661092" lon="8.929549">
        <time>2026-09-28T08:19:24Z</time>
      </trkpt>
      <trkpt lat="45.661116" lon="8.929687">
        <time>2026-09-28T08:19:26Z</time>
      </trkpt>
      <trkpt lat="45.661140" lon="8.929826">
        <time>2026-09-28T08:19:28Z</time>
      </trkpt>
      <trkpt lat="45.661164" lon="8.929964">
        <time>2026-09-28T08:19:30Z</time>
      </trkpt>
      <trkpt lat="45.661189" lon="8.930102">
        <time>2026-09-28T08:19:32Z</time>
      </trkpt>
      <trkpt lat="45.661222" lon="8.930236">
        <time>2026-09-28T08:19:34Z</time>
      </trkpt>
      <trkpt lat="45.661254" lon="8.930371">
        <time>2026-09-28T08:19:36Z</time>
      </trkpt>
      <trkpt lat="45.661287" lon="8.930506">
        <time>2026-09-28T08:19:38Z</time>
      </trkpt>
      <trkpt lat="45.661319" lon="8.930640">
        <time>2026-09-28T08:19:40Z</time>
      </trkpt>
      <trkpt lat="45.661352" lon="8.930775">
        <time>2026-09-28T08:19:42Z</time>
      </trkpt>
      <trkpt lat="45.661385" lon="8.930910">
        <time>2026-09-28T08:19:44Z</time>
      </trkpt>
      <trkpt lat="45.661417" lon="8.931044">
        <time>2026-09-28T08:19:46Z</time>
      </trkpt>
      <trkpt lat="45.661450" lon="8.931179">
        <time>2026-09-28T08:19:48Z</time>
      </trkpt>
      <trkpt lat="45.661482" lon="8.931313">
        <time>2026-09-28T08:19:50Z</time>
      </trkpt>
      <trkpt lat="45.661516" lon="8.931448">
        <time>2026-09-28T08:19:52Z</time>
      </trkpt>
      <trkpt lat="45.661549" lon="8.931582">
        <time>2026-09-28T08:19:54Z</time>
      </trkpt>
      <trkpt lat="45.661584" lon="8.931716">
        <time>2026-09-28T08:19:56Z</time>
      </trkpt>
      <trkpt lat="45.661618" lon="8.931850">
        <time>2026-09-28T08:19:58Z</time>
      </trkpt>
      <trkpt lat="45.661652" lon="8.931983">
        <time>2026-09-28T08:20:00Z</time>
      </trkpt>
      <trkpt lat="45.661686" lon="8.932117">
        <time>2026-09-28T08:20:02Z</time>
      </trkpt>
      <trkpt lat="45.661720" lon="8.932251">
        <time>2026-09-28T08:20:04Z</time>
      </trkpt>
      <trkpt lat="45.661754" lon="8.932385">
        <time>2026-09-28T08:20:06Z</time>
      </trkpt>
      <trkpt lat="45.661788" lon="8.932519">
        <time>2026-09-28T08:20:08Z</time>
      </trkpt>
      <trkpt lat="45.661825" lon="8.932651">
        <time>2026-09-28T08:20:10Z</time>
      </trkpt>
      <trkpt lat="45.661863" lon="8.932783">
        <time>2026-09-28T08:20:12Z</time>
      </trkpt>
      <trkpt lat="45.661904" lon="8.932913">
        <time>2026-09-28T08:20:14Z</time>
      </trkpt>
      <trkpt lat="45.661945" lon="8.933043">
        <time>2026-09-28T08:20:16Z</time>
      </trkpt>
      <trkpt lat="45.661987" lon="8.933173">
        <time>2026-09-28T08:20:18Z</time>
      </trkpt>
      <trkpt lat="45.662028" lon="8.933302">
        <time>2026-09-28T08:20:20Z</time>
      </trkpt>
      <trkpt lat="45.662069" lon="8.933432">
        <time>2026-09-28T08:20:22Z</time>
      </trkpt>
      <trkpt lat="45.662110" lon="8.933562">
        <time>2026-09-28T08:20:24Z</time>
      </trkpt>
      <trkpt lat="45.662151" lon="8.933692">
        <time>2026-09-28T08:20:26Z</time>
      </trkpt>
      <trkpt lat="45.662192" lon="8.933822">
        <time>2026-09-28T08:20:28Z</time>
      </trkpt>
      <trkpt lat="45.662234" lon="8.933951">
        <time>2026-09-28T08:20:30Z</time>
      </trkpt>
      <trkpt lat="45.662275" lon="8.934081">
        <time>2026-09-28T08:20:32Z</time>
      </trkpt>
      <trkpt lat="45.662315" lon="8.934212">
        <time>2026-09-28T08:20:34Z</time>
      </trkpt>
      <trkpt lat="45.662352" lon="8.934344">
        <time>2026-09-28T08:20:36Z</time>
      </trkpt>
      <trkpt lat="45.662390" lon="8.934476">
        <time>2026-09-28T08:20:38Z</time>
      </trkpt>
      <trkpt lat="45.662428" lon="8.934608">
        <time>2026-09-28T08:20:40Z</time>
      </trkpt>
      <trkpt lat="45.662462" lon="8.934741">
        <time>2026-09-28T08:20:42Z</time>
      </trkpt>
      <trkpt lat="45.662496" lon="8.934875">
        <time>2026-09-28T08:20:44Z</time>
      </trkpt>
      <trkpt lat="45.662529" lon="8.935010">
        <time>2026-09-28T08:20:46Z</time>
      </trkpt>
      <trkpt lat="45.662561" lon="8.935145">
        <time>2026-09-28T08:20:48Z</time>
      </trkpt>
      <trkpt lat="45.662593" lon="8.935280">
        <time>2026-09-28T08:20:50Z</time>
      </trkpt>
      <trkpt lat="45.662624" lon="8.935415">
        <time>2026-09-28T08:20:52Z</time>
      </trkpt>
      <trkpt lat="45.662653" lon="8.935551">
        <time>2026-09-28T08:20:54Z</time>
      </trkpt>
      <trkpt lat="45.662682" lon="8.935687">
        <time>2026-09-28T08:20:56Z</time>
      </trkpt>
      <trkpt lat="45.662712" lon="8.935824">
        <time>2026-09-28T08:20:58Z</time>
      </trkpt>
      <trkpt lat="45.662736" lon="8.935961">
        <time>2026-09-28T08:21:00Z</time>
      </trkpt>
      <trkpt lat="45.662759" lon="8.936100">
        <time>2026-09-28T08:21:02Z</time>
      </trkpt>
      <trkpt lat="45.662779" lon="8.936240">
        <time>2026-09-28T08:21:04Z</time>
      </trkpt>
      <trkpt lat="45.662798" lon="8.936379">
        <time>2026-09-28T08:21:06Z</time>
      </trkpt>
      <trkpt lat="45.662818" lon="8.936519">
        <time>2026-09-28T08:21:08Z</time>
      </trkpt>
      <trkpt lat="45.662837" lon="8.936658">
        <time>2026-09-28T08:21:10Z</time>
      </trkpt>
      <trkpt lat="45.662857" lon="8.936798">
        <time>2026-09-28T08:21:12Z</time>
      </trkpt>
      <trkpt lat="45.662876" lon="8.936938">
        <time>2026-09-28T08:21:14Z</time>
      </trkpt>
      <trkpt lat="45.662896" lon="8.937077">
        <time>2026-09-28T08:21:16Z</time>
      </trkpt>
      <trkpt lat="45.662911" lon="8.937218">
        <time>2026-09-28T08:21:18Z</time>
      </trkpt>
      <trkpt lat="45.662923" lon="8.937359">
        <time>2026-09-28T08:21:20Z</time>
      </trkpt>
      <trkpt lat="45.662936" lon="8.937500">
        <time>2026-09-28T08:21:22Z</time>
      </trkpt>
      <trkpt lat="45.662948" lon="8.937642">
        <time>2026-09-28T08:21:24Z</time>
      </trkpt>
      <trkpt lat="45.662961" lon="8.937783">
        <time>2026-09-28T08:21:26Z</time>
      </trkpt>
      <trkpt lat="45.662971" lon="8.937924">
        <time>2026-09-28T08:21:28Z</time>
      </trkpt>
      <trkpt lat="45.662975" lon="8.938067">
        <time>2026-09-28T08:21:30Z</time>
      </trkpt>
      <trkpt lat="45.662979" lon="8.938209">
        <time>2026-09-28T08:21:32Z</time>
      </trkpt>
      <trkpt lat="45.662983" lon="8.938351">
        <time>2026-09-28T08:21:34Z</time>
      </trkpt>
      <trkpt lat="45.662986" lon="8.938493">
        <time>2026-09-28T08:21:36Z</time>
      </trkpt>
      <trkpt lat="45.662990" lon="8.938635">
        <time>2026-09-28T08:21:38Z</time>
      </trkpt>
      <trkpt lat="45.662991" lon="8.938778">
        <time>2026-09-28T08:21:40Z</time>
      </trkpt>
      <trkpt lat="45.662991" lon="8.938920">
        <time>2026-09-28T08:21:42Z</time>
      </trkpt>
      <trkpt lat="45.662989" lon="8.939062">
        <time>2026-09-28T08:21:44Z</time>
      </trkpt>
      <trkpt lat="45.662987" lon="8.939205">
        <time>2026-09-28T08:21:46Z</time>
      </trkpt>
      <trkpt lat="45.662984" lon="8.939347">
        <time>2026-09-28T08:21:48Z</time>
      </trkpt>
      <trkpt lat="45.662982" lon="8.939489">
        <time>2026-09-28T08:21:50Z</time>
      </trkpt>
      <trkpt lat="45.662980" lon="8.939631">
        <time>2026-09-28T08:21:52Z</time>
      </trkpt>
      <trkpt lat="45.662975" lon="8.939774">
        <time>2026-09-28T08:21:54Z</time>
      </trkpt>
      <trkpt lat="45.662967" lon="8.939915">
        <time>2026-09-28T08:21:56Z</time>
      </trkpt>
      <trkpt lat="45.662958" lon="8.940057">
        <time>2026-09-28T08:21:58Z</time>
      </trkpt>
      <trkpt lat="45.662949" lon="8.940199">
        <time>2026-09-28T08:22:00Z</time>
      </trkpt>
      <trkpt lat="45.662940" lon="8.940341">
        <time>2026-09-28T08:22:02Z</time>
      </trkpt>
      <trkpt lat="45.662931" lon="8.940482">
        <time>2026-09-28T08:22:04Z</time>
      </trkpt>
      <trkpt lat="45.662920" lon="8.940624">
        <time>2026-09-28T08:22:06Z</time>
      </trkpt>
      <trkpt lat="45.662908" lon="8.940765">
        <time>2026-09-28T08:22:08Z</time>
      </trkpt>
      <trkpt lat="45.662893" lon="8.940906">
        <time>2026-09-28T08:22:10Z</time>
      </trkpt>
      <trkpt lat="45.662877" lon="8.941046">
        <time>2026-09-28T08:22:12Z</time>
      </trkpt>
      <trkpt lat="45.662862" lon="8.941187">
        <time>2026-09-28T08:22:14Z</time>
      </trkpt>
      <trkpt lat="45.662845" lon="8.941327">
        <time>2026-09-28T08:22:16Z</time>
      </trkpt>
      <trkpt lat="45.662828" lon="8.941468">
        <time>2026-09-28T08:22:18Z</time>
      </trkpt>
      <trkpt lat="45.662811" lon="8.941608">
        <time>2026-09-28T08:22:20Z</time>
      </trkpt>
      <trkpt lat="45.662793" lon="8.941748">
        <time>2026-09-28T08:22:22Z</time>
      </trkpt>
      <trkpt lat="45.662774" lon="8.941888">
        <time>2026-09-28T08:22:24Z</time>
      </trkpt>
      <trkpt lat="45.662753" lon="8.942027">
        <time>2026-09-28T08:22:26Z</time>
      </trkpt>
      <trkpt lat="45.662731" lon="8.942166">
        <time>2026-09-28T08:22:28Z</time>
      </trkpt>
      <trkpt lat="45.662709" lon="8.942305">
        <time>2026-09-28T08:22:30Z</time>
      </trkpt>
      <trkpt lat="45.662687" lon="8.942444">
        <time>2026-09-28T08:22:32Z</time>
      </trkpt>
      <trkpt lat="45.662662" lon="8.942581">
        <time>2026-09-28T08:22:34Z</time>
      </trkpt>
      <trkpt lat="45.662635" lon="8.942718">
        <time>2026-09-28T08:22:36Z</time>
      </trkpt>
      <trkpt lat="45.662609" lon="8.942856">
        <time>2026-09-28T08:22:38Z</time>
      </trkpt>
      <trkpt lat="45.662581" lon="8.942993">
        <time>2026-09-28T08:22:40Z</time>
      </trkpt>
      <trkpt lat="45.662553" lon="8.943129">
        <time>2026-09-28T08:22:42Z</time>
      </trkpt>
      <trkpt lat="45.662524" lon="8.943266">
        <time>2026-09-28T08:22:44Z</time>
      </trkpt>
      <trkpt lat="45.662496" lon="8.943402">
        <time>2026-09-28T08:22:46Z</time>
      </trkpt>
      <trkpt lat="45.662466" lon="8.943538">
        <time>2026-09-28T08:22:48Z</time>
      </trkpt>
      <trkpt lat="45.662433" lon="8.943672">
        <time>2026-09-28T08:22:50Z</time>
      </trkpt>
      <trkpt lat="45.662401" lon="8.943807">
        <time>2026-09-28T08:22:52Z</time>
      </trkpt>
      <trkpt lat="45.662368" lon="8.943942">
        <time>2026-09-28T08:22:54Z</time>
      </trkpt>
      <trkpt lat="45.662336" lon="8.944077">
        <time>2026-09-28T08:22:56Z</time>
      </trkpt>
      <trkpt lat="45.662303" lon="8.944211">
        <time>2026-09-28T08:22:58Z</time>
      </trkpt>
      <trkpt lat="45.662263" lon="8.944342">
        <time>2026-09-28T08:23:00Z</time>
      </trkpt>
      <trkpt lat="45.662223" lon="8.944472">
        <time>2026-09-28T08:23:02Z</time>
      </trkpt>
      <trkpt lat="45.662182" lon="8.944602">
        <time>2026-09-28T08:23:04Z</time>
      </trkpt>
      <trkpt lat="45.662142" lon="8.944733">
        <time>2026-09-28T08:23:06Z</time>
      </trkpt>
      <trkpt lat="45.662101" lon="8.944863">
        <time>2026-09-28T08:23:08Z</time>
      </trkpt>
      <trkpt lat="45.662061" lon="8.944993">
        <time>2026-09-28T08:23:10Z</time>
      </trkpt>
      <trkpt lat="45.662021" lon="8.945124">
        <time>2026-09-28T08:23:12Z</time>
      </trkpt>
      <trkpt lat="45.661981" lon="8.945254">
        <time>2026-09-28T08:23:14Z</time>
      </trkpt>
      <trkpt lat="45.661941" lon="8.945385">
        <time>2026-09-28T08:23:16Z</time>
      </trkpt>
      <trkpt lat="45.661901" lon="8.945515">
        <time>2026-09-28T08:23:18Z</time>
      </trkpt>
      <trkpt lat="45.661860" lon="8.945645">
        <time>2026-09-28T08:23:20Z</time>
      </trkpt>
      <trkpt lat="45.661817" lon="8.945774">
        <time>2026-09-28T08:23:22Z</time>
      </trkpt>
      <trkpt lat="45.661773" lon="8.945902">
        <time>2026-09-28T08:23:24Z</time>
      </trkpt>
      <trkpt lat="45.661729" lon="8.946030">
        <time>2026-09-28T08:23:26Z</time>
      </trkpt>
      <trkpt lat="45.661684" lon="8.946157">
        <time>2026-09-28T08:23:28Z</time>
      </trkpt>
      <trkpt lat="45.661640" lon="8.946285">
        <time>2026-09-28T08:23:30Z</time>
      </trkpt>
      <trkpt lat="45.661596" lon="8.946413">
        <time>2026-09-28T08:23:32Z</time>
      </trkpt>
      <trkpt lat="45.661552" lon="8.946541">
        <time>2026-09-28T08:23:34Z</time>
      </trkpt>
      <trkpt lat="45.661508" lon="8.946669">
        <time>2026-09-28T08:23:36Z</time>
      </trkpt>
      <trkpt lat="45.661464" lon="8.946797">
        <time>2026-09-28T08:23:38Z</time>
      </trkpt>
      <trkpt lat="45.661425" lon="8.946928">
        <time>2026-09-28T08:23:40Z</time>
      </trkpt>
      <trkpt lat="45.661385" lon="8.947059">
        <time>2026-09-28T08:23:42Z</time>
      </trkpt>
      <trkpt lat="45.661348" lon="8.947191">
        <time>2026-09-28T08:23:44Z</time>
      </trkpt>
      <trkpt lat="45.661310" lon="8.947323">
        <time>2026-09-28T08:23:46Z</time>
      </trkpt>
      <trkpt lat="45.661272" lon="8.947455">
        <time>2026-09-28T08:23:48Z</time>
      </trkpt>
      <trkpt lat="45.661235" lon="8.947587">
        <time>2026-09-28T08:23:50Z</time>
      </trkpt>
      <trkpt lat="45.661198" lon="8.947719">
        <time>2026-09-28T08:23:52Z</time>
      </trkpt>
      <trkpt lat="45.661163" lon="8.947853">
        <time>2026-09-28T08:23:54Z</time>
      </trkpt>
      <trkpt lat="45.661128" lon="8.947986">
        <time>2026-09-28T08:23:56Z</time>
      </trkpt>
      <trkpt lat="45.661095" lon="8.948120">
        <time>2026-09-28T08:23:58Z</time>
      </trkpt>
      <trkpt lat="45.661062" lon="8.948255">
        <time>2026-09-28T08:24:00Z</time>
      </trkpt>
      <trkpt lat="45.661032" lon="8.948391">
        <time>2026-09-28T08:24:02Z</time>
      </trkpt>
      <trkpt lat="45.661002" lon="8.948527">
        <time>2026-09-28T08:24:04Z</time>
      </trkpt>
      <trkpt lat="45.660974" lon="8.948663">
        <time>2026-09-28T08:24:06Z</time>
      </trkpt>
    </trkseg>
  </trk>
</gpx>