<?xml version="1.0" encoding="UTF-8"?>
<gpx version="1.1" creator="haipagato tools/build_gpx.py" xmlns="http://www.topografix.com/GPX/1/1">
  <metadata>
    <name>Corda Molle in coda a 20 km/h</name>
    <desc>In coda per 8 km: confermato via avanzamento.</desc>
  </metadata>
  <trk>
    <name>Corda Molle in coda a 20 km/h</name>
    <trkseg>
      <trkpt lat="45.557851" lon="10.059433">
        <time>2026-09-28T08:00:00Z</time>
      </trkpt>
      <trkpt lat="45.557762" lon="10.059367">
        <time>2026-09-28T08:00:02Z</time>
      </trkpt>
      <trkpt lat="45.557673" lon="10.059301">
        <time>2026-09-28T08:00:04Z</time>
      </trkpt>
      <trkpt lat="45.557584" lon="10.059235">
        <time>2026-09-28T08:00:06Z</time>
      </trkpt>
      <trkpt lat="45.557495" lon="10.059170">
        <time>2026-09-28T08:00:08Z</time>
      </trkpt>
      <trkpt lat="45.557406" lon="10.059104">
        <time>2026-09-28T08:00:10Z</time>
      </trkpt>
      <trkpt lat="45.557316" lon="10.059038">
        <time>2026-09-28T08:00:12Z</time>
      </trkpt>
      <trkpt lat="45.557227" lon="10.058972">
        <time>2026-09-28T08:00:14Z</time>
      </trkpt>
      <trkpt lat="45.557138" lon="10.058906">
        <time>2026-09-28T08:00:16Z</time>
      </trkpt>
      <trkpt lat="45.557049" lon="10.058840">
        <time>2026-09-28T08:00:18Z</time>
      </trkpt>
      <trkpt lat="45.556960" lon="10.058774">
        <time>2026-09-28T08:00:20Z</time>
      </trkpt>
      <trkpt lat="45.556871" lon="10.058709">
        <time>2026-09-28T08:00:22Z</time>
      </trkpt>
      <trkpt lat="45.556781" lon="10.058645">
        <time>2026-09-28T08:00:24Z</time>
      </trkpt>
      <trkpt lat="45.556691" lon="10.058581">
        <time>2026-09-28T08:00:26Z</time>
      </trkpt>
      <trkpt lat="45.556601" lon="10.058518">
        <time>2026-09-28T08:00:28Z</time>
      </trkpt>
      <trkpt lat="45.556511" lon="10.058455">
        <time>2026-09-28T08:00:30Z</time>
      </trkpt>
      <trkpt lat="45.556421" lon="10.058392">
        <time>2026-09-28T08:00:32Z</time>
      </trkpt>
      <trkpt lat="45.556331" lon="10.058329">
        <time>2026-09-28T08:00:34Z</time>
      </trkpt>
      <trkpt lat="45.556241" lon="10.058266">
        <time>2026-09-28T08:00:36Z</time>
      </trkpt>
      <trkpt lat="45.556150" lon="10.058203">
        <time>2026-09-28T08:00:38Z</time>
      </trkpt>
      <trkpt lat="45.556060" lon="10.058140">
        <time>2026-09-28T08:00:40Z</time>
      </trkpt>
      <trkpt lat="45.555970" lon="10.058077">
        <time>2026-09-28T08:00:42Z</time>
      </trkpt>
      <trkpt lat="45.555880" lon="10.058014">
        <time>2026-09-28T08:00:44Z</time>
      </trkpt>
      <trkpt lat="45.555790" lon="10.057950">
        <time>2026-09-28T08:00:46Z</time>
      </trkpt>
      <trkpt lat="45.555700" lon="10.057887">
        <time>2026-09-28T08:00:48Z</time>
      </trkpt>
      <trkpt lat="45.555610" lon="10.057824">
        <time>2026-09-28T08:00:50Z</time>
      </trkpt>
      <trkpt lat="45.555520" lon="10.057761">
        <time>2026-09-28T08:00:52Z</time>
      </trkpt>
      <trkpt lat="45.555430" lon="10.057698">
        <time>2026-09-28T08:00:54Z</time>
      </trkpt>
      <trkpt lat="45.555340" lon="10.057635">
        <time>2026-09-28T08:00:56Z</time>
      </trkpt>
      <trkpt lat="45.555250" lon="10.057571">
        <time>2026-09-28T08:00:58Z</time>
      </trkpt>
      <trkpt lat="45.555160" lon="10.057508">
        <time>2026-09-28T08:01:00Z</time>
      </trkpt>
      <trkpt lat="45.555069" lon="10.057445">
        <time>2026-09-28T08:01:02Z</time>
      </trkpt>
      <trkpt lat="45.554979" lon="10.057382">
        <time>2026-09-28T08:01:04Z</time>
      </trkpt>
      <trkpt lat="45.554889" lon="10.057319">
        <time>2026-09-28T08:01:06Z</time>
      </trkpt>
      <trkpt lat="45.554799" lon="10.057256">
        <time>2026-09-28T08:01:08Z</time>
      </trkpt>
      <trkpt lat="45.554709" lon="10.057194">
        <time>2026-09-28T08:01:10Z</time>
      </trkpt>
      <trkpt lat="45.554618" lon="10.057132">
        <time>2026-09-28T08:01:12Z</time>
      </trkpt>
      <trkpt lat="45.554526" lon="10.057074">
        <time>2026-09-28T08:01:14Z</time>
      </trkpt>
      <trkpt lat="45.554434" lon="10.057016">
        <time>2026-09-28T08:01:16Z</time>
      </trkpt>
      <trkpt lat="45.554343" lon="10.056959">
        <time>2026-09-28T08:01:18Z</time>
      </trkpt>
      <trkpt lat="45.554251" lon="10.056901">
        <time>2026-09-28T08:01:20Z</time>
      </trkpt>
      <trkpt lat="45.554159" lon="10.056843">
        <time>2026-09-28T08:01:22Z</time>
      </trkpt>
      <trkpt lat="45.554067" lon="10.056785">
        <time>2026-09-28T08:01:24Z</time>
      </trkpt>
      <trkpt lat="45.553975" lon="10.056728">
        <time>2026-09-28T08:01:26Z</time>
      </trkpt>
      <trkpt lat="45.553883" lon="10.056671">
        <time>2026-09-28T08:01:28Z</time>
      </trkpt>
      <trkpt lat="45.553791" lon="10.056614">
        <time>2026-09-28T08:01:30Z</time>
      </trkpt>
      <trkpt lat="45.553699" lon="10.056556">
        <time>2026-09-28T08:01:32Z</time>
      </trkpt>
      <trkpt lat="45.553607" lon="10.056499">
        <time>2026-09-28T08:01:34Z</time>
      </trkpt>
      <trkpt lat="45.553514" lon="10.056443">
        <time>2026-09-28T08:01:36Z</time>
      </trkpt>
      <trkpt lat="45.553422" lon="10.056388">
        <time>2026-09-28T08:01:38Z</time>
      </trkpt>
      <trkpt lat="45.553329" lon="10.056333">
        <time>2026-09-28T08:01:40Z</time>
      </trkpt>
      <trkpt lat="45.553236" lon="10.056279">
        <time>2026-09-28T08:01:42Z</time>
      </trkpt>
      <trkpt lat="45.553143" lon="10.056224">
        <time>2026-09-28T08:01:44Z</time>
      </trkpt>
      <trkpt lat="45.553050" lon="10.056170">
        <time>2026-09-28T08:01:46Z</time>
      </trkpt>
      <trkpt lat="45.552958" lon="10.056115">
        <time>2026-09-28T08:01:48Z</time>
      </trkpt>
      <trkpt lat="45.552865" lon="10.056061">
        <time>2026-09-28T08:01:50Z</time>
      </trkpt>
      <trkpt lat="45.552772" lon="10.056006">
        <time>2026-09-28T08:01:52Z</time>
      </trkpt>
      <trkpt lat="45.552679" lon="10.055952">
        <time>2026-09-28T08:01:54Z</time>
      </trkpt>
      <trkpt lat="45.552586" lon="10.055897">
        <time>2026-09-28T08:01:56Z</time>
      </trkpt>
      <trkpt lat="45.552493" lon="10.055843">
        <time>2026-09-28T08:01:58Z</time>
      </trkpt>
      <trkpt lat="45.552399" lon="10.055792">
        <time>2026-09-28T08:02:00Z</time>
      </trkpt>
      <trkpt lat="45.552305" lon="10.055744">
        <time>2026-09-28T08:02:02Z</time>
      </trkpt>
      <trkpt lat="45.552210" lon="10.055699">
        <time>2026-09-28T08:02:04Z</time>
      </trkpt>
      <trkpt lat="45.552114" lon="10.055654">
        <time>2026-09-28T08:02:06Z</time>
      </trkpt>
      <trkpt lat="45.552019" lon="10.055610">
        <time>2026-09-28T08:02:08Z</time>
      </trkpt>
      <trkpt lat="45.551923" lon="10.055566">
        <time>2026-09-28T08:02:10Z</time>
      </trkpt>
      <trkpt lat="45.551828" lon="10.055521">
        <time>2026-09-28T08:02:12Z</time>
      </trkpt>
      <trkpt lat="45.551732" lon="10.055479">
        <time>2026-09-28T08:02:14Z</time>
      </trkpt>
      <trkpt lat="45.551635" lon="10.055439">
        <time>2026-09-28T08:02:16Z</time>
      </trkpt>
      <trkpt lat="45.551537" lon="10.055406">
        <time>2026-09-28T08:02:18Z</time>
      </trkpt>
      <trkpt lat="45.551439" lon="10.055376">
        <time>2026-09-28T08:02:20Z</time>
      </trkpt>
      <trkpt lat="45.551341" lon="10.055347">
        <time>2026-09-28T08:02:22Z</time>
      </trkpt>
      <trkpt lat="45.551242" lon="10.055317">
        <time>2026-09-28T08:02:24Z</time>
      </trkpt>
      <trkpt lat="45.551144" lon="10.055288">
        <time>2026-09-28T08:02:26Z</time>
      </trkpt>
      <trkpt lat="45.551046" lon="10.055259">
        <time>2026-09-28T08:02:28Z</time>
      </trkpt>
      <trkpt lat="45.550947" lon="10.055229">
        <time>2026-09-28T08:02:30Z</time>
      </trkpt>
      <trkpt lat="45.550849" lon="10.055200">
        <time>2026-09-28T08:02:32Z</time>
      </trkpt>
      <trkpt lat="45.550751" lon="10.055171">
        <time>2026-09-28T08:02:34Z</time>
      </trkpt>
      <trkpt lat="45.550652" lon="10.055142">
        <time>2026-09-28T08:02:36Z</time>
      </trkpt>
      <trkpt lat="45.550554" lon="10.055114">
        <time>2026-09-28T08:02:38Z</time>
      </trkpt>
      <trkpt lat="45.550454" lon="10.055091">
        <time>2026-09-28T08:02:40Z</time>
      </trkpt>
      <trkpt lat="45.550355" lon="10.055069">
        <time>2026-09-28T08:02:42Z</time>
      </trkpt>
      <trkpt lat="45.550256" lon="10.055048">
        <time>2026-09-28T08:02:44Z</time>
      </trkpt>
      <trkpt lat="45.550156" lon="10.055026">
        <time>2026-09-28T08:02:46Z</time>
      </trkpt>
      <trkpt lat="45.550057" lon="10.055005">
        <time>2026-09-28T08:02:48Z</time>
      </trkpt>
      <trkpt lat="45.549958" lon="10.054983">
        <time>2026-09-28T08:02:50Z</time>
      </trkpt>
      <trkpt lat="45.549858" lon="10.054962">
        <time>2026-09-28T08:02:52Z</time>
      </trkpt>
      <trkpt lat="45.549759" lon="10.054940">
        <time>2026-09-28T08:02:54Z</time>
      </trkpt>
      <trkpt lat="45.549660" lon="10.054918">
        <time>2026-09-28T08:02:56Z</time>
      </trkpt>
      <trkpt lat="45.549560" lon="10.054897">
        <time>2026-09-28T08:02:58Z</time>
      </trkpt>
      <trkpt lat="45.549461" lon="10.054875">
        <time>2026-09-28T08:03:00Z</time>
      </trkpt>
      <trkpt lat="45.549361" lon="10.054855">
        <time>2026-09-28T08:03:02Z</time>
      </trkpt>
      <trkpt lat="45.549262" lon="10.054835">
        <time>2026-09-28T08:03:04Z</time>
      </trkpt>
      <trkpt lat="45.549162" lon="10.054815">
        <time>2026-09-28T08:03:06Z</time>
      </trkpt>
      <trkpt lat="45.549063" lon="10.054795">
        <time>2026-09-28T08:03:08Z</time>
      </trkpt>
      <trkpt lat="45.548963" lon="10.054775">
        <time>2026-09-28T08:03:10Z</time>
      </trkpt>
      <trkpt lat="45.548864" lon="10.054756">
        <time>2026-09-28T08:03:12Z</time>
      </trkpt>
      <trkpt lat="45.548764" lon="10.054736">
        <time>2026-09-28T08:03:14Z</time>
      </trkpt>
      <trkpt lat="45.548665" lon="10.054716">
        <time>2026-09-28T08:03:16Z</time>
      </trkpt>
      <trkpt lat="45.548565" lon="10.054696">
        <time>2026-09-28T08:03:18Z</time>
      </trkpt>
      <trkpt lat="45.548466" lon="10.054677">
        <time>2026-09-28T08:03:20Z</time>
      </trkpt>
      <trkpt lat="45.548366" lon="10.054657">
        <time>2026-09-28T08:03:22Z</time>
      </trkpt>
      <trkpt lat="45.548266" lon="10.054637">
        <time>2026-09-28T08:03:24Z</time>
      </trkpt>
      <trkpt lat="45.548167" lon="10.054617">
        <time>2026-09-28T08:03:26Z</time>
      </trkpt>
      <trkpt lat="45.548067" lon="10.054598">
        <time>2026-09-28T08:03:28Z</time>
      </trkpt>
      <trkpt lat="45.547968" lon="10.054578">
        <time>2026-09-28T08:03:30Z</time>
      </trkpt>
      <trkpt lat="45.547868" lon="10.054558">
        <time>2026-09-28T08:03:32Z</time>
      </trkpt>
      <trkpt lat="45.547769" lon="10.054541">
        <time>2026-09-28T08:03:34Z</time>
      </trkpt>
      <trkpt lat="45.547669" lon="10.054525">
        <time>2026-09-28T08:03:36Z</time>
      </trkpt>
      <trkpt lat="45.547569" lon="10.054509">
        <time>2026-09-28T08:03:38Z</time>
      </trkpt>
      <trkpt lat="45.547469" lon="10.054494">
        <time>2026-09-28T08:03:40Z</time>
      </trkpt>
      <trkpt lat="45.547369" lon="10.054478">
        <time>2026-09-28T08:03:42Z</time>
      </trkpt>
      <trkpt lat="45.547269" lon="10.054463">
        <time>2026-09-28T08:03:44Z</time>
      </trkpt>
      <trkpt lat="45.547169" lon="10.054448">
        <time>2026-09-28T08:03:46Z</time>
      </trkpt>
      <trkpt lat="45.547069" lon="10.054432">
        <time>2026-09-28T08:03:48Z</time>
      </trkpt>
      <trkpt lat="45.546969" lon="10.054417">
        <time>2026-09-28T08:03:50Z</time>
      </trkpt>
      <trkpt lat="45.546869" lon="10.054401">
        <time>2026-09-28T08:03:52Z</time>
      </trkpt>
      <trkpt lat="45.546769" lon="10.054386">
        <time>2026-09-28T08:03:54Z</time>
      </trkpt>
      <trkpt lat="45.546669" lon="10.054371">
        <time>2026-09-28T08:03:56Z</time>
      </trkpt>
      <trkpt lat="45.546569" lon="10.054355">
        <time>2026-09-28T08:03:58Z</time>
      </trkpt>
      <trkpt lat="45.546470" lon="10.054340">
        <time>2026-09-28T08:04:00Z</time>
      </trkpt>
      <trkpt lat="45.546370" lon="10.054324">
        <time>2026-09-28T08:04:02Z</time>
      </trkpt>
      <trkpt lat="45.546270" lon="10.054309">
        <time>2026-09-28T08:04:04Z</time>
      </trkpt>
      <trkpt lat="45.546170" lon="10.054294">
        <time>2026-09-28T08:04:06Z</time>
      </trkpt>
      <trkpt lat="45.546070" lon="10.054278">
        <time>2026-09-28T08:04:08Z</time>
      </trkpt>
      <trkpt lat="45.545970" lon="10.054263">
        <time>2026-09-28T08:04:10Z</time>
      </trkpt>
      <trkpt lat="45.545870" lon="10.054247">
        <time>2026-09-28T08:04:12Z</time>
      </trkpt>
      <trkpt lat="45.545770" lon="10.054232">
        <time>2026-09-28T08:04:14Z</time>
      </trkpt>
      <trkpt lat="45.545670" lon="10.054216">
        <time>2026-09-28T08:04:16Z</time>
      </trkpt>
      <trkpt lat="45.545570" lon="10.054199">
        <time>2026-09-28T08:04:18Z</time>
      </trkpt>
      <trkpt lat="45.545471" lon="10.054181">
        <time>2026-09-28T08:04:20Z</time>
      </trkpt>
      <trkpt lat="45.545371" lon="10.054164">
        <time>2026-09-28T08:04:22Z</time>
      </trkpt>
      <trkpt lat="45.545271" lon="10.054147">
        <time>2026-09-28T08:04:24Z</time>
      </trkpt>
      <trkpt lat="45.545171" lon="10.054130">
        <time>2026-09-28T08:04:26Z</time>
      </trkpt>
      <trkpt lat="45.545072" lon="10.054112">
        <time>2026-09-28T08:04:28Z</time>
      </trkpt>
      <trkpt lat="45.544972" lon="10.054095">
        <time>2026-09-28T08:04:30Z</time>
      </trkpt>
      <trkpt lat="45.544872" lon="10.054079">
        <time>2026-09-28T08:04:32Z</time>
      </trkpt>
      <trkpt lat="45.544772" lon="10.054064">
        <time>2026-09-28T08:04:34Z</time>
      </trkpt>
      <trkpt lat="45.544672" lon="10.054048">
        <time>2026-09-28T08:04:36Z</time>
      </trkpt>
      <trkpt lat="45.544572" lon="10.054033">
        <time>2026-09-28T08:04:38Z</time>
      </trkpt>
      <trkpt lat="45.544472" lon="10.054018">
        <time>2026-09-28T08:04:40Z</time>
      </trkpt>
      <trkpt lat="45.544372" lon="10.054003">
        <time>2026-09-28T08:04:42Z</time>
      </trkpt>
      <trkpt lat="45.544272" lon="10.053987">
        <time>2026-09-28T08:04:44Z</time>
      </trkpt>
      <trkpt lat="45.544172" lon="10.053972">
        <time>2026-09-28T08:04:46Z</time>
      </trkpt>
      <trkpt lat="45.544072" lon="10.053957">
        <time>2026-09-28T08:04:48Z</time>
      </trkpt>
      <trkpt lat="45.543972" lon="10.053942">
        <time>2026-09-28T08:04:50Z</time>
      </trkpt>
      <trkpt lat="45.543872" lon="10.053927">
        <time>2026-09-28T08:04:52Z</time>
      </trkpt>
      <trkpt lat="45.543772" lon="10.053912">
        <time>2026-09-28T08:04:54Z</time>
      </trkpt>
      <trkpt lat="45.543673" lon="10.053898">
        <time>2026-09-28T08:04:56Z</time>
      </trkpt>
      <trkpt lat="45.543573" lon="10.053883">
        <time>2026-09-28T08:04:58Z</time>
      </trkpt>
      <trkpt lat="45.543473" lon="10.053868">
        <time>2026-09-28T08:05:00Z</time>
      </trkpt>
      <trkpt lat="45.543373" lon="10.053853">
        <time>2026-09-28T08:05:02Z</time>
      </trkpt>
      <trkpt lat="45.543273" lon="10.053838">
        <time>2026-09-28T08:05:04Z</time>
      </trkpt>
      <trkpt lat="45.543173" lon="10.053823">
        <time>2026-09-28T08:05:06Z</time>
      </trkpt>
      <trkpt lat="45.543073" lon="10.053808">
        <time>2026-09-28T08:05:08Z</time>
      </trkpt>
      <trkpt lat="45.542973" lon="10.053794">
        <time>2026-09-28T08:05:10Z</time>
      </trkpt>
      <trkpt lat="45.542873" lon="10.053779">
        <time>2026-09-28T08:05:12Z</time>
      </trkpt>
      <trkpt lat="45.542773" lon="10.053764">
        <time>2026-09-28T08:05:14Z</time>
      </trkpt>
      <trkpt lat="45.542673" lon="10.053749">
        <time>2026-09-28T08:05:16Z</time>
      </trkpt>
      <trkpt lat="45.542573" lon="10.053734">
        <time>2026-09-28T08:05:18Z</time>
      </trkpt>
      <trkpt lat="45.542473" lon="10.053719">
        <time>2026-09-28T08:05:20Z</time>
      </trkpt>
      <trkpt lat="45.542373" lon="10.053704">
        <time>2026-09-28T08:05:22Z</time>
      </trkpt>
      <trkpt lat="45.542273" lon="10.053690">
        <time>2026-09-28T08:05:24Z</time>
      </trkpt>
      <trkpt lat="45.542173" lon="10.053675">
        <time>2026-09-28T08:05:26Z</time>
      </trkpt>
      <trkpt lat="45.542073" lon="10.053660">
        <time>2026-09-28T08:05:28Z</time>
      </trkpt>
      <trkpt lat="45.541973" lon="10.053645">
        <time>2026-09-28T08:05:30Z</time>
      </trkpt>
      <trkpt lat="45.541873" lon="10.053631">
        <time>2026-09-28T08:05:32Z</time>
      </trkpt>
      <trkpt lat="45.541773" lon="10.053616">
        <time>2026-09-28T08:05:34Z</time>
      </trkpt>
      <trkpt lat="45.541673" lon="10.053601">
        <time>2026-09-28T08:05:36Z</time>
      </trkpt>
      <trkpt lat="45.541573" lon="10.053587">
        <time>2026-09-28T08:05:38Z</time>
      </trkpt>
      <trkpt lat="45.541473" lon="10.053577">
        <time>2026-09-28T08:05:40Z</time>
      </trkpt>
      <trkpt lat="45.541372" lon="10.053569">
        <time>2026-09-28T08:05:42Z</time>
      </trkpt>
      <trkpt lat="45.541272" lon="10.053564">
        <time>2026-09-28T08:05:44Z</time>
      </trkpt>
      <trkpt lat="45.541172" lon="10.053560">
        <time>2026-09-28T08:05:46Z</time>
      </trkpt>
      <trkpt lat="45.541071" lon="10.053555">
        <time>2026-09-28T08:05:48Z</time>
      </trkpt>
      <trkpt lat="45.540971" lon="10.053550">
        <time>2026-09-28T08:05:50Z</time>
      </trkpt>
      <trkpt lat="45.540870" lon="10.053546">
        <time>2026-09-28T08:05:52Z</time>
      </trkpt>
      <trkpt lat="45.540770" lon="10.053543">
        <time>2026-09-28T08:05:54Z</time>
      </trkpt>
      <trkpt lat="45.540669" lon="10.053541">
        <time>2026-09-28T08:05:56Z</time>
      </trkpt>
      <trkpt lat="45.540569" lon="10.053541">
        <time>2026-09-28T08:05:58Z</time>
      </trkpt>
      <trkpt lat="45.540468" lon="10.053542">
        <time>2026-09-28T08:06:00Z</time>
      </trkpt>
      <trkpt lat="45.540368" lon="10.053542">
        <time>2026-09-28T08:06:02Z</time>
      </trkpt>
      <trkpt lat="45.540267" lon="10.053543">
        <time>2026-09-28T08:06:04Z</time>
      </trkpt>
      <trkpt lat="45.540167" lon="10.053547">
        <time>2026-09-28T08:06:06Z</time>
      </trkpt>
      <trkpt lat="45.540066" lon="10.053551">
        <time>2026-09-28T08:06:08Z</time>
      </trkpt>
      <trkpt lat="45.539966" lon="10.053556">
        <time>2026-09-28T08:06:10Z</time>
      </trkpt>
      <trkpt lat="45.539865" lon="10.053561">
        <time>2026-09-28T08:06:12Z</time>
      </trkpt>
      <trkpt lat="45.539765" lon="10.053566">
        <time>2026-09-28T08:06:14Z</time>
      </trkpt>
      <trkpt lat="45.539664" lon="10.053572">
        <time>2026-09-28T08:06:16Z</time>
      </trkpt>
      <trkpt lat="45.539564" lon="10.053577">
        <time>2026-09-28T08:06:18Z</time>
      </trkpt>
      <trkpt lat="45.539463" lon="10.053582">
        <time>2026-09-28T08:06:20Z</time>
      </trkpt>
      <trkpt lat="45.539363" lon="10.053587">
        <time>2026-09-28T08:06:22Z</time>
      </trkpt>
      <trkpt lat="45.539263" lon="10.053593">
        <time>2026-09-28T08:06:24Z</time>
      </trkpt>
      <trkpt lat="45.539162" lon="10.053598">
        <time>2026-09-28T08:06:26Z</time>
      </trkpt>
      <trkpt lat="45.539062" lon="10.053603">
        <time>2026-09-28T08:06:28Z</time>
      </trkpt>
      <trkpt lat="45.538961" lon="10.053609">
        <time>2026-09-28T08:06:30Z</time>
      </trkpt>
      <trkpt lat="45.538861" lon="10.053614">
        <time>2026-09-28T08:06:32Z</time>
      </trkpt>
      <trkpt lat="45.538760" lon="10.053619">
        <time>2026-09-28T08:06:34Z</time>
      </trkpt>
      <trkpt lat="45.538660" lon="10.053625">
        <time>2026-09-28T08:06:36Z</time>
      </trkpt>
      <trkpt lat="45.538559" lon="10.053630">
        <time>2026-09-28T08:06:38Z</time>
      </trkpt>
      <trkpt lat="45.538459" lon="10.053635">
        <time>2026-09-28T08:06:40Z</time>
      </trkpt>
      <trkpt lat="45.538359" lon="10.053641">
        <time>2026-09-28T08:06:42Z</time>
      </trkpt>
      <trkpt lat="45.538258" lon="10.053646">
        <time>2026-09-28T08:06:44Z</time>
      </trkpt>
      <trkpt lat="45.538158" lon="10.053651">
        <time>2026-09-28T08:06:46Z</time>
      </trkpt>
      <trkpt lat="45.538057" lon="10.053657">
        <time>2026-09-28T08:06:48Z</time>
      </trkpt>
      <trkpt lat="45.537957" lon="10.053662">
        <time>2026-09-28T08:06:50Z</time>
      </trkpt>
      <trkpt lat="45.537857" lon="10.053672">
        <time>2026-09-28T08:06:52Z</time>
      </trkpt>
      <trkpt lat="45.537756" lon="10.053683">
        <time>2026-09-28T08:06:54Z</time>
      </trkpt>
      <trkpt lat="45.537656" lon="10.053697">
        <time>2026-09-28T08:06:56Z</time>
      </trkpt>
      <trkpt lat="45.537556" lon="10.053710">
        <time>2026-09-28T08:06:58Z</time>
      </trkpt>
      <trkpt lat="45.537456" lon="10.053724">
        <time>2026-09-28T08:07:00Z</time>
      </trkpt>
      <trkpt lat="45.537356" lon="10.053738">
        <time>2026-09-28T08:07:02Z</time>
      </trkpt>
      <trkpt lat="45.537256" lon="10.053751">
        <time>2026-09-28T08:07:04Z</time>
      </trkpt>
      <trkpt lat="45.537156" lon="10.053765">
        <time>2026-09-28T08:07:06Z</time>
      </trkpt>
      <trkpt lat="45.537056" lon="10.053779">
        <time>2026-09-28T08:07:08Z</time>
      </trkpt>
      <trkpt lat="45.536956" lon="10.053792">
        <time>2026-09-28T08:07:10Z</time>
      </trkpt>
      <trkpt lat="45.536856" lon="10.053806">
        <time>2026-09-28T08:07:12Z</time>
      </trkpt>
      <trkpt lat="45.536756" lon="10.053819">
        <time>2026-09-28T08:07:14Z</time>
      </trkpt>
      <trkpt lat="45.536656" lon="10.053833">
        <time>2026-09-28T08:07:16Z</time>
      </trkpt>
      <trkpt lat="45.536556" lon="10.053847">
        <time>2026-09-28T08:07:18Z</time>
      </trkpt>
      <trkpt lat="45.536456" lon="10.053860">
        <time>2026-09-28T08:07:20Z</time>
      </trkpt>
      <trkpt lat="45.536356" lon="10.053874">
        <time>2026-09-28T08:07:22Z</time>
      </trkpt>
      <trkpt lat="45.536256" lon="10.053888">
        <time>2026-09-28T08:07:24Z</time>
      </trkpt>
      <trkpt lat="45.536155" lon="10.053901">
        <time>2026-09-28T08:07:26Z</time>
      </trkpt>
      <trkpt lat="45.536055" lon="10.053915">
        <time>2026-09-28T08:07:28Z</time>
      </trkpt>
      <trkpt lat="45.535955" lon="10.053928">
        <time>2026-09-28T08:07:30Z</time>
      </trkpt>
      <trkpt lat="45.535855" lon="10.053942">
        <time>2026-09-28T08:07:32Z</time>
      </trkpt>
      <trkpt lat="45.535755" lon="10.053956">
        <time>2026-09-28T08:07:34Z</time>
      </trkpt>
      <trkpt lat="45.535655" lon="10.053969">
        <time>2026-09-28T08:07:36Z</time>
      </trkpt>
      <trkpt lat="45.535555" lon="10.053983">
        <time>2026-09-28T08:07:38Z</time>
      </trkpt>
      <trkpt lat="45.535455" lon="10.053997">
        <time>2026-09-28T08:07:40Z</time>
      </trkpt>
      <trkpt lat="45.535355" lon="10.054012">
        <time>2026-09-28T08:07:42Z</time>
      </trkpt>
      <trkpt lat="45.535255" lon="10.054027">
        <time>2026-09-28T08:07:44Z</time>
      </trkpt>
      <trkpt lat="45.535155" lon="10.054042">
        <time>2026-09-28T08:07:46Z</time>
      </trkpt>
      <trkpt lat="45.535055" lon="10.054057">
        <time>2026-09-28T08:07:48Z</time>
      </trkpt>
      <trkpt lat="45.534955" lon="10.054072">
        <time>2026-09-28T08:07:50Z</time>
      </trkpt>
      <trkpt lat="45.534855" lon="10.054088">
        <time>2026-09-28T08:07:52Z</time>
      </trkpt>
      <trkpt lat="45.534755" lon="10.054103">
        <time>2026-09-28T08:07:54Z</time>
      </trkpt>
      <trkpt lat="45.534656" lon="10.054118">
        <time>2026-09-28T08:07:56Z</time>
      </trkpt>
      <trkpt lat="45.534556" lon="10.054134">
        <time>2026-09-28T08:07:58Z</time>
      </trkpt>
      <trkpt lat="45.534456" lon="10.054149">
        <time>2026-09-28T08:08:00Z</time>
      </trkpt>
      <trkpt lat="45.534356" lon="10.054164">
        <time>2026-09-28T08:08:02Z</time>
      </trkpt>
      <trkpt lat="45.534256" lon="10.054179">
        <time>2026-09-28T08:08:04Z</time>
      </trkpt>
      <trkpt lat="45.534156" lon="10.054195">
        <time>2026-09-28T08:08:06Z</time>
      </trkpt>
      <trkpt lat="45.534056" lon="10.054210">
        <time>2026-09-28T08:08:08Z</time>
      </trkpt>
      <trkpt lat="45.533956" lon="10.054225">
        <time>2026-09-28T08:08:10Z</time>
      </trkpt>
      <trkpt lat="45.533856" lon="10.054241">
        <time>2026-09-28T08:08:12Z</time>
      </trkpt>
      <trkpt lat="45.533756" lon="10.054256">
        <time>2026-09-28T08:08:14Z</time>
      </trkpt>
      <trkpt lat="45.533656" lon="10.054271">
        <time>2026-09-28T08:08:16Z</time>
      </trkpt>
      <trkpt lat="45.533556" lon="10.054286">
        <time>2026-09-28T08:08:18Z</time>
      </trkpt>
      <trkpt lat="45.533456" lon="10.054302">
        <time>2026-09-28T08:08:20Z</time>
      </trkpt>
      <trkpt lat="45.533356" lon="10.054318">
        <time>2026-09-28T08:08:22Z</time>
      </trkpt>
      <trkpt lat="45.533257" lon="10.054335">
        <time>2026-09-28T08:08:24Z</time>
      </trkpt>
      <trkpt lat="45.533157" lon="10.054352">
        <time>2026-09-28T08:08:26Z</time>
      </trkpt>
      <trkpt lat="45.533057" lon="10.054369">
        <time>2026-09-28T08:08:28Z</time>
      </trkpt>
      <trkpt lat="45.532957" lon="10.054387">
        <time>2026-09-28T08:08:30Z</time>
      </trkpt>
      <trkpt lat="45.532858" lon="10.054404">
        <time>2026-09-28T08:08:32Z</time>
      </trkpt>
      <trkpt lat="45.532758" lon="10.054421">
        <time>2026-09-28T08:08:34Z</time>
      </trkpt>
      <trkpt lat="45.532658" lon="10.054438">
        <time>2026-09-28T08:08:36Z</time>
      </trkpt>
      <trkpt lat="45.532558" lon="10.054455">
        <time>2026-09-28T08:08:38Z</time>
      </trkpt>
      <trkpt lat="45.532458" lon="10.054473">
        <time>2026-09-28T08:08:40Z</time>
      </trkpt>
      <trkpt lat="45.532359" lon="10.054490">
        <time>2026-09-28T08:08:42Z</time>
      </trkpt>
      <trkpt lat="45.532259" lon="10.054509">
        <time>2026-09-28T08:08:44Z</time>
      </trkpt>
      <trkpt lat="45.532160" lon="10.054529">
        <time>2026-09-28T08:08:46Z</time>
      </trkpt>
      <trkpt lat="45.532060" lon="10.054550">
        <time>2026-09-28T08:08:48Z</time>
      </trkpt>
      <trkpt lat="45.531961" lon="10.054572">
        <time>2026-09-28T08:08:50Z</time>
      </trkpt>
      <trkpt lat="45.531862" lon="10.054596">
        <time>2026-09-28T08:08:52Z</time>
      </trkpt>
      <trkpt lat="45.531763" lon="10.054620">
        <time>2026-09-28T08:08:54Z</time>
      </trkpt>
      <trkpt lat="45.531664" lon="10.054645">
        <time>2026-09-28T08:08:56Z</time>
      </trkpt>
      <trkpt lat="45.531565" lon="10.054671">
        <time>2026-09-28T08:08:58Z</time>
      </trkpt>
      <trkpt lat="45.531466" lon="10.054698">
        <time>2026-09-28T08:09:00Z</time>
      </trkpt>
      <trkpt lat="45.531367" lon="10.054725">
        <time>2026-09-28T08:09:02Z</time>
      </trkpt>
      <trkpt lat="45.531269" lon="10.054752">
        <time>2026-09-28T08:09:04Z</time>
      </trkpt>
      <trkpt lat="45.531170" lon="10.054778">
        <time>2026-09-28T08:09:06Z</time>
      </trkpt>
      <trkpt lat="45.531071" lon="10.054805">
        <time>2026-09-28T08:09:08Z</time>
      </trkpt>
      <trkpt lat="45.530973" lon="10.054833">
        <time>2026-09-28T08:09:10Z</time>
      </trkpt>
      <trkpt lat="45.530874" lon="10.054861">
        <time>2026-09-28T08:09:12Z</time>
      </trkpt>
      <trkpt lat="45.530776" lon="10.054888">
        <time>2026-09-28T08:09:14Z</time>
      </trkpt>
      <trkpt lat="45.530677" lon="10.054916">
        <time>2026-09-28T08:09:16Z</time>
      </trkpt>
      <trkpt lat="45.530578" lon="10.054943">
        <time>2026-09-28T08:09:18Z</time>
      </trkpt>
      <trkpt lat="45.530480" lon="10.054971">
        <time>2026-09-28T08:09:20Z</time>
      </trkpt>
      <trkpt lat="45.530381" lon="10.055000">
        <time>2026-09-28T08:09:22Z</time>
      </trkpt>
      <trkpt lat="45.530284" lon="10.055034">
        <time>2026-09-28T08:09:24Z</time>
      </trkpt>
      <trkpt lat="45.530186" lon="10.055068">
        <time>2026-09-28T08:09:26Z</time>
      </trkpt>
      <trkpt lat="45.530088" lon="10.055102">
        <time>2026-09-28T08:09:28Z</time>
      </trkpt>
      <trkpt lat="45.529991" lon="10.055136">
        <time>2026-09-28T08:09:30Z</time>
      </trkpt>
      <trkpt lat="45.529893" lon="10.055170">
        <time>2026-09-28T08:09:32Z</time>
      </trkpt>
      <trkpt lat="45.529796" lon="10.055206">
        <time>2026-09-28T08:09:34Z</time>
      </trkpt>
      <trkpt lat="45.529699" lon="10.055244">
        <time>2026-09-28T08:09:36Z</time>
      </trkpt>
      <trkpt lat="45.529602" lon="10.055282">
        <time>2026-09-28T08:09:38Z</time>
      </trkpt>
      <trkpt lat="45.529505" lon="10.055320">
        <time>2026-09-28T08:09:40Z</time>
      </trkpt>
      <trkpt lat="45.529409" lon="10.055358">
        <time>2026-09-28T08:09:42Z</time>
      </trkpt>
      <trkpt lat="45.529312" lon="10.055396">
        <time>2026-09-28T08:09:44Z</time>
      </trkpt>
      <trkpt lat="45.529215" lon="10.055436">
        <time>2026-09-28T08:09:46Z</time>
      </trkpt>
      <trkpt lat="45.529119" lon="10.055477">
        <time>2026-09-28T08:09:48Z</time>
      </trkpt>
      <trkpt lat="45.529023" lon="10.055521">
        <time>2026-09-28T08:09:50Z</time>
      </trkpt>
      <trkpt lat="45.528928" lon="10.055565">
        <time>2026-09-28T08:09:52Z</time>
      </trkpt>
      <trkpt lat="45.528832" lon="10.055609">
        <time>2026-09-28T08:09:54Z</time>
      </trkpt>
      <trkpt lat="45.528736" lon="10.055652">
        <time>2026-09-28T08:09:56Z</time>
      </trkpt>
      <trkpt lat="45.528641" lon="10.055696">
        <time>2026-09-28T08:09:58Z</time>
      </trkpt>
      <trkpt lat="45.528545" lon="10.055740">
        <time>2026-09-28T08:10:00Z</time>
      </trkpt>
      <trkpt lat="45.528449" lon="10.055783">
        <time>2026-09-28T08:10:02Z</time>
      </trkpt>
      <trkpt lat="45.528353" lon="10.055825">
        <time>2026-09-28T08:10:04Z</time>
      </trkpt>
      <trkpt lat="45.528257" lon="10.055864">
        <time>2026-09-28T08:10:06Z</time>
      </trkpt>
      <trkpt lat="45.528159" lon="10.055900">
        <time>2026-09-28T08:10:08Z</time>
      </trkpt>
      <trkpt lat="45.528062" lon="10.055935">
        <time>2026-09-28T08:10:10Z</time>
      </trkpt>
      <trkpt lat="45.527965" lon="10.055971">
        <time>2026-09-28T08:10:12Z</time>
      </trkpt>
      <trkpt lat="45.527867" lon="10.056006">
        <time>2026-09-28T08:10:14Z</time>
      </trkpt>
      <trkpt lat="45.527770" lon="10.056042">
        <time>2026-09-28T08:10:16Z</time>
      </trkpt>
      <trkpt lat="45.527673" lon="10.056077">
        <time>2026-09-28T08:10:18Z</time>
      </trkpt>
      <trkpt lat="45.527576" lon="10.056114">
        <time>2026-09-28T08:10:20Z</time>
      </trkpt>
      <trkpt lat="45.527479" lon="10.056152">
        <time>2026-09-28T08:10:22Z</time>
      </trkpt>
      <trkpt lat="45.527382" lon="10.056192">
        <time>2026-09-28T08:10:24Z</time>
      </trkpt>
      <trkpt lat="45.527286" lon="10.056232">
        <time>2026-09-28T08:10:26Z</time>
      </trkpt>
      <trkpt lat="45.527189" lon="10.056272">
        <time>2026-09-28T08:10:28Z</time>
      </trkpt>
      <trkpt lat="45.527093" lon="10.056313">
        <time>2026-09-28T08:10:30Z</time>
      </trkpt>
      <trkpt lat="45.526997" lon="10.056353">
        <time>2026-09-28T08:10:32Z</time>
      </trkpt>
      <trkpt lat="45.526900" lon="10.056394">
        <time>2026-09-28T08:10:34Z</time>
      </trkpt>
      <trkpt lat="45.526804" lon="10.056435">
        <time>2026-09-28T08:10:36Z</time>
      </trkpt>
      <trkpt lat="45.526708" lon="10.056476">
        <time>2026-09-28T08:10:38Z</time>
      </trkpt>
      <trkpt lat="45.526612" lon="10.056517">
        <time>2026-09-28T08:10:40Z</time>
      </trkpt>
      <trkpt lat="45.526516" lon="10.056559">
        <time>2026-09-28T08:10:42Z</time>
      </trkpt>
      <trkpt lat="45.526419" lon="10.056601">
        <time>2026-09-28T08:10:44Z</time>
      </trkpt>
      <trkpt lat="45.526324" lon="10.056647">
        <time>2026-09-28T08:10:46Z</time>
      </trkpt>
      <trkpt lat="45.526230" lon="10.056694">
        <time>2026-09-28T08:10:48Z</time>
      </trkpt>
      <trkpt lat="45.526138" lon="10.056752">
        <time>2026-09-28T08:10:50Z</time>
      </trkpt>
      <trkpt lat="45.526046" lon="10.056810">
        <time>2026-09-28T08:10:52Z</time>
      </trkpt>
      <trkpt lat="45.525954" lon="10.056868">
        <time>2026-09-28T08:10:54Z</time>
      </trkpt>
      <trkpt lat="45.525863" lon="10.056926">
        <time>2026-09-28T08:10:56Z</time>
      </trkpt>
      <trkpt lat="45.525770" lon="10.056984">
        <time>2026-09-28T08:10:58Z</time>
      </trkpt>
      <trkpt lat="45.525678" lon="10.057041">
        <time>2026-09-28T08:11:00Z</time>
      </trkpt>
      <trkpt lat="45.525586" lon="10.057098">
        <time>2026-09-28T08:11:02Z</time>
      </trkpt>
      <trkpt lat="45.525495" lon="10.057156">
        <time>2026-09-28T08:11:04Z</time>
      </trkpt>
      <trkpt lat="45.525403" lon="10.057215">
        <time>2026-09-28T08:11:06Z</time>
      </trkpt>
      <trkpt lat="45.525315" lon="10.057283">
        <time>2026-09-28T08:11:08Z</time>
      </trkpt>
      <trkpt lat="45.525227" lon="10.057353">
        <time>2026-09-28T08:11:10Z</time>
      </trkpt>
      <trkpt lat="45.525140" lon="10.057422">
        <time>2026-09-28T08:11:12Z</time>
      </trkpt>
      <trkpt lat="45.525052" lon="10.057493">
        <time>2026-09-28T08:11:14Z</time>
      </trkpt>
      <trkpt lat="45.524966" lon="10.057567">
        <time>2026-09-28T08:11:16Z</time>
      </trkpt>
      <trkpt lat="45.524882" lon="10.057643">
        <time>2026-09-28T08:11:18Z</time>
      </trkpt>
      <trkpt lat="45.524798" lon="10.057723">
        <time>2026-09-28T08:11:20Z</time>
      </trkpt>
      <trkpt lat="45.524715" lon="10.057802">
        <time>2026-09-28T08:11:22Z</time>
      </trkpt>
      <trkpt lat="45.524632" lon="10.057882">
        <time>2026-09-28T08:11:24Z</time>
      </trkpt>
      <trkpt lat="45.524548" lon="10.057961">
        <time>2026-09-28T08:11:26Z</time>
      </trkpt>
      <trkpt lat="45.524465" lon="10.058041">
        <time>2026-09-28T08:11:28Z</time>
      </trkpt>
      <trkpt lat="45.524382" lon="10.058121">
        <time>2026-09-28T08:11:30Z</time>
      </trkpt>
      <trkpt lat="45.524298" lon="10.058200">
        <time>2026-09-28T08:11:32Z</time>
      </trkpt>
      <trkpt lat="45.524215" lon="10.058280">
        <time>2026-09-28T08:11:34Z</time>
      </trkpt>
      <trkpt lat="45.524131" lon="10.058359">
        <time>2026-09-28T08:11:36Z</time>
      </trkpt>
      <trkpt lat="45.524048" lon="10.058439">
        <time>2026-09-28T08:11:38Z</time>
      </trkpt>
      <trkpt lat="45.523964" lon="10.058517">
        <time>2026-09-28T08:11:40Z</time>
      </trkpt>
      <trkpt lat="45.523880" lon="10.058594">
        <time>2026-09-28T08:11:42Z</time>
      </trkpt>
      <trkpt lat="45.523795" lon="10.058670">
        <time>2026-09-28T08:11:44Z</time>
      </trkpt>
      <trkpt lat="45.523710" lon="10.058746">
        <time>2026-09-28T08:11:46Z</time>
      </trkpt>
      <trkpt lat="45.523625" lon="10.058822">
        <time>2026-09-28T08:11:48Z</time>
      </trkpt>
      <trkpt lat="45.523540" lon="10.058898">
        <time>2026-09-28T08:11:50Z</time>
      </trkpt>
      <trkpt lat="45.523454" lon="10.058972">
        <time>2026-09-28T08:11:52Z</time>
      </trkpt>
      <trkpt lat="45.523368" lon="10.059046">
        <time>2026-09-28T08:11:54Z</time>
      </trkpt>
      <trkpt lat="45.523282" lon="10.059119">
        <time>2026-09-28T08:11:56Z</time>
      </trkpt>
      <trkpt lat="45.523195" lon="10.059192">
        <time>2026-09-28T08:11:58Z</time>
      </trkpt>
      <trkpt lat="45.523108" lon="10.059263">
        <time>2026-09-28T08:12:00Z</time>
      </trkpt>
      <trkpt lat="45.523021" lon="10.059334">
        <time>2026-09-28T08:12:02Z</time>
      </trkpt>
      <trkpt lat="45.522934" lon="10.059404">
        <time>2026-09-28T08:12:04Z</time>
      </trkpt>
      <trkpt lat="45.522846" lon="10.059474">
        <time>2026-09-28T08:12:06Z</time>
      </trkpt>
      <trkpt lat="45.522759" lon="10.059544">
        <time>2026-09-28T08:12:08Z</time>
      </trkpt>
      <trkpt lat="45.522671" lon="10.059614">
        <time>2026-09-28T08:12:10Z</time>
      </trkpt>
      <trkpt lat="45.522583" lon="10.059684">
        <time>2026-09-28T08:12:12Z</time>
      </trkpt>
      <trkpt lat="45.522496" lon="10.059754">
        <time>2026-09-28T08:12:14Z</time>
      </trkpt>
      <trkpt lat="45.522408" lon="10.059824">
        <time>2026-09-28T08:12:16Z</time>
      </trkpt>
      <trkpt lat="45.522321" lon="10.059894">
        <time>2026-09-28T08:12:18Z</time>
      </trkpt>
      <trkpt lat="45.522233" lon="10.059964">
        <time>2026-09-28T08:12:20Z</time>
      </trkpt>
      <trkpt lat="45.522146" lon="10.060033">
        <time>2026-09-28T08:12:22Z</time>
      </trkpt>
      <trkpt lat="45.522057" lon="10.060101">
        <time>2026-09-28T08:12:24Z</time>
      </trkpt>
      <trkpt lat="45.521969" lon="10.060168">
        <time>2026-09-28T08:12:26Z</time>
      </trkpt>
      <trkpt lat="45.521879" lon="10.060232">
        <time>2026-09-28T08:12:28Z</time>
      </trkpt>
      <trkpt lat="45.521790" lon="10.060297">
        <time>2026-09-28T08:12:30Z</time>
      </trkpt>
      <trkpt lat="45.521700" lon="10.060362">
        <time>2026-09-28T08:12:32Z</time>
      </trkpt>
      <trkpt lat="45.521611" lon="10.060427">
        <time>2026-09-28T08:12:34Z</time>
      </trkpt>
      <trkpt lat="45.521521" lon="10.060492">
        <time>2026-09-28T08:12:36Z</time>
      </trkpt>
      <trkpt lat="45.521432" lon="10.060558">
        <time>2026-09-28T08:12:38Z</time>
      </trkpt>
      <trkpt lat="45.521343" lon="10.060623">
        <time>2026-09-28T08:12:40Z</time>
      </trkpt>
      <trkpt lat="45.521253" lon="10.060688">
        <time>2026-09-28T08:12:42Z</time>
      </trkpt>
      <trkpt lat="45.521164" lon="10.060753">
        <time>2026-09-28T08:12:44Z</time>
      </trkpt>
      <trkpt lat="45.521074" lon="10.060818">
        <time>2026-09-28T08:12:46Z</time>
      </trkpt>
      <trkpt lat="45.520985" lon="10.060883">
        <time>2026-09-28T08:12:48Z</time>
      </trkpt>
      <trkpt lat="45.520896" lon="10.060948">
        <time>2026-09-28T08:12:50Z</time>
      </trkpt>
      <trkpt lat="45.520806" lon="10.061013">
        <time>2026-09-28T08:12:52Z</time>
      </trkpt>
      <trkpt lat="45.520717" lon="10.061078">
        <time>2026-09-28T08:12:54Z</time>
      </trkpt>
      <trkpt lat="45.520627" lon="10.061143">
        <time>2026-09-28T08:12:56Z</time>
      </trkpt>
      <trkpt lat="45.520538" lon="10.061208">
        <time>2026-09-28T08:12:58Z</time>
      </trkpt>
      <trkpt lat="45.520449" lon="10.061273">
        <time>2026-09-28T08:13:00Z</time>
      </trkpt>
      <trkpt lat="45.520359" lon="10.061338">
        <time>2026-09-28T08:13:02Z</time>
      </trkpt>
      <trkpt lat="45.520270" lon="10.061403">
        <time>2026-09-28T08:13:04Z</time>
      </trkpt>
      <trkpt lat="45.520180" lon="10.061468">
        <time>2026-09-28T08:13:06Z</time>
      </trkpt>
      <trkpt lat="45.520091" lon="10.061533">
        <time>2026-09-28T08:13:08Z</time>
      </trkpt>
      <trkpt lat="45.520002" lon="10.061599">
        <time>2026-09-28T08:13:10Z</time>
      </trkpt>
      <trkpt lat="45.519912" lon="10.061664">
        <time>2026-09-28T08:13:12Z</time>
      </trkpt>
      <trkpt lat="45.519823" lon="10.061729">
        <time>2026-09-28T08:13:14Z</time>
      </trkpt>
      <trkpt lat="45.519733" lon="10.061794">
        <time>2026-09-28T08:13:16Z</time>
      </trkpt>
      <trkpt lat="45.519644" lon="10.061860">
        <time>2026-09-28T08:13:18Z</time>
      </trkpt>
      <trkpt lat="45.519555" lon="10.061925">
        <time>2026-09-28T08:13:20Z</time>
      </trkpt>
      <trkpt lat="45.519466" lon="10.061991">
        <time>2026-09-28T08:13:22Z</time>
      </trkpt>
      <trkpt lat="45.519377" lon="10.062057">
        <time>2026-09-28T08:13:24Z</time>
      </trkpt>
      <trkpt lat="45.519288" lon="10.062123">
        <time>2026-09-28T08:13:26Z</time>
      </trkpt>
      <trkpt lat="45.519199" lon="10.062188">
        <time>2026-09-28T08:13:28Z</time>
      </trkpt>
      <trkpt lat="45.519109" lon="10.062254">
        <time>2026-09-28T08:13:30Z</time>
      </trkpt>
      <trkpt lat="45.519020" lon="10.062320">
        <time>2026-09-28T08:13:32Z</time>
      </trkpt>
      <trkpt lat="45.518931" lon="10.062385">
        <time>2026-09-28T08:13:34Z</time>
      </trkpt>
      <trkpt lat="45.518841" lon="10.062449">
        <time>2026-09-28T08:13:36Z</time>
      </trkpt>
      <trkpt lat="45.518751" lon="10.062513">
        <time>2026-09-28T08:13:38Z</time>
      </trkpt>
      <trkpt lat="45.518661" lon="10.062576">
        <time>2026-09-28T08:13:40Z</time>
      </trkpt>
      <trkpt lat="45.518571" lon="10.062639">
        <time>2026-09-28T08:13:42Z</time>
      </trkpt>
      <trkpt lat="45.518481" lon="10.062702">
        <time>2026-09-28T08:13:44Z</time>
      </trkpt>
      <trkpt lat="45.518391" lon="10.062765">
        <time>2026-09-28T08:13:46Z</time>
      </trkpt>
      <trkpt lat="45.518301" lon="10.062828">
        <time>2026-09-28T08:13:48Z</time>
      </trkpt>
      <trkpt lat="45.518211" lon="10.062891">
        <time>2026-09-28T08:13:50Z</time>
      </trkpt>
      <trkpt lat="45.518120" lon="10.062954">
        <time>2026-09-28T08:13:52Z</time>
      </trkpt>
      <trkpt lat="45.518030" lon="10.063017">
        <time>2026-09-28T08:13:54Z</time>
      </trkpt>
      <trkpt lat="45.517940" lon="10.063080">
        <time>2026-09-28T08:13:56Z</time>
      </trkpt>
      <trkpt lat="45.517850" lon="10.063143">
        <time>2026-09-28T08:13:58Z</time>
      </trkpt>
      <trkpt lat="45.517760" lon="10.063207">
        <time>2026-09-28T08:14:00Z</time>
      </trkpt>
      <trkpt lat="45.517670" lon="10.063270">
        <time>2026-09-28T08:14:02Z</time>
      </trkpt>
      <trkpt lat="45.517580" lon="10.063334">
        <time>2026-09-28T08:14:04Z</time>
      </trkpt>
      <trkpt lat="45.517491" lon="10.063398">
        <time>2026-09-28T08:14:06Z</time>
      </trkpt>
      <trkpt lat="45.517401" lon="10.063461">
        <time>2026-09-28T08:14:08Z</time>
      </trkpt>
      <trkpt lat="45.517311" lon="10.063525">
        <time>2026-09-28T08:14:10Z</time>
      </trkpt>
      <trkpt lat="45.517220" lon="10.063586">
        <time>2026-09-28T08:14:12Z</time>
      </trkpt>
      <trkpt lat="45.517129" lon="10.063647">
        <time>2026-09-28T08:14:14Z</time>
      </trkpt>
      <trkpt lat="45.517038" lon="10.063708">
        <time>2026-09-28T08:14:16Z</time>
      </trkpt>
      <trkpt lat="45.516948" lon="10.063770">
        <time>2026-09-28T08:14:18Z</time>
      </trkpt>
      <trkpt lat="45.516857" lon="10.063831">
        <time>2026-09-28T08:14:20Z</time>
      </trkpt>
      <trkpt lat="45.516766" lon="10.063892">
        <time>2026-09-28T08:14:22Z</time>
      </trkpt>
      <trkpt lat="45.516675" lon="10.063953">
        <time>2026-09-28T08:14:24Z</time>
      </trkpt>
      <trkpt lat="45.516585" lon="10.064014">
        <time>2026-09-28T08:14:26Z</time>
      </trkpt>
      <trkpt lat="45.516494" lon="10.064075">
        <time>2026-09-28T08:14:28Z</time>
      </trkpt>
      <trkpt lat="45.516403" lon="10.064136">
        <time>2026-09-28T08:14:30Z</time>
      </trkpt>
      <trkpt lat="45.516312" lon="10.064196">
        <time>2026-09-28T08:14:32Z</time>
      </trkpt>
      <trkpt lat="45.516221" lon="10.064256">
        <time>2026-09-28T08:14:34Z</time>
      </trkpt>
      <trkpt lat="45.516130" lon="10.064316">
        <time>2026-09-28T08:14:36Z</time>
      </trkpt>
      <trkpt lat="45.516039" lon="10.064377">
        <time>2026-09-28T08:14:38Z</time>
      </trkpt>
      <trkpt lat="45.515947" lon="10.064437">
        <time>2026-09-28T08:14:40Z</time>
      </trkpt>
      <trkpt lat="45.515856" lon="10.064497">
        <time>2026-09-28T08:14:42Z</time>
      </trkpt>
      <trkpt lat="45.515765" lon="10.064558">
        <time>2026-09-28T08:14:44Z</time>
      </trkpt>
      <trkpt lat="45.515674" lon="10.064618">
        <time>2026-09-28T08:14:46Z</time>
      </trkpt>
      <trkpt lat="45.515583" lon="10.064678">
        <time>2026-09-28T08:14:48Z</time>
      </trkpt>
      <trkpt lat="45.515492" lon="10.064739">
        <time>2026-09-28T08:14:50Z</time>
      </trkpt>
      <trkpt lat="45.515401" lon="10.064799">
        <time>2026-09-28T08:14:52Z</time>
      </trkpt>
      <trkpt lat="45.515310" lon="10.064859">
        <time>2026-09-28T08:14:54Z</time>
      </trkpt>
      <trkpt lat="45.515219" lon="10.064920">
        <time>2026-09-28T08:14:56Z</time>
      </trkpt>
      <trkpt lat="45.515128" lon="10.064981">
        <time>2026-09-28T08:14:58Z</time>
      </trkpt>
      <trkpt lat="45.515038" lon="10.065042">
        <time>2026-09-28T08:15:00Z</time>
      </trkpt>
      <trkpt lat="45.514947" lon="10.065103">
        <time>2026-09-28T08:15:02Z</time>
      </trkpt>
      <trkpt lat="45.514856" lon="10.065164">
        <time>2026-09-28T08:15:04Z</time>
      </trkpt>
      <trkpt lat="45.514765" lon="10.065225">
        <time>2026-09-28T08:15:06Z</time>
      </trkpt>
      <trkpt lat="45.514674" lon="10.065285">
        <time>2026-09-28T08:15:08Z</time>
      </trkpt>
      <trkpt lat="45.514583" lon="10.065346">
        <time>2026-09-28T08:15:10Z</time>
      </trkpt>
      <trkpt lat="45.514492" lon="10.065406">
        <time>2026-09-28T08:15:12Z</time>
      </trkpt>
      <trkpt lat="45.514401" lon="10.065467">
        <time>2026-09-28T08:15:14Z</time>
      </trkpt>
      <trkpt lat="45.514310" lon="10.065528">
        <time>2026-09-28T08:15:16Z</time>
      </trkpt>
      <trkpt lat="45.514219" lon="10.065588">
        <time>2026-09-28T08:15:18Z</time>
      </trkpt>
      <trkpt lat="45.514128" lon="10.065649">
        <time>2026-09-28T08:15:20Z</time>
      </trkpt>
      <trkpt lat="45.514038" lon="10.065710">
        <time>2026-09-28T08:15:22Z</time>
      </trkpt>
      <trkpt lat="45.513947" lon="10.065770">
        <time>2026-09-28T08:15:24Z</time>
      </trkpt>
      <trkpt lat="45.513856" lon="10.065831">
        <time>2026-09-28T08:15:26Z</time>
      </trkpt>
      <trkpt lat="45.513765" lon="10.065892">
        <time>2026-09-28T08:15:28Z</time>
      </trkpt>
      <trkpt lat="45.513674" lon="10.065952">
        <time>2026-09-28T08:15:30Z</time>
      </trkpt>
      <trkpt lat="45.513583" lon="10.066013">
        <time>2026-09-28T08:15:32Z</time>
      </trkpt>
      <trkpt lat="45.513492" lon="10.066073">
        <time>2026-09-28T08:15:34Z</time>
      </trkpt>
      <trkpt lat="45.513401" lon="10.066134">
        <time>2026-09-28T08:15:36Z</time>
      </trkpt>
      <trkpt lat="45.513310" lon="10.066194">
        <time>2026-09-28T08:15:38Z</time>
      </trkpt>
      <trkpt lat="45.513219" lon="10.066254">
        <time>2026-09-28T08:15:40Z</time>
      </trkpt>
      <trkpt lat="45.513127" lon="10.066314">
        <time>2026-09-28T08:15:42Z</time>
      </trkpt>
      <trkpt lat="45.513036" lon="10.066373">
        <time>2026-09-28T08:15:44Z</time>
      </trkpt>
      <trkpt lat="45.512945" lon="10.066433">
        <time>2026-09-28T08:15:46Z</time>
      </trkpt>
      <trkpt lat="45.512854" lon="10.066493">
        <time>2026-09-28T08:15:48Z</time>
      </trkpt>
      <trkpt lat="45.512762" lon="10.066552">
        <time>2026-09-28T08:15:50Z</time>
      </trkpt>
      <trkpt lat="45.512671" lon="10.066612">
        <time>2026-09-28T08:15:52Z</time>
      </trkpt>
      <trkpt lat="45.512580" lon="10.066672">
        <time>2026-09-28T08:15:54Z</time>
      </trkpt>
      <trkpt lat="45.512489" lon="10.066731">
        <time>2026-09-28T08:15:56Z</time>
      </trkpt>
      <trkpt lat="45.512397" lon="10.066791">
        <time>2026-09-28T08:15:58Z</time>
      </trkpt>
      <trkpt lat="45.512306" lon="10.066850">
        <time>2026-09-28T08:16:00Z</time>
      </trkpt>
      <trkpt lat="45.512215" lon="10.066910">
        <time>2026-09-28T08:16:02Z</time>
      </trkpt>
      <trkpt lat="45.512124" lon="10.066970">
        <time>2026-09-28T08:16:04Z</time>
      </trkpt>
      <trkpt lat="45.512032" lon="10.067030">
        <time>2026-09-28T08:16:06Z</time>
      </trkpt>
      <trkpt lat="45.511941" lon="10.067090">
        <time>2026-09-28T08:16:08Z</time>
      </trkpt>
      <trkpt lat="45.511850" lon="10.067150">
        <time>2026-09-28T08:16:10Z</time>
      </trkpt>
      <trkpt lat="45.511759" lon="10.067210">
        <time>2026-09-28T08:16:12Z</time>
      </trkpt>
      <trkpt lat="45.511668" lon="10.067270">
        <time>2026-09-28T08:16:14Z</time>
      </trkpt>
      <trkpt lat="45.511577" lon="10.067330">
        <time>2026-09-28T08:16:16Z</time>
      </trkpt>
      <trkpt lat="45.511486" lon="10.067390">
        <time>2026-09-28T08:16:18Z</time>
      </trkpt>
      <trkpt lat="45.511395" lon="10.067450">
        <time>2026-09-28T08:16:20Z</time>
      </trkpt>
      <trkpt lat="45.511304" lon="10.067511">
        <time>2026-09-28T08:16:22Z</time>
      </trkpt>
      <trkpt lat="45.511213" lon="10.067572">
        <time>2026-09-28T08:16:24Z</time>
      </trkpt>
      <trkpt lat="45.511122" lon="10.067633">
        <time>2026-09-28T08:16:26Z</time>
      </trkpt>
      <trkpt lat="45.511031" lon="10.067694">
        <time>2026-09-28T08:16:28Z</time>
      </trkpt>
      <trkpt lat="45.510940" lon="10.067755">
        <time>2026-09-28T08:16:30Z</time>
      </trkpt>
      <trkpt lat="45.510850" lon="10.067816">
        <time>2026-09-28T08:16:32Z</time>
      </trkpt>
      <trkpt lat="45.510759" lon="10.067877">
        <time>2026-09-28T08:16:34Z</time>
      </trkpt>
      <trkpt lat="45.510668" lon="10.067938">
        <time>2026-09-28T08:16:36Z</time>
      </trkpt>
      <trkpt lat="45.510577" lon="10.067999">
        <time>2026-09-28T08:16:38Z</time>
      </trkpt>
      <trkpt lat="45.510486" lon="10.068059">
        <time>2026-09-28T08:16:40Z</time>
      </trkpt>
      <trkpt lat="45.510395" lon="10.068119">
        <time>2026-09-28T08:16:42Z</time>
      </trkpt>
      <trkpt lat="45.510304" lon="10.068180">
        <time>2026-09-28T08:16:44Z</time>
      </trkpt>
      <trkpt lat="45.510213" lon="10.068240">
        <time>2026-09-28T08:16:46Z</time>
      </trkpt>
      <trkpt lat="45.510122" lon="10.068301">
        <time>2026-09-28T08:16:48Z</time>
      </trkpt>
      <trkpt lat="45.510031" lon="10.068362">
        <time>2026-09-28T08:16:50Z</time>
      </trkpt>
      <trkpt lat="45.509940" lon="10.068423">
        <time>2026-09-28T08:16:52Z</time>
      </trkpt>
      <trkpt lat="45.509849" lon="10.068483">
        <time>2026-09-28T08:16:54Z</time>
      </trkpt>
      <trkpt lat="45.509758" lon="10.068544">
        <time>2026-09-28T08:16:56Z</time>
      </trkpt>
      <trkpt lat="45.509668" lon="10.068605">
        <time>2026-09-28T08:16:58Z</time>
      </trkpt>
      <trkpt lat="45.509577" lon="10.068666">
        <time>2026-09-28T08:17:00Z</time>
      </trkpt>
      <trkpt lat="45.509486" lon="10.068726">
        <time>2026-09-28T08:17:02Z</time>
      </trkpt>
      <trkpt lat="45.509395" lon="10.068787">
        <time>2026-09-28T08:17:04Z</time>
      </trkpt>
      <trkpt lat="45.509304" lon="10.068848">
        <time>2026-09-28T08:17:06Z</time>
      </trkpt>
      <trkpt lat="45.509213" lon="10.068909">
        <time>2026-09-28T08:17:08Z</time>
      </trkpt>
      <trkpt lat="45.509122" lon="10.068969">
        <time>2026-09-28T08:17:10Z</time>
      </trkpt>
      <trkpt lat="45.509031" lon="10.069030">
        <time>2026-09-28T08:17:12Z</time>
      </trkpt>
      <trkpt lat="45.508940" lon="10.069091">
        <time>2026-09-28T08:17:14Z</time>
      </trkpt>
      <trkpt lat="45.508850" lon="10.069152">
        <time>2026-09-28T08:17:16Z</time>
      </trkpt>
      <trkpt lat="45.508759" lon="10.069213">
        <time>2026-09-28T08:17:18Z</time>
      </trkpt>
      <trkpt lat="45.508668" lon="10.069273">
        <time>2026-09-28T08:17:20Z</time>
      </trkpt>
      <trkpt lat="45.508577" lon="10.069334">
        <time>2026-09-28T08:17:22Z</time>
      </trkpt>
      <trkpt lat="45.508486" lon="10.069395">
        <time>2026-09-28T08:17:24Z</time>
      </trkpt>
      <trkpt lat="45.508395" lon="10.069456">
        <time>2026-09-28T08:17:26Z</time>
      </trkpt>
      <trkpt lat="45.508304" lon="10.069517">
        <time>2026-09-28T08:17:28Z</time>
      </trkpt>
      <trkpt lat="45.508214" lon="10.069578">
        <time>2026-09-28T08:17:30Z</time>
      </trkpt>
      <trkpt lat="45.508123" lon="10.069639">
        <time>2026-09-28T08:17:32Z</time>
      </trkpt>
      <trkpt lat="45.508033" lon="10.069702">
        <time>2026-09-28T08:17:34Z</time>
      </trkpt>
      <trkpt lat="45.507942" lon="10.069764">
        <time>2026-09-28T08:17:36Z</time>
      </trkpt>
      <trkpt lat="45.507852" lon="10.069827">
        <time>2026-09-28T08:17:38Z</time>
      </trkpt>
      <trkpt lat="45.507762" lon="10.069890">
        <time>2026-09-28T08:17:40Z</time>
      </trkpt>
      <trkpt lat="45.507672" lon="10.069953">
        <time>2026-09-28T08:17:42Z</time>
      </trkpt>
      <trkpt lat="45.507582" lon="10.070016">
        <time>2026-09-28T08:17:44Z</time>
      </trkpt>
      <trkpt lat="45.507492" lon="10.070079">
        <time>2026-09-28T08:17:46Z</time>
      </trkpt>
      <trkpt lat="45.507402" lon="10.070144">
        <time>2026-09-28T08:17:48Z</time>
      </trkpt>
      <trkpt lat="45.507312" lon="10.070208">
        <time>2026-09-28T08:17:50Z</time>
      </trkpt>
      <trkpt lat="45.507223" lon="10.070273">
        <time>2026-09-28T08:17:52Z</time>
      </trkpt>
      <trkpt lat="45.507134" lon="10.070338">
        <time>2026-09-28T08:17:54Z</time>
      </trkpt>
      <trkpt lat="45.507044" lon="10.070404">
        <time>2026-09-28T08:17:56Z</time>
      </trkpt>
      <trkpt lat="45.506955" lon="10.070470">
        <time>2026-09-28T08:17:58Z</time>
      </trkpt>
      <trkpt lat="45.506867" lon="10.070539">
        <time>2026-09-28T08:18:00Z</time>
      </trkpt>
      <trkpt lat="45.506779" lon="10.070607">
        <time>2026-09-28T08:18:02Z</time>
      </trkpt>
      <trkpt lat="45.506691" lon="10.070675">
        <time>2026-09-28T08:18:04Z</time>
      </trkpt>
      <trkpt lat="45.506603" lon="10.070744">
        <time>2026-09-28T08:18:06Z</time>
      </trkpt>
      <trkpt lat="45.506515" lon="10.070813">
        <time>2026-09-28T08:18:08Z</time>
      </trkpt>
      <trkpt lat="45.506428" lon="10.070885">
        <time>2026-09-28T08:18:10Z</time>
      </trkpt>
      <trkpt lat="45.506341" lon="10.070956">
        <time>2026-09-28T08:18:12Z</time>
      </trkpt>
      <trkpt lat="45.506254" lon="10.071027">
        <time>2026-09-28T08:18:14Z</time>
      </trkpt>
      <trkpt lat="45.506167" lon="10.071099">
        <time>2026-09-28T08:18:16Z</time>
      </trkpt>
      <trkpt lat="45.506080" lon="10.071170">
        <time>2026-09-28T08:18:18Z</time>
      </trkpt>
      <trkpt lat="45.505994" lon="10.071243">
        <time>2026-09-28T08:18:20Z</time>
      </trkpt>
      <trkpt lat="45.505908" lon="10.071316">
        <time>2026-09-28T08:18:22Z</time>
      </trkpt>
      <trkpt lat="45.505822" lon="10.071390">
        <time>2026-09-28T08:18:24Z</time>
      </trkpt>
      <trkpt lat="45.505736" lon="10.071465">
        <time>2026-09-28T08:18:26Z</time>
      </trkpt>
      <trkpt lat="45.505651" lon="10.071539">
        <time>2026-09-28T08:18:28Z</time>
      </trkpt>
      <trkpt lat="45.505565" lon="10.071613">
        <time>2026-09-28T08:18:30Z</time>
      </trkpt>
      <trkpt lat="45.505479" lon="10.071688">
        <time>2026-09-28T08:18:32Z</time>
      </trkpt>
      <trkpt lat="45.505394" lon="10.071764">
        <time>2026-09-28T08:18:34Z</time>
      </trkpt>
      <trkpt lat="45.505311" lon="10.071843">
        <time>2026-09-28T08:18:36Z</time>
      </trkpt>
      <trkpt lat="45.505227" lon="10.071922">
        <time>2026-09-28T08:18:38Z</time>
      </trkpt>
      <trkpt lat="45.505144" lon="10.072002">
        <time>2026-09-28T08:18:40Z</time>
      </trkpt>
      <trkpt lat="45.505061" lon="10.072082">
        <time>2026-09-28T08:18:42Z</time>
      </trkpt>
      <trkpt lat="45.504978" lon="10.072162">
        <time>2026-09-28T08:18:44Z</time>
      </trkpt>
      <trkpt lat="45.504896" lon="10.072245">
        <time>2026-09-28T08:18:46Z</time>
      </trkpt>
      <trkpt lat="45.504814" lon="10.072327">
        <time>2026-09-28T08:18:48Z</time>
      </trkpt>
      <trkpt lat="45.504732" lon="10.072409">
        <time>2026-09-28T08:18:50Z</time>
      </trkpt>
      <trkpt lat="45.504650" lon="10.072491">
        <time>2026-09-28T08:18:52Z</time>
      </trkpt>
      <trkpt lat="45.504567" lon="10.072573">
        <time>2026-09-28T08:18:54Z</time>
      </trkpt>
      <trkpt lat="45.504486" lon="10.072657">
        <time>2026-09-28T08:18:56Z</time>
      </trkpt>
      <trkpt lat="45.504405" lon="10.072741">
        <time>2026-09-28T08:18:58Z</time>
      </trkpt>
      <trkpt lat="45.504326" lon="10.072829">
        <time>2026-09-28T08:19:00Z</time>
      </trkpt>
      <trkpt lat="45.504248" lon="10.072918">
        <time>2026-09-28T08:19:02Z</time>
      </trkpt>
      <trkpt lat="45.504168" lon="10.073005">
        <time>2026-09-28T08:19:04Z</time>
      </trkpt>
      <trkpt lat="45.504089" lon="10.073092">
        <time>2026-09-28T08:19:06Z</time>
      </trkpt>
      <trkpt lat="45.504009" lon="10.073179">
        <time>2026-09-28T08:19:08Z</time>
      </trkpt>
      <trkpt lat="45.503931" lon="10.073268">
        <time>2026-09-28T08:19:10Z</time>
      </trkpt>
      <trkpt lat="45.503853" lon="10.073359">
        <time>2026-09-28T08:19:12Z</time>
      </trkpt>
      <trkpt lat="45.503777" lon="10.073451">
        <time>2026-09-28T08:19:14Z</time>
      </trkpt>
      <trkpt lat="45.503701" lon="10.073544">
        <time>2026-09-28T08:19:16Z</time>
      </trkpt>
      <trkpt lat="45.503624" lon="10.073637">
        <time>2026-09-28T08:19:18Z</time>
      </trkpt>
      <trkpt lat="45.503548" lon="10.073730">
        <time>2026-09-28T08:19:20Z</time>
      </trkpt>
      <trkpt lat="45.503472" lon="10.073823">
        <time>2026-09-28T08:19:22Z</time>
      </trkpt>
      <trkpt lat="45.503396" lon="10.073916">
        <time>2026-09-28T08:19:24Z</time>
      </trkpt>
      <trkpt lat="45.503320" lon="10.074009">
        <time>2026-09-28T08:19:26Z</time>
      </trkpt>
      <trkpt lat="45.503244" lon="10.074102">
        <time>2026-09-28T08:19:28Z</time>
      </trkpt>
      <trkpt lat="45.503168" lon="10.074195">
        <time>2026-09-28T08:19:30Z</time>
      </trkpt>
      <trkpt lat="45.503093" lon="10.074290">
        <time>2026-09-28T08:19:32Z</time>
      </trkpt>
      <trkpt lat="45.503019" lon="10.074386">
        <time>2026-09-28T08:19:34Z</time>
      </trkpt>
      <trkpt lat="45.502946" lon="10.074484">
        <time>2026-09-28T08:19:36Z</time>
      </trkpt>
      <trkpt lat="45.502874" lon="10.074583">
        <time>2026-09-28T08:19:38Z</time>
      </trkpt>
      <trkpt lat="45.502801" lon="10.074681">
        <time>2026-09-28T08:19:40Z</time>
      </trkpt>
      <trkpt lat="45.502728" lon="10.074779">
        <time>2026-09-28T08:19:42Z</time>
      </trkpt>
      <trkpt lat="45.502655" lon="10.074877">
        <time>2026-09-28T08:19:44Z</time>
      </trkpt>
      <trkpt lat="45.502583" lon="10.074976">
        <time>2026-09-28T08:19:46Z</time>
      </trkpt>
      <trkpt lat="45.502510" lon="10.075074">
        <time>2026-09-28T08:19:48Z</time>
      </trkpt>
      <trkpt lat="45.502438" lon="10.075173">
        <time>2026-09-28T08:19:50Z</time>
      </trkpt>
      <trkpt lat="45.502366" lon="10.075272">
        <time>2026-09-28T08:19:52Z</time>
      </trkpt>
      <trkpt lat="45.502294" lon="10.075372">
        <time>2026-09-28T08:19:54Z</time>
      </trkpt>
      <trkpt lat="45.502222" lon="10.075472">
        <time>2026-09-28T08:19:56Z</time>
      </trkpt>
      <trkpt lat="45.502151" lon="10.075571">
        <time>2026-09-28T08:19:58Z</time>
      </trkpt>
      <trkpt lat="45.502079" lon="10.075671">
        <time>2026-09-28T08:20:00Z</time>
      </trkpt>
      <trkpt lat="45.502007" lon="10.075771">
        <time>2026-09-28T08:20:02Z</time>
      </trkpt>
      <trkpt lat="45.501935" lon="10.075871">
        <time>2026-09-28T08:20:04Z</time>
      </trkpt>
      <trkpt lat="45.501864" lon="10.075970">
        <time>2026-09-28T08:20:06Z</time>
      </trkpt>
      <trkpt lat="45.501792" lon="10.076069">
        <time>2026-09-28T08:20:08Z</time>
      </trkpt>
      <trkpt lat="45.501719" lon="10.076168">
        <time>2026-09-28T08:20:10Z</time>
      </trkpt>
      <trkpt lat="45.501648" lon="10.076269">
        <time>2026-09-28T08:20:12Z</time>
      </trkpt>
      <trkpt lat="45.501578" lon="10.076370">
        <time>2026-09-28T08:20:14Z</time>
      </trkpt>
      <trkpt lat="45.501508" lon="10.076472">
        <time>2026-09-28T08:20:16Z</time>
      </trkpt>
      <trkpt lat="45.501437" lon="10.076574">
        <time>2026-09-28T08:20:18Z</time>
      </trkpt>
      <trkpt lat="45.501367" lon="10.076676">
        <time>2026-09-28T08:20:20Z</time>
      </trkpt>
      <trkpt lat="45.501297" lon="10.076778">
        <time>2026-09-28T08:20:22Z</time>
      </trkpt>
      <trkpt lat="45.501227" lon="10.076880">
        <time>2026-09-28T08:20:24Z</time>
      </trkpt>
      <trkpt lat="45.501157" lon="10.076983">
        <time>2026-09-28T08:20:26Z</time>
      </trkpt>
      <trkpt lat="45.501087" lon="10.077085">
        <time>2026-09-28T08:20:28Z</time>
      </trkpt>
      <trkpt lat="45.501017" lon="10.077187">
        <time>2026-09-28T08:20:30Z</time>
      </trkpt>
      <trkpt lat="45.500947" lon="10.077289">
        <time>2026-09-28T08:20:32Z</time>
      </trkpt>
      <trkpt lat="45.500877" lon="10.077391">
        <time>2026-09-28T08:20:34Z</time>
      </trkpt>
      <trkpt lat="45.500807" lon="10.077493">
        <time>2026-09-28T08:20:36Z</time>
      </trkpt>
      <trkpt lat="45.500737" lon="10.077594">
        <time>2026-09-28T08:20:38Z</time>
      </trkpt>
      <trkpt lat="45.500666" lon="10.077696">
        <time>2026-09-28T08:20:40Z</time>
      </trkpt>
      <trkpt lat="45.500595" lon="10.077797">
        <time>2026-09-28T08:20:42Z</time>
      </trkpt>
      <trkpt lat="45.500525" lon="10.077898">
        <time>2026-09-28T08:20:44Z</time>
      </trkpt>
      <trkpt lat="45.500454" lon="10.077999">
        <time>2026-09-28T08:20:46Z</time>
      </trkpt>
      <trkpt lat="45.500383" lon="10.078101">
        <time>2026-09-28T08:20:48Z</time>
      </trkpt>
      <trkpt lat="45.500313" lon="10.078202">
        <time>2026-09-28T08:20:50Z</time>
      </trkpt>
      <trkpt lat="45.500242" lon="10.078303">
        <time>2026-09-28T08:20:52Z</time>
      </trkpt>
      <trkpt lat="45.500172" lon="10.078405">
        <time>2026-09-28T08:20:54Z</time>
      </trkpt>
      <trkpt lat="45.500102" lon="10.078507">
        <time>2026-09-28T08:20:56Z</time>
      </trkpt>
      <trkpt lat="45.500031" lon="10.078609">
        <time>2026-09-28T08:20:58Z</time>
      </trkpt>
      <trkpt lat="45.499961" lon="10.078710">
        <time>2026-09-28T08:21:00Z</time>
      </trkpt>
      <trkpt lat="45.499891" lon="10.078812">
        <time>2026-09-28T08:21:02Z</time>
      </trkpt>
      <trkpt lat="45.499820" lon="10.078914">
        <time>2026-09-28T08:21:04Z</time>
      </trkpt>
      <trkpt lat="45.499750" lon="10.079015">
        <time>2026-09-28T08:21:06Z</time>
      </trkpt>
      <trkpt lat="45.499679" lon="10.079116">
        <time>2026-09-28T08:21:08Z</time>
      </trkpt>
      <trkpt lat="45.499608" lon="10.079217">
        <time>2026-09-28T08:21:10Z</time>
      </trkpt>
      <trkpt lat="45.499538" lon="10.079318">
        <time>2026-09-28T08:21:12Z</time>
      </trkpt>
      <trkpt lat="45.499467" lon="10.079419">
        <time>2026-09-28T08:21:14Z</time>
      </trkpt>
      <trkpt lat="45.499396" lon="10.079520">
        <time>2026-09-28T08:21:16Z</time>
      </trkpt>
      <trkpt lat="45.499325" lon="10.079621">
        <time>2026-09-28T08:21:18Z</time>
      </trkpt>
      <trkpt lat="45.499255" lon="10.079723">
        <time>2026-09-28T08:21:20Z</time>
      </trkpt>
      <trkpt lat="45.499184" lon="10.079824">
        <time>2026-09-28T08:21:22Z</time>
      </trkpt>
      <trkpt lat="45.499113" lon="10.079925">
        <time>2026-09-28T08:21:24Z</time>
      </trkpt>
      <trkpt lat="45.499042" lon="10.080026">
        <time>2026-09-28T08:21:26Z</time>
      </trkpt>
      <trkpt lat="45.498972" lon="10.080127">
        <time>2026-09-28T08:21:28Z</time>
      </trkpt>
      <trkpt lat="45.498901" lon="10.080228">
        <time>2026-09-28T08:21:30Z</time>
      </trkpt>
      <trkpt lat="45.498830" lon="10.080329">
        <time>2026-09-28T08:21:32Z</time>
      </trkpt>
      <trkpt lat="45.498759" lon="10.080430">
        <time>2026-09-28T08:21:34Z</time>
      </trkpt>
      <trkpt lat="45.498688" lon="10.080530">
        <time>2026-09-28T08:21:36Z</time>
      </trkpt>
      <trkpt lat="45.498617" lon="10.080631">
        <time>2026-09-28T08:21:38Z</time>
      </trkpt>
      <trkpt lat="45.498545" lon="10.080731">
        <time>2026-09-28T08:21:40Z</time>
      </trkpt>
      <trkpt lat="45.498474" lon="10.080832">
        <time>2026-09-28T08:21:42Z</time>
      </trkpt>
      <trkpt lat="45.498403" lon="10.080932">
        <time>2026-09-28T08:21:44Z</time>
      </trkpt>
      <trkpt lat="45.498333" lon="10.081034">
        <time>2026-09-28T08:21:46Z</time>
      </trkpt>
      <trkpt lat="45.498262" lon="10.081136">
        <time>2026-09-28T08:21:48Z</time>
      </trkpt>
      <trkpt lat="45.498193" lon="10.081238">
        <time>2026-09-28T08:21:50Z</time>
      </trkpt>
      <trkpt lat="45.498123" lon="10.081340">
        <time>2026-09-28T08:21:52Z</time>
      </trkpt>
      <trkpt lat="45.498053" lon="10.081442">
        <time>2026-09-28T08:21:54Z</time>
      </trkpt>
      <trkpt lat="45.497983" lon="10.081544">
        <time>2026-09-28T08:21:56Z</time>
      </trkpt>
      <trkpt lat="45.497913" lon="10.081646">
        <time>2026-09-28T08:21:58Z</time>
      </trkpt>
      <trkpt lat="45.497843" lon="10.081749">
        <time>2026-09-28T08:22:00Z</time>
      </trkpt>
      <trkpt lat="45.497772" lon="10.081850">
        <time>2026-09-28T08:22:02Z</time>
      </trkpt>
      <trkpt lat="45.497702" lon="10.081952">
        <time>2026-09-28T08:22:04Z</time>
      </trkpt>
      <trkpt lat="45.497632" lon="10.082054">
        <time>2026-09-28T08:22:06Z</time>
      </trkpt>
      <trkpt lat="45.497562" lon="10.082156">
        <time>2026-09-28T08:22:08Z</time>
      </trkpt>
      <trkpt lat="45.497492" lon="10.082258">
        <time>2026-09-28T08:22:10Z</time>
      </trkpt>
      <trkpt lat="45.497422" lon="10.082360">
        <time>2026-09-28T08:22:12Z</time>
      </trkpt>
      <trkpt lat="45.497351" lon="10.082462">
        <time>2026-09-28T08:22:14Z</time>
      </trkpt>
      <trkpt lat="45.497281" lon="10.082563">
        <time>2026-09-28T08:22:16Z</time>
      </trkpt>
      <trkpt lat="45.497210" lon="10.082664">
        <time>2026-09-28T08:22:18Z</time>
      </trkpt>
      <trkpt lat="45.497140" lon="10.082766">
        <time>2026-09-28T08:22:20Z</time>
      </trkpt>
      <trkpt lat="45.497069" lon="10.082867">
        <time>2026-09-28T08:22:22Z</time>
      </trkpt>
      <trkpt lat="45.496998" lon="10.082969">
        <time>2026-09-28T08:22:24Z</time>
      </trkpt>
      <trkpt lat="45.496929" lon="10.083071">
        <time>2026-09-28T08:22:26Z</time>
      </trkpt>
      <trkpt lat="45.496859" lon="10.083173">
        <time>2026-09-28T08:22:28Z</time>
      </trkpt>
      <trkpt lat="45.496789" lon="10.083275">
        <time>2026-09-28T08:22:30Z</time>
      </trkpt>
      <trkpt lat="45.496719" lon="10.083378">
        <time>2026-09-28T08:22:32Z</time>
      </trkpt>
      <trkpt lat="45.496649" lon="10.083480">
        <time>2026-09-28T08:22:34Z</time>
      </trkpt>
      <trkpt lat="45.496579" lon="10.083582">
        <time>2026-09-28T08:22:36Z</time>
      </trkpt>
      <trkpt lat="45.496509" lon="10.083684">
        <time>2026-09-28T08:22:38Z</time>
      </trkpt>
      <trkpt lat="45.496439" lon="10.083787">
        <time>2026-09-28T08:22:40Z</time>
      </trkpt>
      <trkpt lat="45.496370" lon="10.083889">
        <time>2026-09-28T08:22:42Z</time>
      </trkpt>
      <trkpt lat="45.496300" lon="10.083992">
        <time>2026-09-28T08:22:44Z</time>
      </trkpt>
      <trkpt lat="45.496230" lon="10.084094">
        <time>2026-09-28T08:22:46Z</time>
      </trkpt>
      <trkpt lat="45.496161" lon="10.084197">
        <time>2026-09-28T08:22:48Z</time>
      </trkpt>
      <trkpt lat="45.496091" lon="10.084300">
        <time>2026-09-28T08:22:50Z</time>
      </trkpt>
      <trkpt lat="45.496022" lon="10.084403">
        <time>2026-09-28T08:22:52Z</time>
      </trkpt>
      <trkpt lat="45.495953" lon="10.084506">
        <time>2026-09-28T08:22:54Z</time>
      </trkpt>
      <trkpt lat="45.495884" lon="10.084610">
        <time>2026-09-28T08:22:56Z</time>
      </trkpt>
      <trkpt lat="45.495814" lon="10.084713">
        <time>2026-09-28T08:22:58Z</time>
      </trkpt>
      <trkpt lat="45.495745" lon="10.084816">
        <time>2026-09-28T08:23:00Z</time>
      </trkpt>
      <trkpt lat="45.495677" lon="10.084920">
        <time>2026-09-28T08:23:02Z</time>
      </trkpt>
      <trkpt lat="45.495608" lon="10.085024">
        <time>2026-09-28T08:23:04Z</time>
      </trkpt>
      <trkpt lat="45.495540" lon="10.085129">
        <time>2026-09-28T08:23:06Z</time>
      </trkpt>
      <trkpt lat="45.495471" lon="10.085233">
        <time>2026-09-28T08:23:08Z</time>
      </trkpt>
      <trkpt lat="45.495403" lon="10.085337">
        <time>2026-09-28T08:23:10Z</time>
      </trkpt>
      <trkpt lat="45.495335" lon="10.085442">
        <time>2026-09-28T08:23:12Z</time>
      </trkpt>
      <trkpt lat="45.495266" lon="10.085546">
        <time>2026-09-28T08:23:14Z</time>
      </trkpt>
      <trkpt lat="45.495200" lon="10.085652">
        <time>2026-09-28T08:23:16Z</time>
      </trkpt>
      <trkpt lat="45.495134" lon="10.085760">
        <time>2026-09-28T08:23:18Z</time>
      </trkpt>
      <trkpt lat="45.495067" lon="10.085867">
        <time>2026-09-28T08:23:20Z</time>
      </trkpt>
      <trkpt lat="45.495001" lon="10.085974">
        <time>2026-09-28T08:23:22Z</time>
      </trkpt>
      <trkpt lat="45.494935" lon="10.086081">
        <time>2026-09-28T08:23:24Z</time>
      </trkpt>
      <trkpt lat="45.494869" lon="10.086189">
        <time>2026-09-28T08:23:26Z</time>
      </trkpt>
      <trkpt lat="45.494803" lon="10.086296">
        <time>2026-09-28T08:23:28Z</time>
      </trkpt>
      <trkpt lat="45.494737" lon="10.086403">
        <time>2026-09-28T08:23:30Z</time>
      </trkpt>
      <trkpt lat="45.494671" lon="10.086510">
        <time>2026-09-28T08:23:32Z</time>
      </trkpt>
      <trkpt lat="45.494605" lon="10.086617">
        <time>2026-09-28T08:23:34Z</time>
      </trkpt>
      <trkpt lat="45.494539" lon="10.086725">
        <time>2026-09-28T08:23:36Z</time>
      </trkpt>
      <trkpt lat="45.494473" lon="10.086832">
        <time>2026-09-28T08:23:38Z</time>
      </trkpt>
      <trkpt lat="45.494406" lon="10.086939">
        <time>2026-09-28T08:23:40Z</time>
      </trkpt>
      <trkpt lat="45.494340" lon="10.087046">
        <time>2026-09-28T08:23:42Z</time>
      </trkpt>
      <trkpt lat="45.494274" lon="10.087154">
        <time>2026-09-28T08:23:44Z</time>
      </trkpt>
      <trkpt lat="45.494208" lon="10.087261">
        <time>2026-09-28T08:23:46Z</time>
      </trkpt>
      <trkpt lat="45.494142" lon="10.087368">
        <time>2026-09-28T08:23:48Z</time>
      </trkpt>
      <trkpt lat="45.494076" lon="10.087475">
        <time>2026-09-28T08:23:50Z</time>
      </trkpt>
      <trkpt lat="45.494010" lon="10.087582">
        <time>2026-09-28T08:23:52Z</time>
      </trkpt>
      <trkpt lat="45.493944" lon="10.087690">
        <time>2026-09-28T08:23:54Z</time>
      </trkpt>
      <trkpt lat="45.493879" lon="10.087799">
        <time>2026-09-28T08:23:56Z</time>
      </trkpt>
      <trkpt lat="45.493815" lon="10.087908">
        <time>2026-09-28T08:23:58Z</time>
      </trkpt>
      <trkpt lat="45.493751" lon="10.088018">
        <time>2026-09-28T08:24:00Z</time>
      </trkpt>
    </trkseg>
  </trk>
</gpx>